citing author name,citing paper title,cited paper title,affiliation,latitude,longitude,county,city,state,country
Qinghai Miao,Parallel learning: Overview and perspective for computational learning across Syn2Real and Sim2Real,SIMBAR: Single Image-Based Scene Relighting For Effective Data Augmentation For Automated Driving Vision Tasks,University of Chinese Academy of Sciences Beijing,39.907697049999996,116.24405770367915,,Shijingshan District,Beijing,China
Qi Chen,Towards generalizable tumor synthesis,Deflating dataset bias using synthetic data augmentation,University of Chinese Academy of Sciences Beijing,39.907697049999996,116.24405770367915,,Shijingshan District,Beijing,China
Yisheng Lv,Parallel learning: Overview and perspective for computational learning across Syn2Real and Sim2Real,SIMBAR: Single Image-Based Scene Relighting For Effective Data Augmentation For Automated Driving Vision Tasks,Chinese Academy of Sciences Beijing,39.90933665,116.32971461228999,,Beijing,Beijing,China
Lei Li,Bias oriented unbiased data augmentation for cross-bias representation learning,SIMBAR: Single Image-Based Scene Relighting For Effective Data Augmentation For Automated Driving Vision Tasks,Chinese Academy of Sciences Beijing,39.90933665,116.32971461228999,,Beijing,Beijing,China
Danding Wang,Bias oriented unbiased data augmentation for cross-bias representation learning,SIMBAR: Single Image-Based Scene Relighting For Effective Data Augmentation For Automated Driving Vision Tasks,Chinese Academy of Sciences Beijing,39.90933665,116.32971461228999,,Beijing,Beijing,China
Ou Wu,Data Optimization in Deep Learning: A Survey,DatasetEquity: Are All Samples Created Equal? In The Quest For Equity Within Datasets,Chinese Academy of Sciences Beijing,39.90933665,116.32971461228999,,Beijing,Beijing,China
Yihu Zhu,Change Detection Based on Existing Vector Polygons and Up-to-Date Images Using an Attention-Based Multi-Scale ConvTransformer Network,DatasetEquity: Are All Samples Created Equal? In The Quest For Equity Within Datasets,Chinese Academy of Sciences Beijing,39.90933665,116.32971461228999,,Beijing,Beijing,China
Lei Li,Bias oriented unbiased data augmentation for cross-bias representation learning,Deflating dataset bias using synthetic data augmentation,Chinese Academy of Sciences Beijing,39.90933665,116.32971461228999,,Beijing,Beijing,China
Danding Wang,Bias oriented unbiased data augmentation for cross-bias representation learning,Deflating dataset bias using synthetic data augmentation,Chinese Academy of Sciences Beijing,39.90933665,116.32971461228999,,Beijing,Beijing,China
Xinyu Liu,Deep transfer learning for intelligent vehicle perception: A survey,SIMBAR: Single Image-Based Scene Relighting For Effective Data Augmentation For Automated Driving Vision Tasks,Cleveland State University,41.50258335,-81.67508708526213,Cuyahoga County,Cleveland,Ohio,United States
Huiming Sun,Deep transfer learning for intelligent vehicle perception: A survey,SIMBAR: Single Image-Based Scene Relighting For Effective Data Augmentation For Automated Driving Vision Tasks,Cleveland State University,41.50258335,-81.67508708526213,Cuyahoga County,Cleveland,Ohio,United States
Tianyun Zhang,Deep transfer learning for intelligent vehicle perception: A survey,SIMBAR: Single Image-Based Scene Relighting For Effective Data Augmentation For Automated Driving Vision Tasks,Cleveland State University,41.50258335,-81.67508708526213,Cuyahoga County,Cleveland,Ohio,United States
Hongkai Yu,Deep transfer learning for intelligent vehicle perception: A survey,SIMBAR: Single Image-Based Scene Relighting For Effective Data Augmentation For Automated Driving Vision Tasks,Cleveland State University,41.50258335,-81.67508708526213,Cuyahoga County,Cleveland,Ohio,United States
Jin Ma,Deep transfer learning for intelligent vehicle perception: A survey,SIMBAR: Single Image-Based Scene Relighting For Effective Data Augmentation For Automated Driving Vision Tasks,Clemson University,34.66869155,-82.83743475607795,Pickens County,,South Carolina,United States
Mayukh Sattiraju,"Active data collection,sampling,and generation for use in training machine learning models for automotive or other applications",Neural network image processing,Clemson University,34.66869155,-82.83743475607795,Pickens County,,South Carolina,United States
Zhigang Xu,Deep transfer learning for intelligent vehicle perception: A survey,SIMBAR: Single Image-Based Scene Relighting For Effective Data Augmentation For Automated Driving Vision Tasks,Southwest University (西南大学),29.823237149999997,106.41958835875167,,Beibei,Chongqing,China
Ava Pun,Neural lighting simulation for urban scenes,SIMBAR: Single Image-Based Scene Relighting For Effective Data Augmentation For Automated Driving Vision Tasks,Carnegie Mellon University Pittsburgh,40.444189699999995,-79.94271918393466,Allegheny County,Pittsburgh,Pennsylvania,United States
Jingkang Wang,Neural lighting simulation for urban scenes,SIMBAR: Single Image-Based Scene Relighting For Effective Data Augmentation For Automated Driving Vision Tasks,University of Toronto,43.663461999999996,-79.39775966248058,,Old Toronto,Ontario,Canada
Ze Yang,Neural lighting simulation for urban scenes,SIMBAR: Single Image-Based Scene Relighting For Effective Data Augmentation For Automated Driving Vision Tasks,University of Toronto,43.663461999999996,-79.39775966248058,,Old Toronto,Ontario,Canada
Yun Chen,Neural lighting simulation for urban scenes,SIMBAR: Single Image-Based Scene Relighting For Effective Data Augmentation For Automated Driving Vision Tasks,Waabi,45.0838098,-93.0069304,Ramsey County,,Minnesota,United States
Wei-Chiu Ma,Neural lighting simulation for urban scenes,SIMBAR: Single Image-Based Scene Relighting For Effective Data Augmentation For Automated Driving Vision Tasks,Cornell University,42.4529076,-76.48008423030923,Tompkins County,City of Ithaca,New York,United States
Raquel Urtasun,Neural lighting simulation for urban scenes,SIMBAR: Single Image-Based Scene Relighting For Effective Data Augmentation For Automated Driving Vision Tasks,University of Toronto.,43.663461999999996,-79.39775966248058,,Old Toronto,Ontario,Canada
Shubham Shrivastava,DatasetEquity: Are All Samples Created Equal? In The Quest For Equity Within Datasets,SIMBAR: Single Image-Based Scene Relighting For Effective Data Augmentation For Automated Driving Vision Tasks,Kodiak Robotics,37.408227,-122.0739761,Santa Clara County,Mountain View,California,United States
Shubham Shrivastava,DatasetEquity: Are All Samples Created Equal? In The Quest For Equity Within Datasets,Deflating dataset bias using synthetic data augmentation,Kodiak Robotics,37.408227,-122.0739761,Santa Clara County,Mountain View,California,United States
Shubham Shrivastava,Sim2real for self-supervised monocular depth and segmentation,Deflating dataset bias using synthetic data augmentation,Kodiak Robotics,37.408227,-122.0739761,Santa Clara County,Mountain View,California,United States
Shubham Shrivastava,DatasetEquity: Are All Samples Created Equal? In The Quest For Equity Within Datasets,deepPIC: Deep perceptual image clustering for identifying bias in vision datasets,Kodiak Robotics,37.408227,-122.0739761,Santa Clara County,Mountain View,California,United States
Sushruth Nagesh,DatasetEquity: Are All Samples Created Equal? In The Quest For Equity Within Datasets,SIMBAR: Single Image-Based Scene Relighting For Effective Data Augmentation For Automated Driving Vision Tasks,Ford Motor Company,-38.10269175,144.3579853884846,,Geelong,Victoria,Australia
Sushruth Nagesh,Unveiling the Ambiguity in Neural Inverse Rendering: A Parameter Compensation Analysis,SIMBAR: Single Image-Based Scene Relighting For Effective Data Augmentation For Automated Driving Vision Tasks,Ford Motor Company,-38.10269175,144.3579853884846,,Geelong,Victoria,Australia
Nikita Jaipuria,LANe: Lighting-aware neural fields for compositional scene synthesis,SIMBAR: Single Image-Based Scene Relighting For Effective Data Augmentation For Automated Driving Vision Tasks,Ford Motor Company,-38.10269175,144.3579853884846,,Geelong,Victoria,Australia
Sushruth Nagesh,DatasetEquity: Are All Samples Created Equal? In The Quest For Equity Within Datasets,Deflating dataset bias using synthetic data augmentation,Ford Motor Company,-38.10269175,144.3579853884846,,Geelong,Victoria,Australia
Nikita Jaipuria,Simbar: Single image-based scene relighting for effective data augmentation for automated driving vision tasks,Deflating dataset bias using synthetic data augmentation,Ford Motor Company,-38.10269175,144.3579853884846,,Geelong,Victoria,Australia
Nikita Jaipuria,deepPIC: Deep perceptual image clustering for identifying bias in vision datasets,Deflating dataset bias using synthetic data augmentation,Ford Motor Company,-38.10269175,144.3579853884846,,Geelong,Victoria,Australia
Nikita Jaipuria,Neural network for object detection and tracking,Deflating dataset bias using synthetic data augmentation,Ford Motor Company,-38.10269175,144.3579853884846,,Geelong,Victoria,Australia
Sushruth Nagesh,DatasetEquity: Are All Samples Created Equal? In The Quest For Equity Within Datasets,deepPIC: Deep perceptual image clustering for identifying bias in vision datasets,Ford Motor Company,-38.10269175,144.3579853884846,,Geelong,Victoria,Australia
Shoumeng Qiu,Leveraging Smooth Deformation Augmentation for LiDAR Point Cloud Semantic Segmentation,SIMBAR: Single Image-Based Scene Relighting For Effective Data Augmentation For Automated Driving Vision Tasks,Fudan,23.5381,109.513,,Wuxuan County,Guangxi,China
Jie Chen,Leveraging Smooth Deformation Augmentation for LiDAR Point Cloud Semantic Segmentation,SIMBAR: Single Image-Based Scene Relighting For Effective Data Augmentation For Automated Driving Vision Tasks,Fudan University,31.30116485,121.49808756382322,,Yangpu District,Shanghai,China
Chenghang Lai,Leveraging Smooth Deformation Augmentation for LiDAR Point Cloud Semantic Segmentation,SIMBAR: Single Image-Based Scene Relighting For Effective Data Augmentation For Automated Driving Vision Tasks,Fudan University,31.30116485,121.49808756382322,,Yangpu District,Shanghai,China
Hong Lu,Leveraging Smooth Deformation Augmentation for LiDAR Point Cloud Semantic Segmentation,SIMBAR: Single Image-Based Scene Relighting For Effective Data Augmentation For Automated Driving Vision Tasks,Fudan University,31.30116485,121.49808756382322,,Yangpu District,Shanghai,China
Xiangyang Xue,Leveraging Smooth Deformation Augmentation for LiDAR Point Cloud Semantic Segmentation,SIMBAR: Single Image-Based Scene Relighting For Effective Data Augmentation For Automated Driving Vision Tasks,Fudan University,31.30116485,121.49808756382322,,Yangpu District,Shanghai,China
Nanshan Zheng,Change Detection Based on Existing Vector Polygons and Up-to-Date Images Using an Attention-Based Multi-Scale ConvTransformer Network,DatasetEquity: Are All Samples Created Equal? In The Quest For Equity Within Datasets,Fudan University,31.30116485,121.49808756382322,,Yangpu District,Shanghai,China
Georgios Kouros,Unveiling the Ambiguity in Neural Inverse Rendering: A Parameter Compensation Analysis,SIMBAR: Single Image-Based Scene Relighting For Effective Data Augmentation For Automated Driving Vision Tasks,KU Leuven Belgium,50.80571285,3.2915374489139757,Kortrijk,Kortrijk,West Flanders,Belgium
Minye Wu,Unveiling the Ambiguity in Neural Inverse Rendering: A Parameter Compensation Analysis,SIMBAR: Single Image-Based Scene Relighting For Effective Data Augmentation For Automated Driving Vision Tasks,KU Leuven Belgium,50.80571285,3.2915374489139757,Kortrijk,Kortrijk,West Flanders,Belgium
Dina Bashkirova,Lasagna: Layered Score Distillation for Disentangled Object Relighting,SIMBAR: Single Image-Based Scene Relighting For Effective Data Augmentation For Automated Driving Vision Tasks,Boston University,42.350421499999996,-71.10322831831216,Suffolk County,Boston,Massachusetts,United States
Sarah Adel Bargal,Lasagna: Layered Score Distillation for Disentangled Object Relighting,SIMBAR: Single Image-Based Scene Relighting For Effective Data Augmentation For Automated Driving Vision Tasks,Boston University,42.350421499999996,-71.10322831831216,Suffolk County,Boston,Massachusetts,United States
Kate Saenko,Lasagna: Layered Score Distillation for Disentangled Object Relighting,SIMBAR: Single Image-Based Scene Relighting For Effective Data Augmentation For Automated Driving Vision Tasks,Boston University,42.350421499999996,-71.10322831831216,Suffolk County,Boston,Massachusetts,United States
Rupayan Mallick,Lasagna: Layered Score Distillation for Disentangled Object Relighting,SIMBAR: Single Image-Based Scene Relighting For Effective Data Augmentation For Automated Driving Vision Tasks,Georgetown University.,38.90893925,-77.07457962060826,,Washington,District of Columbia,United States
Jianming Zhang,Lasagna: Layered Score Distillation for Disentangled Object Relighting,SIMBAR: Single Image-Based Scene Relighting For Effective Data Augmentation For Automated Driving Vision Tasks,Adobe Research,47.5549905,7.5899398,,Basel,Basel-City,Switzerland
Ranjay Krishna,Lasagna: Layered Score Distillation for Disentangled Object Relighting,SIMBAR: Single Image-Based Scene Relighting For Effective Data Augmentation For Automated Driving Vision Tasks,University of Washington,47.65566375,-122.30270741043226,King County,Seattle,Washington,United States
Preetam Prabhu Srikar Dammu,Detecting spurious correlations via robust visual concepts in real and AI-generated image classification,Deflating dataset bias using synthetic data augmentation,University of Washington,47.65566375,-122.30270741043226,King County,Seattle,Washington,United States
Chirag Shah,Detecting spurious correlations via robust visual concepts in real and AI-generated image classification,Deflating dataset bias using synthetic data augmentation,University of Washington,47.65566375,-122.30270741043226,King County,Seattle,Washington,United States
Preetam Prabhu Srikar Dammu,Addressing weak decision boundaries in image classification by leveraging web search and generative models,Deflating dataset bias using synthetic data augmentation,University of Washington,47.65566375,-122.30270741043226,King County,Seattle,Washington,United States
Chirag Shah,Addressing weak decision boundaries in image classification by leveraging web search and generative models,Deflating dataset bias using synthetic data augmentation,University of Washington,47.65566375,-122.30270741043226,King County,Seattle,Washington,United States
Jenq-Neng Hwang,Mitigating Bias of Deep Neural Networks for Trustworthy Traffic Perception in Autonomous Systems,Deflating dataset bias using synthetic data augmentation,University of Washington,47.65566375,-122.30270741043226,King County,Seattle,Washington,United States
Jianzhao Bi,Transfer Learning via Latent Dependency Factor for Estimating PM 2.5,Deflating dataset bias using synthetic data augmentation,University of Washington,47.65566375,-122.30270741043226,King County,Seattle,Washington,United States
Jianzhao Bi,Spatial Transfer Learning for Estimating PM 2.5 in Data-Poor Regions,Deflating dataset bias using synthetic data augmentation,University of Washington,47.65566375,-122.30270741043226,King County,Seattle,Washington,United States
Daniel McDuff,CityLifeSim: A High-Fidelity Pedestrian and Vehicle Simulation with Complex Behaviors,Deflating dataset bias using synthetic data augmentation,University of Washington,47.65566375,-122.30270741043226,King County,Seattle,Washington,United States
Ruiqi Zhang,Multi-agent reinforcement learning for autonomous driving: A survey,SIMBAR: Single Image-Based Scene Relighting For Effective Data Augmentation For Automated Driving Vision Tasks,University of California,37.875499649999995,-122.23906851395179,Alameda County,Berkeley,California,United States
Jing Hou,Multi-agent reinforcement learning for autonomous driving: A survey,SIMBAR: Single Image-Based Scene Relighting For Effective Data Augmentation For Automated Driving Vision Tasks,Tongji University,31.27369175,121.38566174235456,,Putuo District,Shanghai,China
Jiayi Guan,Multi-agent reinforcement learning for autonomous driving: A survey,SIMBAR: Single Image-Based Scene Relighting For Effective Data Augmentation For Automated Driving Vision Tasks,Tongji University,31.27369175,121.38566174235456,,Putuo District,Shanghai,China
Guang Chen,Multi-agent reinforcement learning for autonomous driving: A survey,SIMBAR: Single Image-Based Scene Relighting For Effective Data Augmentation For Automated Driving Vision Tasks,Tongji University,31.27369175,121.38566174235456,,Putuo District,Shanghai,China
Florian Röhrbein,Multi-agent reinforcement learning for autonomous driving: A survey,SIMBAR: Single Image-Based Scene Relighting For Effective Data Augmentation For Automated Driving Vision Tasks,TUC,22.2892449,113.9413739,,Islands District,Hong Kong,China
Yali Du,Multi-agent reinforcement learning for autonomous driving: A survey,SIMBAR: Single Image-Based Scene Relighting For Effective Data Augmentation For Automated Driving Vision Tasks,King's College London,51.503403199999994,-0.08946614662781002,,London,England,United Kingdom
Panpan Cai,Multi-agent reinforcement learning for autonomous driving: A survey,SIMBAR: Single Image-Based Scene Relighting For Effective Data Augmentation For Automated Driving Vision Tasks,Shanghai Jiao Tong University,31.200891149999997,121.4283949471511,,Xuhui District,Shanghai,China
Ziyi Yang,A General Implicit Framework for Fast NeRF Composition and Rendering,LANe: Lighting-Aware Neural Fields for Compositional Scene Synthesis,Shanghai Jiao Tong University,31.200891149999997,121.4283949471511,,Xuhui District,Shanghai,China
Linfeng Zhang,Revisiting Data Augmentation in Model Compression: An Empirical and Comprehensive Study,Deflating dataset bias using synthetic data augmentation,Shanghai Jiao Tong University,31.200891149999997,121.4283949471511,,Xuhui District,Shanghai,China
Alois Knoll,Multi-agent reinforcement learning for autonomous driving: A survey,SIMBAR: Single Image-Based Scene Relighting For Effective Data Augmentation For Automated Driving Vision Tasks,Technische Universität München,48.2655696,11.669345610437997,Landkreis München,,Bavaria,Germany
Akshay Krishnan,LANe: Lighting-aware neural fields for compositional scene synthesis,SIMBAR: Single Image-Based Scene Relighting For Effective Data Augmentation For Automated Driving Vision Tasks,Georgia Institute of Technology,33.776094799999996,-84.3988076699857,Fulton County,Atlanta,Georgia Institute of Technology,United States
David J Lin,Synthetic seismocardiogram generation using a transformer-based neural network,Deflating dataset bias using synthetic data augmentation,Georgia Institute of Technology,33.776094799999996,-84.3988076699857,Fulton County,Atlanta,Georgia Institute of Technology,United States
Vaibhav Kumar,Role of Simulated Lidar Data for Training 3D Deep Learning Models: An Exhaustive Analysis,Deflating dataset bias using synthetic data augmentation,Georgia Institute of Technology,33.776094799999996,-84.3988076699857,Fulton County,Atlanta,Georgia Institute of Technology,United States
James Hays,LANe: Lighting-aware neural fields for compositional scene synthesis,SIMBAR: Single Image-Based Scene Relighting For Effective Data Augmentation For Automated Driving Vision Tasks,Georgia Institute of Technology Tech,33.776094799999996,-84.3988076699857,Fulton County,Atlanta,Georgia Institute of Technology,United States
Omer T Inan,Synthetic seismocardiogram generation using a transformer-based neural network,Deflating dataset bias using synthetic data augmentation,Georgia Institute of Technology Tech,33.776094799999996,-84.3988076699857,Fulton County,Atlanta,Georgia Institute of Technology,United States
Alban Gauthier,A Diffusion Approach to Radiance Field Relighting using Multi-Illumination Synthesis,SIMBAR: Single Image-Based Scene Relighting For Effective Data Augmentation For Automated Driving Vision Tasks,INRIA Sophia-Antipolis,43.6162999,7.0680469,Maritime Alps,,Provence-Alpes-Côte d'Azur,France
J-F Lalonde,A Diffusion Approach to Radiance Field Relighting using Multi-Illumination Synthesis,SIMBAR: Single Image-Based Scene Relighting For Effective Data Augmentation For Automated Driving Vision Tasks,Université Laval,46.78116215,-71.27680024340233,Urban agglomeration of Québec,Quebec,Quebec,Canada
Shutong Zhang,"Sun Off,Lights On: Photorealistic Monocular Nighttime Simulation for Robust Semantic Perception",SIMBAR: Single Image-Based Scene Relighting For Effective Data Augmentation For Automated Driving Vision Tasks,Stanford University,37.431313849999995,-122.16936535498309,Santa Clara County,,California,United States
Sanmi Koyejo,Toward fairness in artificial intelligence for medical image analysis: identification and mitigation of potential biases in the roadmap from data collection to model deployment,Deflating dataset bias using synthetic data augmentation,Stanford University,37.431313849999995,-122.16936535498309,Santa Clara County,,California,United States
Aaron Kline,Challenges and opportunities for machine learning classification of behavior and mental state from images,Deflating dataset bias using synthetic data augmentation,Stanford University,37.431313849999995,-122.16936535498309,Santa Clara County,,California,United States
Kelley Paskov,Challenges and opportunities for machine learning classification of behavior and mental state from images,Deflating dataset bias using synthetic data augmentation,Stanford University,37.431313849999995,-122.16936535498309,Santa Clara County,,California,United States
Brianna Chrisman,Challenges and opportunities for machine learning classification of behavior and mental state from images,Deflating dataset bias using synthetic data augmentation,Stanford University,37.431313849999995,-122.16936535498309,Santa Clara County,,California,United States
Nick Deveau,Challenges and opportunities for machine learning classification of behavior and mental state from images,Deflating dataset bias using synthetic data augmentation,Stanford University,37.431313849999995,-122.16936535498309,Santa Clara County,,California,United States
Nick Haber,Challenges and opportunities for machine learning classification of behavior and mental state from images,Deflating dataset bias using synthetic data augmentation,Stanford University,37.431313849999995,-122.16936535498309,Santa Clara County,,California,United States
Dennis P Wall,Challenges and opportunities for machine learning classification of behavior and mental state from images,Deflating dataset bias using synthetic data augmentation,Stanford University,37.431313849999995,-122.16936535498309,Santa Clara County,,California,United States
Jonathan Zia,Synthetic seismocardiogram generation using a transformer-based neural network,Deflating dataset bias using synthetic data augmentation,Stanford University,37.431313849999995,-122.16936535498309,Santa Clara County,,California,United States
Christos Sakaridis,"Sun Off,Lights On: Photorealistic Monocular Nighttime Simulation for Robust Semantic Perception",SIMBAR: Single Image-Based Scene Relighting For Effective Data Augmentation For Automated Driving Vision Tasks,ETH Zurich,47.413218,8.5374914,District Zurich,Zurich,Zurich,Switzerland
Fan Tang,Bias oriented unbiased data augmentation for cross-bias representation learning,SIMBAR: Single Image-Based Scene Relighting For Effective Data Augmentation For Automated Driving Vision Tasks,UCAS,40.409010800000004,116.67063286305327,,Huairou District,Beijing,China
Fan Tang,Bias oriented unbiased data augmentation for cross-bias representation learning,Deflating dataset bias using synthetic data augmentation,UCAS,40.409010800000004,116.67063286305327,,Huairou District,Beijing,China
Juan Cao,Bias oriented unbiased data augmentation for cross-bias representation learning,SIMBAR: Single Image-Based Scene Relighting For Effective Data Augmentation For Automated Driving Vision Tasks,Chinese Academy of Science,41.7691902,123.439023,,Shenhe District,Liaoning,China
Juan Cao,Bias oriented unbiased data augmentation for cross-bias representation learning,Deflating dataset bias using synthetic data augmentation,Chinese Academy of Science,41.7691902,123.439023,,Shenhe District,Liaoning,China
Xirong Li,Bias oriented unbiased data augmentation for cross-bias representation learning,SIMBAR: Single Image-Based Scene Relighting For Effective Data Augmentation For Automated Driving Vision Tasks,Renmin University of China,39.9695397,116.30712905005895,,Haidian District,Beijing,China
Xirong Li,Bias oriented unbiased data augmentation for cross-bias representation learning,Deflating dataset bias using synthetic data augmentation,Renmin University of China,39.9695397,116.30712905005895,,Haidian District,Beijing,China
Kenneth Blomqvist,A Farewell to Supervision: Towards Self-supervised Autonomous Systems,SIMBAR: Single Image-Based Scene Relighting For Effective Data Augmentation For Automated Driving Vision Tasks,ETH Zürich,47.413218,8.5374914,District Zurich,Zurich,Zurich,Switzerland
Shengli Wang,Change Detection Based on Existing Vector Polygons and Up-to-Date Images Using an Attention-Based Multi-Scale ConvTransformer Network,DatasetEquity: Are All Samples Created Equal? In The Quest For Equity Within Datasets,City University of Hong Kong,22.3400204,114.16971664362887,,Kowloon,Hong Kong,China
Hua Zhang,Change Detection Based on Existing Vector Polygons and Up-to-Date Images Using an Attention-Based Multi-Scale ConvTransformer Network,DatasetEquity: Are All Samples Created Equal? In The Quest For Equity Within Datasets,City University of Hong Kong,22.3400204,114.16971664362887,,Kowloon,Hong Kong,China
Yuxiang Sun,A General Implicit Framework for Fast NeRF Composition and Rendering,LANe: Lighting-Aware Neural Fields for Compositional Scene Synthesis,City University of Hong Kong,22.3400204,114.16971664362887,,Kowloon,Hong Kong,China
Wei Liu,Change Detection Based on Existing Vector Polygons and Up-to-Date Images Using an Attention-Based Multi-Scale ConvTransformer Network,DatasetEquity: Are All Samples Created Equal? In The Quest For Equity Within Datasets,Sun Yat-Sen University,23.09960335,113.29235087324346,,Haizhu District,Guangdong Province,China
Yongkun Liu,Change Detection Based on Existing Vector Polygons and Up-to-Date Images Using an Attention-Based Multi-Scale ConvTransformer Network,DatasetEquity: Are All Samples Created Equal? In The Quest For Equity Within Datasets,Sun Yat-Sen University,23.09960335,113.29235087324346,,Haizhu District,Guangdong Province,China
Xu Zhao,Change Detection Based on Existing Vector Polygons and Up-to-Date Images Using an Attention-Based Multi-Scale ConvTransformer Network,DatasetEquity: Are All Samples Created Equal? In The Quest For Equity Within Datasets,North China Electric Power University,38.8760446,115.4973873,,Baoding City,Hebei,China
Siva Karthik Mustikovela,Training object detection systems with generated images,Neural network image processing,University of Heidelberg,49.419968499999996,8.683898433423984,,Heidelberg,Baden-Württemberg,Germany
Aayush Prakash,Training object detection systems with generated images,Neural network image processing,Facebook,-1.2772989,36.76095918258451,,Nairobi,Nairobi County,Kenya
Sifei Liu,Training object detection systems with generated images,Neural network image processing,NVIDIA Santa Clara,45.5344957,-122.886274,Washington County,Hillsboro,Oregon,United States
Anima Anandkumar,Simulation intelligence: Towards a new generation of scientific methods,Deflating dataset bias using synthetic data augmentation,NVIDIA Santa Clara,45.5344957,-122.886274,Washington County,Hillsboro,Oregon,United States
David James Woodward,Automatic Image Conversion,Neural network image processing,Postgraduate Institute of Medical Education,30.7643681,76.7762778,,Chandigarh,,India
David James Woodward,Automatic Image Conversion,Neural network image processing,Research (PGIMER),30.7643681,76.7762778,,Chandigarh,,India
Jessica Lundin,Automatic Image Conversion,Neural network image processing,Public Health -- Seattle & King County,47.6145908,-122.34217759004977,King County,Seattle,Washington,United States
Jing Lu,Offline Tracking System for Autonomous Vehicle Control Systems,Neural network image processing,Hong Kong Polytechnic University,22.302644,114.1776025,,Kowloon,Hong Kong,China
Zheng Qu,Offline Tracking System for Autonomous Vehicle Control Systems,Neural network image processing,North Carolina State University,35.7708033,-78.6747332,Wake County,Raleigh,North Carolina,United States
Kilsoo Kim,"Active data collection,sampling,and generation for use in training machine learning models for automotive or other applications",Neural network image processing,Georgia Institute of Technology,32.3293809,-83.1137366,Dodge County,,Georgia Institute of Technology,United States
Qi Peng,"Active data collection,sampling,and generation for use in training machine learning models for automotive or other applications",Neural network image processing,University of Georgia Institute of Technology,33.9404278,-83.37304904988295,Athens-Clarke County,Athens-Clarke County Unified Government,Georgia Institute of Technology,United States
Lei Cao,"Active data collection,sampling,and generation for use in training machine learning models for automotive or other applications",Neural network image processing,Mount Sinai,28.5388088,33.9751845,,Saint Catherine,South Sinai,Egypt
Phillip Vu,"Active data collection,sampling,and generation for use in training machine learning models for automotive or other applications",Neural network image processing,VU University,52.3340539,4.865188201518784,,Amsterdam,North Holland,Netherlands
Prakash Padiri Bhanu,A computer-implemented method for reducing false positives in a computer vision task and application thereof to motor vehicle exterior monitoring,Neural network image processing,Mohali,30.7041168,76.7176885,,,Punjab,India
Xinyu Gao,A General Implicit Framework for Fast NeRF Composition and Rendering,LANe: Lighting-Aware Neural Fields for Compositional Scene Synthesis,Tsinghua University,40.002290450000004,116.3209629696906,,Haidian District,Beijing,China
Yibo Wang,Detdiffusion: Synergizing generative and perceptive models for enhanced data generation and perception,Deflating dataset bias using synthetic data augmentation,Tsinghua University,40.002290450000004,116.3209629696906,,Haidian District,Beijing,China
Kaisheng Ma,Revisiting Data Augmentation in Model Compression: An Empirical and Comprehensive Study,Deflating dataset bias using synthetic data augmentation,Tsinghua University,40.002290450000004,116.3209629696906,,Haidian District,Beijing,China
Yunlu Zhao,A General Implicit Framework for Fast NeRF Composition and Rendering,LANe: Lighting-Aware Neural Fields for Compositional Scene Synthesis,Shinshu University,36.7117308,138.4937932,Shimotakai County,,,Japan
Xiaogang Jin,A General Implicit Framework for Fast NeRF Composition and Rendering,LANe: Lighting-Aware Neural Fields for Compositional Scene Synthesis,Zhejiang University,30.521595,120.7195312,,Haining,Zhejiang,China
Changqing Zou,A General Implicit Framework for Fast NeRF Composition and Rendering,LANe: Lighting-Aware Neural Fields for Compositional Scene Synthesis,Zhejiang University,30.521595,120.7195312,,Haining,Zhejiang,China
Yasutaka Narazaki,Synthetic environments for vision-based structural condition assessment of Japanese high-speed railway viaducts,Deflating dataset bias using synthetic data augmentation,Zhejiang University,30.521595,120.7195312,,Haining,Zhejiang,China
Yasutaka Narazaki,Autonomous vision-based inspection of RC railway bridges for rapid post-earthquake response and recovery,Deflating dataset bias using synthetic data augmentation,Zhejiang University,30.521595,120.7195312,,Haining,Zhejiang,China
Javaan Chahl,A review of synthetic image data and its use in computer vision,Deflating dataset bias using synthetic data augmentation,University of South Australia,-37.8062142,140.766463,,Mount Gambier,South Australia,Australia
Nima Shahbazi,Representation bias in data: A survey on identification and resolution techniques,Deflating dataset bias using synthetic data augmentation,York University,43.7741232,-79.4996291,,Toronto,Ontario,Canada
Nima Shahbazi,A survey on techniques for identifying and resolving representation bias in data,Deflating dataset bias using synthetic data augmentation,York University,43.7741232,-79.4996291,,Toronto,Ontario,Canada
Yin Lin,Representation bias in data: A survey on identification and resolution techniques,Deflating dataset bias using synthetic data augmentation,University of Michigan,42.2942142,-83.71003893509601,Washtenaw County,Ann Arbor,Michigan,United States
HV Jagadish,Representation bias in data: A survey on identification and resolution techniques,Deflating dataset bias using synthetic data augmentation,University of Michigan,42.2942142,-83.71003893509601,Washtenaw County,Ann Arbor,Michigan,United States
Yin Lin,A survey on techniques for identifying and resolving representation bias in data,Deflating dataset bias using synthetic data augmentation,University of Michigan,42.2942142,-83.71003893509601,Washtenaw County,Ann Arbor,Michigan,United States
HV Jagadish,A survey on techniques for identifying and resolving representation bias in data,Deflating dataset bias using synthetic data augmentation,University of Michigan,42.2942142,-83.71003893509601,Washtenaw County,Ann Arbor,Michigan,United States
Westley Weimer,Automated Program Repair: Emerging trends pose and expose problems for benchmarks,Deflating dataset bias using synthetic data augmentation,University of Michigan,42.2942142,-83.71003893509601,Washtenaw County,Ann Arbor,Michigan,United States
Sangwoo Mo,Discovering and Mitigating Visual Biases through Keyword Explanation,deepPIC: Deep perceptual image clustering for identifying bias in vision datasets,University of Michigan,42.2942142,-83.71003893509601,Washtenaw County,Ann Arbor,Michigan,United States
Abolfazl Asudeh,Representation bias in data: A survey on identification and resolution techniques,Deflating dataset bias using synthetic data augmentation,University of Illinois Chicago,41.872236,-87.68197091508743,Cook County,Chicago,Illinois,United States
Abolfazl Asudeh,A survey on techniques for identifying and resolving representation bias in data,Deflating dataset bias using synthetic data augmentation,University of Illinois Chicago,41.872236,-87.68197091508743,Cook County,Chicago,Illinois,United States
Yann LeCun,The effects of regularization and data augmentation are class dependent,Deflating dataset bias using synthetic data augmentation,Meta,40.729205300000004,-73.99501481290962,New York County,New York,New York,United States
Alexander Lavin,Simulation intelligence: Towards a new generation of scientific methods,Deflating dataset bias using synthetic data augmentation,NASA,40.4269303,49.8413926,,Baku City,,Azerbaijan
David Krakauer,Simulation intelligence: Towards a new generation of scientific methods,Deflating dataset bias using synthetic data augmentation,Santa Fe Institute.,35.700326849999996,-105.90881561569873,Santa Fe County,Santa Fe,New Mexico,United States
Anima Anandkumar,Simulation intelligence: Towards a new generation of scientific methods,Deflating dataset bias using synthetic data augmentation,California Institute of Technology,34.13701375,-118.12528833668254,,Pasadena,California,United States
Sanjay Choudry,Simulation intelligence: Towards a new generation of scientific methods,Deflating dataset bias using synthetic data augmentation,Chaudhary Charan Singh Haryana Agricultural University Hisar,29.14538425,75.70431860267045,Hisar,Hisar,Haryana,India
Kamil Rocki,Simulation intelligence: Towards a new generation of scientific methods,Deflating dataset bias using synthetic data augmentation,Neuralink,37.762467,-122.4148018,,San Francisco,California,United States
others,Simulation intelligence: Towards a new generation of scientific methods,Deflating dataset bias using synthetic data augmentation,UK,54.7023545,-3.2765753,Cumberland,,England,United Kingdom
others,Toward fairness in artificial intelligence for medical image analysis: identification and mitigation of potential biases in the roadmap from data collection to model deployment,Deflating dataset bias using synthetic data augmentation,UK,54.7023545,-3.2765753,Cumberland,,England,United Kingdom
others,Detdiffusion: Synergizing generative and perceptive models for enhanced data generation and perception,Deflating dataset bias using synthetic data augmentation,UK,54.7023545,-3.2765753,Cumberland,,England,United Kingdom
Eyal Ofek,CityLifeSim: A High-Fidelity Pedestrian and Vehicle Simulation with Complex Behaviors,Deflating dataset bias using synthetic data augmentation,UK,54.7023545,-3.2765753,Cumberland,,England,United Kingdom
others,Semantics for vision-and-language understanding,Deflating dataset bias using synthetic data augmentation,UK,54.7023545,-3.2765753,Cumberland,,England,United Kingdom
Weijie Chen,Toward fairness in artificial intelligence for medical image analysis: identification and mitigation of potential biases in the roadmap from data collection to model deployment,Deflating dataset bias using synthetic data augmentation,University of Chicago,41.79139685,-87.60084387193544,Cook County,Chicago,Illinois,United States
Weijie Chen,Toward fairness in artificial intelligence for medical image analysis: identification and mitigation of potential biases in the roadmap from data collection to model deployment,Deflating dataset bias using synthetic data augmentation,Food,52.4289873,13.5385751,,Berlin,,Germany
Weijie Chen,Toward fairness in artificial intelligence for medical image analysis: identification and mitigation of potential biases in the roadmap from data collection to model deployment,Deflating dataset bias using synthetic data augmentation,Drug Administration,43.0766528,-89.3818615,Dane County,Madison,Wisconsin,United States
Berkman Sahiner,Toward fairness in artificial intelligence for medical image analysis: identification and mitigation of potential biases in the roadmap from data collection to model deployment,Deflating dataset bias using synthetic data augmentation,Drug Administration,43.0766528,-89.3818615,Dane County,Madison,Wisconsin,United States
Judy Gichoya,Toward fairness in artificial intelligence for medical image analysis: identification and mitigation of potential biases in the roadmap from data collection to model deployment,Deflating dataset bias using synthetic data augmentation,Emory University,33.80045465,-84.31723780466274,DeKalb County,,Georgia Institute of Technology,United States
Shrey Gupta,Transfer Learning via Latent Dependency Factor for Estimating PM 2.5,Deflating dataset bias using synthetic data augmentation,Emory University,33.80045465,-84.31723780466274,DeKalb County,,Georgia Institute of Technology,United States
"Andreas Z{\""u}fle",Transfer Learning via Latent Dependency Factor for Estimating PM 2.5,Deflating dataset bias using synthetic data augmentation,Emory University,33.80045465,-84.31723780466274,DeKalb County,,Georgia Institute of Technology,United States
Shrey Gupta,Spatial Transfer Learning for Estimating PM 2.5 in Data-Poor Regions,Deflating dataset bias using synthetic data augmentation,Emory University,33.80045465,-84.31723780466274,DeKalb County,,Georgia Institute of Technology,United States
"Andreas Z{\""u}fle",Spatial Transfer Learning for Estimating PM 2.5 in Data-Poor Regions,Deflating dataset bias using synthetic data augmentation,Emory University,33.80045465,-84.31723780466274,DeKalb County,,Georgia Institute of Technology,United States
Jayashree Kalpathy-Cramer,Toward fairness in artificial intelligence for medical image analysis: identification and mitigation of potential biases in the roadmap from data collection to model deployment,Deflating dataset bias using synthetic data augmentation,University of Colorado,40.00759835,-105.26910078017822,Boulder County,Boulder,Colorado,United States
Kyle Myers,Toward fairness in artificial intelligence for medical image analysis: identification and mitigation of potential biases in the roadmap from data collection to model deployment,Deflating dataset bias using synthetic data augmentation,Center for Devices,31.52796285,34.45372263909137,,Gaza,,Palestinian Territories
Kyle Myers,Toward fairness in artificial intelligence for medical image analysis: identification and mitigation of potential biases in the roadmap from data collection to model deployment,Deflating dataset bias using synthetic data augmentation,Radiological Health,35.14077,33.3390584,Strovolos Municipality,,Cyprus,Cyprus
Berkman Sahiner,Toward fairness in artificial intelligence for medical image analysis: identification and mitigation of potential biases in the roadmap from data collection to model deployment,Deflating dataset bias using synthetic data augmentation,US Food,34.0440296,-118.4213724,Los Angeles County,Los Angeles,California,United States
Berkman Sahiner,Toward fairness in artificial intelligence for medical image analysis: identification and mitigation of potential biases in the roadmap from data collection to model deployment,Deflating dataset bias using synthetic data augmentation,ARPA-H,43.3589862,-8.403763,A Coruña,A Coruña,Galicia,Spain
Heather Whitney,Toward fairness in artificial intelligence for medical image analysis: identification and mitigation of potential biases in the roadmap from data collection to model deployment,Deflating dataset bias using synthetic data augmentation,University of Bristol,51.4905582,-2.6304824978595356,North Somerset,,England,United Kingdom
Huili Chen,Smarter Contracts: Detecting Vulnerabilities in Smart Contracts with Deep Transfer Learning.,Deflating dataset bias using synthetic data augmentation,Amazon,-3.1883219,-59.5174371,,,Amazonas,Brazil
Sungtae An,Synthetic seismocardiogram generation using a transformer-based neural network,Deflating dataset bias using synthetic data augmentation,Amazon,-3.1883219,-59.5174371,,,Amazonas,Brazil
Alexandra Dmitrienko,Smarter Contracts: Detecting Vulnerabilities in Smart Contracts with Deep Transfer Learning.,Deflating dataset bias using synthetic data augmentation,Würzburg University,49.780603150000005,9.971655766351642,,Würzburg,Bavaria,Germany
Ahmad-Reza Sadeghi,Smarter Contracts: Detecting Vulnerabilities in Smart Contracts with Deep Transfer Learning.,Deflating dataset bias using synthetic data augmentation,Technische Universität Darmstadt,49.86115175,8.681943998674633,,Darmstadt,Hesse,Germany
Farinaz Koushanfar,Smarter Contracts: Detecting Vulnerabilities in Smart Contracts with Deep Transfer Learning.,Deflating dataset bias using synthetic data augmentation,UC San Diego,32.77249785,-117.1880311872546,,San Diego,California,United States
Xiaoxi Chen,Towards generalizable tumor synthesis,Deflating dataset bias using synthetic data augmentation,University of Illinois Urbana-Champaign,40.076154450000004,-88.22331340640494,Champaign County,Urbana,Illinois,United States
Zhiwei Xiong,Towards generalizable tumor synthesis,Deflating dataset bias using synthetic data augmentation,University of Science,51.51426105,-0.11673351981492822,,London,England,United Kingdom
Zhiwei Xiong,Towards generalizable tumor synthesis,Deflating dataset bias using synthetic data augmentation,Technology of China,31.2787148,120.72376292616886,,Suzhou Industrial Park,Jiangsu,China
Alan Yuille,Towards generalizable tumor synthesis,Deflating dataset bias using synthetic data augmentation,Johns Hopkins University,39.33020225,-76.62185357858337,,Baltimore,Maryland,United States
Zongwei Zhou,Towards generalizable tumor synthesis,Deflating dataset bias using synthetic data augmentation,Johns Hopkins University,39.33020225,-76.62185357858337,,Baltimore,Maryland,United States
Eduarda Vaz,Data Augmentation Based on Virtual Wrist Devices for Fall Detection,Deflating dataset bias using synthetic data augmentation,Johns Hopkins University,39.33020225,-76.62185357858337,,Baltimore,Maryland,United States
Chen Wei,Towards generalizable tumor synthesis,Deflating dataset bias using synthetic data augmentation,Bristol-Myers Squibb Co.,40.36391895,-74.73344895840222,Mercer County,,New Jersey,United States
Vedhus Hoskere,Synthetic environments for vision-based structural condition assessment of Japanese high-speed railway viaducts,Deflating dataset bias using synthetic data augmentation,University of Houston,29.7207902,-95.34406271491369,Harris County,Houston,Texas,United States
Vedhus Hoskere,Synthetic environments for vision-based structural condition assessment of Japanese high-speed railway viaducts,Deflating dataset bias using synthetic data augmentation,Urbana-Champaign,40.1117174,-88.207301,Champaign County,Urbana,Illinois,United States
Billie F Spencer,Synthetic environments for vision-based structural condition assessment of Japanese high-speed railway viaducts,Deflating dataset bias using synthetic data augmentation,Urbana-Champaign,40.1117174,-88.207301,Champaign County,Urbana,Illinois,United States
Koji Yoshida,Synthetic environments for vision-based structural condition assessment of Japanese high-speed railway viaducts,Deflating dataset bias using synthetic data augmentation,Kindai University,34.6517298,135.59131536120069,,Higashiōsaka,,Japan
Chuqing Hu,Sim-to-real domain adaptation for lane detection and classification in autonomous driving,Deflating dataset bias using synthetic data augmentation,University of Waterloo,43.4701994,-80.54524293779451,Region of Waterloo,Wilmot,Ontario,Canada
Sinclair Hudson,Sim-to-real domain adaptation for lane detection and classification in autonomous driving,Deflating dataset bias using synthetic data augmentation,University of Waterloo,43.4701994,-80.54524293779451,Region of Waterloo,Wilmot,Ontario,Canada
Martin Ethier,Sim-to-real domain adaptation for lane detection and classification in autonomous driving,Deflating dataset bias using synthetic data augmentation,University of Waterloo,43.4701994,-80.54524293779451,Region of Waterloo,Wilmot,Ontario,Canada
Mohammad Al-Sharman,Sim-to-real domain adaptation for lane detection and classification in autonomous driving,Deflating dataset bias using synthetic data augmentation,University of Waterloo,43.4701994,-80.54524293779451,Region of Waterloo,Wilmot,Ontario,Canada
Derek Rayside,Sim-to-real domain adaptation for lane detection and classification in autonomous driving,Deflating dataset bias using synthetic data augmentation,University of Waterloo,43.4701994,-80.54524293779451,Region of Waterloo,Wilmot,Ontario,Canada
William Melek,Sim-to-real domain adaptation for lane detection and classification in autonomous driving,Deflating dataset bias using synthetic data augmentation,University of Waterloo,43.4701994,-80.54524293779451,Region of Waterloo,Wilmot,Ontario,Canada
Monik Raj Behera,Fedsyn: Synthetic data generation using federated learning,Deflating dataset bias using synthetic data augmentation,Indian Institute of Technology Jodhpur,26.472940100000002,73.11433746970826,Jodhpur Tehsil,,Rajasthan,India
Sudhir Upadhyay,Fedsyn: Synthetic data generation using federated learning,Deflating dataset bias using synthetic data augmentation,J.P. Morgan,51.5117166,-0.105857,,City of London,England,United Kingdom
Enrico Barbierato,A methodology for controlling bias and fairness in synthetic data generation,Deflating dataset bias using synthetic data augmentation,Università del Sacro Cuore,45.537861449999994,10.224281265977462,Brescia,Brescia,Lombardy,Italy
Marco L Della Vedova,A methodology for controlling bias and fairness in synthetic data generation,Deflating dataset bias using synthetic data augmentation,Chalmers University of Technology,57.6897462,11.97652589525446,Västra Götaland County,Gothenburg,,Sweden
Yu Chen,Generating Handwritten Mathematical Expressions From Symbol Graphs: An End-to-End Pipeline,Deflating dataset bias using synthetic data augmentation,National Cheng Kung University,22.99909895,120.21622951861194,,Tainan,,Taiwan
Fei Gao,Generating Handwritten Mathematical Expressions From Symbol Graphs: An End-to-End Pipeline,Deflating dataset bias using synthetic data augmentation,Xidian University,34.1251589,108.82896528504287,,Chang'an District,Shaanxi,China
Nannan Wang,Generating Handwritten Mathematical Expressions From Symbol Graphs: An End-to-End Pipeline,Deflating dataset bias using synthetic data augmentation,Xidian University,34.1251589,108.82896528504287,,Chang'an District,Shaanxi,China
Maoying Qiao,Generating Handwritten Mathematical Expressions From Symbol Graphs: An End-to-End Pipeline,Deflating dataset bias using synthetic data augmentation,UTS,2.34124435,111.84479892154536,Sibu,Sibu,Sarawak,Malaysia
Sanchari Dhar,Evaluation of the benchmark datasets for testing the efficacy of deep convolutional neural networks,Deflating dataset bias using synthetic data augmentation,Kansas State University,39.20883,-96.58845116318602,Riley County,Manhattan,Kansas,United States
Lior Shamir,Evaluation of the benchmark datasets for testing the efficacy of deep convolutional neural networks,Deflating dataset bias using synthetic data augmentation,Kansas State University,39.20883,-96.58845116318602,Riley County,Manhattan,Kansas,United States
Sanchari Dhar,Testing bias in analysis of convolutional neural networks,Deflating dataset bias using synthetic data augmentation,Kansas State University,39.20883,-96.58845116318602,Riley County,Manhattan,Kansas,United States
Vithya Yogarajan,Data and model bias in artificial intelligence for healthcare applications in New Zealand,Deflating dataset bias using synthetic data augmentation,University of Auckland,-36.8660955,174.77373309361866,,Auckland,Auckland,New Zealand
Gillian Dobbie,Data and model bias in artificial intelligence for healthcare applications in New Zealand,Deflating dataset bias using synthetic data augmentation,University of Auckland,-36.8660955,174.77373309361866,,Auckland,Auckland,New Zealand
Varsha Asrani,Data and model bias in artificial intelligence for healthcare applications in New Zealand,Deflating dataset bias using synthetic data augmentation,University of Auckland,-36.8660955,174.77373309361866,,Auckland,Auckland,New Zealand
Sharon Leitch,Data and model bias in artificial intelligence for healthcare applications in New Zealand,Deflating dataset bias using synthetic data augmentation,University of Otago,-45.8649793,170.51461487350844,Dunedin City,Dunedin,Otago,New Zealand
David Reith,Data and model bias in artificial intelligence for healthcare applications in New Zealand,Deflating dataset bias using synthetic data augmentation,University of Otago,-45.8649793,170.51461487350844,Dunedin City,Dunedin,Otago,New Zealand
Te Taka Keegan,Data and model bias in artificial intelligence for healthcare applications in New Zealand,Deflating dataset bias using synthetic data augmentation,Waikato University,-37.7858739,175.31676647297562,,Hamilton,Waikato,New Zealand
Varsha Asrani,Data and model bias in artificial intelligence for healthcare applications in New Zealand,Deflating dataset bias using synthetic data augmentation,Auckland City Hospital,-36.85946825,174.76993745260185,,Auckland,Auckland,New Zealand
Yara Suleiman,Synthetic data augmentation to enhance manual and automated defect detection in microelectronics,Deflating dataset bias using synthetic data augmentation,University of Connecticut,41.82175755,-72.24277535505323,Capitol Planning Region,,,United States
Hongbin Choi,Synthetic data augmentation to enhance manual and automated defect detection in microelectronics,Deflating dataset bias using synthetic data augmentation,University of Connecticut,41.82175755,-72.24277535505323,Capitol Planning Region,,,United States
Sina Shahbazmohamadi,Synthetic data augmentation to enhance manual and automated defect detection in microelectronics,Deflating dataset bias using synthetic data augmentation,University of Connecticut,41.82175755,-72.24277535505323,Capitol Planning Region,,,United States
Pouya Tavousi,Synthetic data augmentation to enhance manual and automated defect detection in microelectronics,Deflating dataset bias using synthetic data augmentation,University of Connecticut,41.82175755,-72.24277535505323,Capitol Planning Region,,,United States
Nicholas May,Synthetic data augmentation to enhance manual and automated defect detection in microelectronics,Deflating dataset bias using synthetic data augmentation,La Trobe University,-37.7170343,145.0441466,,Melbourne,Victoria,Australia
Clinton Fookes,Synthetic Data for Deep Learning in Computer Vision \& Medical Imaging: A Means to Reduce Data Bias,Deflating dataset bias using synthetic data augmentation,Queensland University of Technology,-27.45122955,153.01621943949505,,,Queensland,Australia
Asim H Gazi,Synthetic seismocardiogram generation using a transformer-based neural network,Deflating dataset bias using synthetic data augmentation,Harvard University,42.365743249999994,-71.12221394207614,Suffolk County,Boston,Massachusetts,United States
Ayush Noori,Few shot learning for phenotype-driven diagnosis of patients with rare genetic diseases,Deflating dataset bias using synthetic data augmentation,Harvard University,42.365743249999994,-71.12221394207614,Suffolk County,Boston,Massachusetts,United States
Marinka Zitnik,Few shot learning for phenotype-driven diagnosis of patients with rare genetic diseases,Deflating dataset bias using synthetic data augmentation,Harvard University,42.365743249999994,-71.12221394207614,Suffolk County,Boston,Massachusetts,United States
Rishikesan Kamaleswaran,Synthetic seismocardiogram generation using a transformer-based neural network,Deflating dataset bias using synthetic data augmentation,Duke University,36.00015569999999,-78.94422972195878,Durham County,Durham,North Carolina,United States
Yiran Chen,Mitigating Bias of Deep Neural Networks for Trustworthy Traffic Perception in Autonomous Systems,Deflating dataset bias using synthetic data augmentation,Duke University,36.00015569999999,-78.94422972195878,Durham County,Durham,North Carolina,United States
Ximing Qiao,Toward Trustworthy Machine Learning with Blackbox and Whitebox Methods,Deflating dataset bias using synthetic data augmentation,Duke University,36.00015569999999,-78.94422972195878,Durham County,Durham,North Carolina,United States
Eric Knauss,An investigation of challenges encountered when specifying training data and runtime monitors for safety critical ML applications,Deflating dataset bias using synthetic data augmentation,Chalmers | University of Gothenburg,57.6897462,11.97652589525446,Västra Götaland County,Gothenburg,,Sweden
Eric Knauss,An empirical investigation of challenges of specifying training data and runtime monitors for critical software with machine learning and their relation to architectural decisions,Deflating dataset bias using synthetic data augmentation,Chalmers | University of Gothenburg,57.6897462,11.97652589525446,Västra Götaland County,Gothenburg,,Sweden
Guillem Delgado,Methodology for generating synthetic labeled datasets for visual container inspection,Deflating dataset bias using synthetic data augmentation,Researcher,41.6567749,41.6398829,,Batumi,Autonomous Republic of Adjara,Georgia Institute of Technology
Karthik Reddy Kanjula,An Edge Internet of Things Framework for Machine Learning-Based Skin Cancer Detection Models,Deflating dataset bias using synthetic data augmentation,Researcher,41.6567749,41.6398829,,Batumi,Autonomous Republic of Adjara,Georgia Institute of Technology
Nerea Aranjuelo,Methodology for generating synthetic labeled datasets for visual container inspection,Deflating dataset bias using synthetic data augmentation,Vicomtech,43.2922539,-1.9856342,,San Sebastián,Autonomous Community of the Basque Country,Spain
Joseph Renzullo,Automated Program Repair: Emerging trends pose and expose problems for benchmarks,Deflating dataset bias using synthetic data augmentation,Arizona State University,33.4213174,-111.93316305413154,Maricopa County,Tempe,Arizona,United States
Pemma Reiter,Automated Program Repair: Emerging trends pose and expose problems for benchmarks,Deflating dataset bias using synthetic data augmentation,Arizona State University,33.4213174,-111.93316305413154,Maricopa County,Tempe,Arizona,United States
Stephanie Forrest,Automated Program Repair: Emerging trends pose and expose problems for benchmarks,Deflating dataset bias using synthetic data augmentation,Univ. of New Mexico,35.08663275,-106.62020940505188,Bernalillo County,Albuquerque,New Mexico,United States
Arun Dixit,"Preparing for the future: How organizations can prepare boards,leaders,and risk managers for artificial intelligence",Deflating dataset bias using synthetic data augmentation,Mysuru,12.3051828,76.6553609,Mysuru taluk,Mysuru,Karnataka,India
Emily Alsentzer,Few shot learning for phenotype-driven diagnosis of patients with rare genetic diseases,Deflating dataset bias using synthetic data augmentation,Harvard Medical School,42.336831849999996,-71.10380921118058,Suffolk County,Boston,Massachusetts,United States
Michelle M Li,Few shot learning for phenotype-driven diagnosis of patients with rare genetic diseases,Deflating dataset bias using synthetic data augmentation,Harvard Medical School,42.336831849999996,-71.10380921118058,Suffolk County,Boston,Massachusetts,United States
Shilpa N Kobren,Few shot learning for phenotype-driven diagnosis of patients with rare genetic diseases,Deflating dataset bias using synthetic data augmentation,Harvard Medical School,42.336831849999996,-71.10380921118058,Suffolk County,Boston,Massachusetts,United States
Undiagnosed Diseases Network,Few shot learning for phenotype-driven diagnosis of patients with rare genetic diseases,Deflating dataset bias using synthetic data augmentation,Harvard Medical School,42.336831849999996,-71.10380921118058,Suffolk County,Boston,Massachusetts,United States
Xin Xu,Patch-Mixing Contrastive Regularization for Few-Label Semi-Supervised Learning,Deflating dataset bias using synthetic data augmentation,National University of Singapore,1.2962018,103.77689765953073,,Singapore,,Singapore
Yujun Zeng,Patch-Mixing Contrastive Regularization for Few-Label Semi-Supervised Learning,Deflating dataset bias using synthetic data augmentation,Hangzhou Normal University,30.2564553,120.31414249679304,,Xiaoshan District,Zhejiang,China
Xihong Yang,Patch-Mixing Contrastive Regularization for Few-Label Semi-Supervised Learning,Deflating dataset bias using synthetic data augmentation,National University of Defense Technology,28.229020900000002,112.99483204403164,,Kaifu,Hunan,China
Anubhav Jain,A dataless faceswap detection approach using synthetic images,Deflating dataset bias using synthetic data augmentation,Vestas,45.525394649999996,-122.68577833944983,Multnomah County,Portland,Oregon,United States
Nasir Memon,A dataless faceswap detection approach using synthetic images,Deflating dataset bias using synthetic data augmentation,Tandon School of Engineering,40.6946918,-73.982965,,New York,New York,United States
Yunhe Feng,Addressing weak decision boundaries in image classification by leveraging web search and generative models,Deflating dataset bias using synthetic data augmentation,University of North Texas,33.2098926,-97.15147624977251,Denton County,Denton,Texas,United States
Shihong Zhang,Semi-Supervised Domain Adaptation With Dual-Adversarial Learning for Lane Detection,Deflating dataset bias using synthetic data augmentation,Beijing,40.190632,116.412144,,Changping District,Beijing,China
Jinesh Jain,deepPIC: Deep perceptual image clustering for identifying bias in vision datasets,Deflating dataset bias using synthetic data augmentation,Key Logic,35.7316986,139.7143998,,Toshima,,Japan
Vidya N Murali,deepPIC: Deep perceptual image clustering for identifying bias in vision datasets,Deflating dataset bias using synthetic data augmentation,Palo Alto,37.4443293,-122.1598465,Santa Clara County,Palo Alto,California,United States
Devika Verma,Genethos: A synthetic data generation system with bias detection and mitigation,Deflating dataset bias using synthetic data augmentation,CUNY,45.5546608,5.4065255,Isère,,Auvergne-Rhône-Alpes,France
Rakesh Ranjan,Genethos: A synthetic data generation system with bias detection and mitigation,Deflating dataset bias using synthetic data augmentation,BIRLA INSTITUTE OF TECHNOLOGY MESRA RANCHI,23.417569450000002,85.43940936666918,Kanke,,Jharkhand,India
Xuan Cai,KoMA: Knowledge-driven Multi-agent Framework for Autonomous Driving with Large Language Models,Deflating dataset bias using synthetic data augmentation,Beihang University,39.9809427,116.34097867654876,,Haidian District,Beijing,China
Zhiyong Cui,KoMA: Knowledge-driven Multi-agent Framework for Autonomous Driving with Large Language Models,Deflating dataset bias using synthetic data augmentation,Beihang University,39.9809427,116.34097867654876,,Haidian District,Beijing,China
Aoyong Li,KoMA: Knowledge-driven Multi-agent Framework for Autonomous Driving with Large Language Models,Deflating dataset bias using synthetic data augmentation,Beihang University,39.9809427,116.34097867654876,,Haidian District,Beijing,China
Yilong Ren,KoMA: Knowledge-driven Multi-agent Framework for Autonomous Driving with Large Language Models,Deflating dataset bias using synthetic data augmentation,Beihang University,39.9809427,116.34097867654876,,Haidian District,Beijing,China
Haiyang Yu,KoMA: Knowledge-driven Multi-agent Framework for Autonomous Driving with Large Language Models,Deflating dataset bias using synthetic data augmentation,Genentech,38.3901767,-121.9482113482652,Solano County,Vacaville,California,United States
Hao Yang,KoMA: Knowledge-driven Multi-agent Framework for Autonomous Driving with Large Language Models,Deflating dataset bias using synthetic data augmentation,Fuzhou University,26.0614068,119.19334162717391,,Minhou County,Fujian,China
Axel Wassington,Bias reduction via cooperative bargaining in synthetic graph dataset generation,Deflating dataset bias using synthetic data augmentation,Universitat Politècnica de Catalunya,41.22144745,1.7301449113565364,Garraf,,Catalonia,Spain
Sergi Abadal,Bias reduction via cooperative bargaining in synthetic graph dataset generation,Deflating dataset bias using synthetic data augmentation,Universitat Politècnica de Catalunya,41.22144745,1.7301449113565364,Garraf,,Catalonia,Spain
Kai Chen,Detdiffusion: Synergizing generative and perceptive models for enhanced data generation and perception,Deflating dataset bias using synthetic data augmentation,Hong Kong University of Science,22.3358031,114.2659087549023,,Sai Kung District,Hong Kong,China
Kai Chen,Detdiffusion: Synergizing generative and perceptive models for enhanced data generation and perception,Deflating dataset bias using synthetic data augmentation,Technology,-0.2912908,36.0353719,Nakuru West,Kapkures ward,Nakuru,Kenya
Heitor Cardoso,Data Augmentation Based on Virtual Wrist Devices for Fall Detection,Deflating dataset bias using synthetic data augmentation,Technology,-0.2912908,36.0353719,Nakuru West,Kapkures ward,Nakuru,Kenya
Kaiqiang Zhou,Detdiffusion: Synergizing generative and perceptive models for enhanced data generation and perception,Deflating dataset bias using synthetic data augmentation,华为,22.6531258,114.0620241,,Longgang District,Guangdong Province,China
Yingjie Cai,Detdiffusion: Synergizing generative and perceptive models for enhanced data generation and perception,Deflating dataset bias using synthetic data augmentation,The Chinese University of Hong Kong,22.4201838,114.20791453524086,,Sha Tin District,Hong Kong,China
Qiang Xu,Detdiffusion: Synergizing generative and perceptive models for enhanced data generation and perception,Deflating dataset bias using synthetic data augmentation,The Chinese University of Hong Kong,22.4201838,114.20791453524086,,Sha Tin District,Hong Kong,China
Zhenguo Li,Detdiffusion: Synergizing generative and perceptive models for enhanced data generation and perception,Deflating dataset bias using synthetic data augmentation,PKU,39.99171495,116.30393496863539,,Haidian District,Beijing,China
Lihui Jiang,Detdiffusion: Synergizing generative and perceptive models for enhanced data generation and perception,Deflating dataset bias using synthetic data augmentation,Ltd.,57.2857521,-2.5696635,Aberdeenshire,,Scotland,United Kingdom
Siddhartha Gupta,Role of Simulated Lidar Data for Training 3D Deep Learning Models: An Exhaustive Analysis,Deflating dataset bias using synthetic data augmentation,Kapilvastu,27.61923765,82.98222657989004,Kapilvastu,,,Nepal
Hao Frank Yang,Mitigating Bias of Deep Neural Networks for Trustworthy Traffic Perception in Autonomous Systems,Deflating dataset bias using synthetic data augmentation,CaSE,45.6686555,11.3914912,Vicenza,,Veneto,Italy
Yang Zhao,Mitigating Bias of Deep Neural Networks for Trustworthy Traffic Perception in Autonomous Systems,Deflating dataset bias using synthetic data augmentation,uum,2.7341815,32.4279712,,,Omoro,Uganda
Jiarui Cai,Mitigating Bias of Deep Neural Networks for Trustworthy Traffic Perception in Autonomous Systems,Deflating dataset bias using synthetic data augmentation,Amazon Web Services,45.85200895,-119.6301350998076,Morrow County,,Oregon,United States
Meixin Zhu,Mitigating Bias of Deep Neural Networks for Trustworthy Traffic Perception in Autonomous Systems,Deflating dataset bias using synthetic data augmentation,The Hong Kong University of Science,22.3358031,114.2659087549023,,Sai Kung District,Hong Kong,China
Meixin Zhu,Mitigating Bias of Deep Neural Networks for Trustworthy Traffic Perception in Autonomous Systems,Deflating dataset bias using synthetic data augmentation,Technology (Guangzhou),22.89161275,113.47901891759449,,Nansha District,Guangdong Province,China
Deepak Bajhaiya,Deep learning--powered generation of artificial endoscopic images of GI tract ulcers,Deflating dataset bias using synthetic data augmentation,IIT Madras,12.9914769,80.2336786,,,Tamil Nadu,India
Retaj Yousri,A novel data augmentation approach for ego-lane detection enhancement,Deflating dataset bias using synthetic data augmentation,Nile University,30.00916145,30.98593655626926,,6th of October,Giza,Egypt
Ahmed H Madian,A novel data augmentation approach for ego-lane detection enhancement,Deflating dataset bias using synthetic data augmentation,Nile University,30.00916145,30.98593655626926,,6th of October,Giza,Egypt
Kareem Moussa,A novel data augmentation approach for ego-lane detection enhancement,Deflating dataset bias using synthetic data augmentation,Computer Engineering,40.80803455,29.356343258075448,,,,Turkey
Suyash Gupta,Transfer Learning via Latent Dependency Factor for Estimating PM 2.5,Deflating dataset bias using synthetic data augmentation,University of Oregon,44.04441965,-123.07176029673084,Lane County,Eugene,Oregon,United States
Suyash Gupta,Spatial Transfer Learning for Estimating PM 2.5 in Data-Poor Regions,Deflating dataset bias using synthetic data augmentation,University of Oregon,44.04441965,-123.07176029673084,Lane County,Eugene,Oregon,United States
Avani Wildani,Transfer Learning via Latent Dependency Factor for Estimating PM 2.5,Deflating dataset bias using synthetic data augmentation,Cloudflare,37.7813933,-122.3918002,,San Francisco,California,United States
Avani Wildani,Spatial Transfer Learning for Estimating PM 2.5 in Data-Poor Regions,Deflating dataset bias using synthetic data augmentation,Cloudflare,37.7813933,-122.3918002,,San Francisco,California,United States
Yang Liu,Transfer Learning via Latent Dependency Factor for Estimating PM 2.5,Deflating dataset bias using synthetic data augmentation,Michigan State Univ.,42.70237935,-84.48038686520441,Ingham County,East Lansing,Michigan,United States
Yang Liu,Spatial Transfer Learning for Estimating PM 2.5 in Data-Poor Regions,Deflating dataset bias using synthetic data augmentation,Michigan State Univ.,42.70237935,-84.48038686520441,Ingham County,East Lansing,Michigan,United States
Tatjana Legler,Addressing Heterogeneity in Federated Learning: Challenges and Solutions for a Shared Production Environment,Deflating dataset bias using synthetic data augmentation,RPTU Kaiserslautern-Landau,49.188524799999996,8.11591652121482,,,Rhineland-Palatinate,Germany
Vinit Hegiste,Addressing Heterogeneity in Federated Learning: Challenges and Solutions for a Shared Production Environment,Deflating dataset bias using synthetic data augmentation,TU Kaiserslautern,49.4246142,7.754214153273509,,Kaiserslautern,Rhineland-Palatinate,Germany
Ahmed Anwar,Addressing Heterogeneity in Federated Learning: Challenges and Solutions for a Shared Production Environment,Deflating dataset bias using synthetic data augmentation,DFKI,52.5243079,13.3444441,,Berlin,,Germany
Martin Ruskowski,Addressing Heterogeneity in Federated Learning: Challenges and Solutions for a Shared Production Environment,Deflating dataset bias using synthetic data augmentation,RPTU Kaiserslautern,49.4430629,7.963016046260735,Landkreis Kaiserslautern,,Rhineland-Palatinate,Germany
Dmitry Ivanov,Efficacy of Synthetic Data as a Benchmark,Deflating dataset bias using synthetic data augmentation,Berlin School of Economics,52.48516875,13.338271133838324,,Berlin,,Germany
Dmitry Ivanov,Efficacy of Synthetic Data as a Benchmark,Deflating dataset bias using synthetic data augmentation,Law,38.6065461,-82.5702511,Lawrence County,,Ohio,United States
Oron Nir,CityLifeSim: A High-Fidelity Pedestrian and Vehicle Simulation with Complex Behaviors,Deflating dataset bias using synthetic data augmentation,Reichman University,32.17625285,34.83709109840297,,,Tel-Aviv District,Israel
Daniel McDuff,CityLifeSim: A High-Fidelity Pedestrian and Vehicle Simulation with Complex Behaviors,Deflating dataset bias using synthetic data augmentation,Google,33.977092,-118.4092133,Los Angeles County,Los Angeles,California,United States
Mar Gonzalez-Franco,CityLifeSim: A High-Fidelity Pedestrian and Vehicle Simulation with Complex Behaviors,Deflating dataset bias using synthetic data augmentation,Google,33.977092,-118.4092133,Los Angeles County,Los Angeles,California,United States
Jaeho Lee,Discovering and Mitigating Visual Biases through Keyword Explanation,deepPIC: Deep perceptual image clustering for identifying bias in vision datasets,Google,33.977092,-118.4092133,Los Angeles County,Los Angeles,California,United States
Punarjay Chakravarty,Sim2real for self-supervised monocular depth and segmentation,Deflating dataset bias using synthetic data augmentation,Planet,46.310315,5.6545477,Ain,,Auvergne-Rhône-Alpes,France
Tianjie Chen,An Edge Internet of Things Framework for Machine Learning-Based Skin Cancer Detection Models,Deflating dataset bias using synthetic data augmentation,New Mexico State University,32.2729032,-106.74349267153694,Doña Ana County,Las Cruces,New Mexico,United States
Md Faisal Kabir,An Edge Internet of Things Framework for Machine Learning-Based Skin Cancer Detection Models,Deflating dataset bias using synthetic data augmentation,UIU,42.83958545,-91.79330429016619,Fayette County,,Iowa,United States
李轩,"面向智能驾驶的平行视觉感知: 基本概念,框架与应用",Deflating dataset bias using synthetic data augmentation,China University of Petroleum,35.9453575,120.1670032,,Huangdao District,Shandong,China
Peter Yigitcan Washington,Machine Learning and Crowdsourcing for Digital Behavioral Phenotyping,Deflating dataset bias using synthetic data augmentation,Mānoa,21.3093848,-157.8118169,Honolulu County,East Honolulu,Hawaii,United States
"Simon Hall{\""o}sta",Effects of Foreground Augmentations in Synthetic Training Data on the Use of UAVs for Weed Detection,Deflating dataset bias using synthetic data augmentation,Blekinge Institute of Technology,56.182010149999996,15.591007904064151,Blekinge County,Karlskrona,,Sweden
Camille Chapdelaine,A testing approach for dependable Machine Learning systems,Deflating dataset bias using synthetic data augmentation,SAFRAN SA,45.6934014,1.1759178071861203,Haute-Vienne,,Nouvelle-Aquitaine,France
Eric Jenn,A testing approach for dependable Machine Learning systems,Deflating dataset bias using synthetic data augmentation,IRT Saint-Exupery - Toulouse - France,43.5627213,1.4890239,Haute-Garonne,Toulouse,Occitania,France
Baptiste Lefevre,A testing approach for dependable Machine Learning systems,Deflating dataset bias using synthetic data augmentation,Ecole normale supérieure,48.841707150000005,2.3447923126871286,,Paris,Ile-de-France,France
Jae Seung Lee,StarGAN Model to Translate Interior Style Trained with Virtual Images,Deflating dataset bias using synthetic data augmentation,Graduate School of Environmental Studies,38.25526035,140.8334515062668,,Sendai,,Japan
Nancy Thomas,Tree-Based Structural Representation and Difference Computation for PDF Documents,Deflating dataset bias using synthetic data augmentation,Thomas W.,39.713986,-82.610517,Fairfield County,Lancaster,Ohio,United States
Daniel Borrajo,Tree-Based Structural Representation and Difference Computation for PDF Documents,Deflating dataset bias using synthetic data augmentation,Universidad Carlos III de Madrid,40.3150937,-3.7248793246049545,,Getafe,Community of Madrid,Spain
Heitor Cardoso,Data Augmentation Based on Virtual Wrist Devices for Fall Detection,Deflating dataset bias using synthetic data augmentation,Norwegian University of Science,63.44802385,10.453639414751784,Trøndelag,Trondheim,,Norway
Plinio Moreno,Data Augmentation Based on Virtual Wrist Devices for Fall Detection,Deflating dataset bias using synthetic data augmentation,Univ Lisboa,38.7525379,-9.156845594636383,Lisbon,Lisbon,,Portugal
Aaron P Dant,Self-directed training of person reidentification with synthetic data,Deflating dataset bias using synthetic data augmentation,ASRC Federal,38.9459818,-77.3278042,Fairfax County,Reston,Virginia,United States
Younghyun Kim,Discovering and Mitigating Visual Biases through Keyword Explanation,deepPIC: Deep perceptual image clustering for identifying bias in vision datasets,KAIST,36.3697191,127.36253700115094,,Daejeon,,South Korea
Minkyu Kim,Discovering and Mitigating Visual Biases through Keyword Explanation,deepPIC: Deep perceptual image clustering for identifying bias in vision datasets,KRAFTON,44.7164371,-93.3067117,Dakota County,,Minnesota,United States
Kyungmin Lee,Discovering and Mitigating Visual Biases through Keyword Explanation,deepPIC: Deep perceptual image clustering for identifying bias in vision datasets,Hanyang University,37.5557274,127.0436837,,Seoul,,South Korea
Jaeho Lee,Discovering and Mitigating Visual Biases through Keyword Explanation,deepPIC: Deep perceptual image clustering for identifying bias in vision datasets,POSTECH,25.2604041,55.2936515,,Dubai,Dubai,United Arab Emirates
Wissam Salhab,"A Systematic Literature Review on AI Safety: Identifying Trends,Challenges and Future Directions",deepPIC: Deep perceptual image clustering for identifying bias in vision datasets,Chicoutimi,48.3370248,-71.12352613559267,,Saguenay,Quebec,Canada
Hamid Mcheick,"A Systematic Literature Review on AI Safety: Identifying Trends,Challenges and Future Directions",deepPIC: Deep perceptual image clustering for identifying bias in vision datasets,Chicoutimi,48.3370248,-71.12352613559267,,Saguenay,Quebec,Canada
Darine Ameyed,"A Systematic Literature Review on AI Safety: Identifying Trends,Challenges and Future Directions",deepPIC: Deep perceptual image clustering for identifying bias in vision datasets,École de technologie supérieure Montréal,45.49451545,-73.5628554929944,Urban agglomeration of Montreal,Montreal,Quebec,Canada
Fehmi Jaafar,"A Systematic Literature Review on AI Safety: Identifying Trends,Challenges and Future Directions",deepPIC: Deep perceptual image clustering for identifying bias in vision datasets,Quebec University,48.45166565,-68.51130885405888,Rimouski-Neigette,Rimouski,Quebec,Canada
Benjamin Ramtoula,Visual dna: Representing and comparing images using distributions of neuron activations,deepPIC: Deep perceptual image clustering for identifying bias in vision datasets,University of Oxford,51.75870755,-1.2556684826092037,Oxfordshire,Oxford,England,United Kingdom
Matthew Gadd,Visual dna: Representing and comparing images using distributions of neuron activations,deepPIC: Deep perceptual image clustering for identifying bias in vision datasets,University of Oxford,51.75870755,-1.2556684826092037,Oxfordshire,Oxford,England,United Kingdom
Valter Estevam,A first look at dataset bias in license plate recognition,deepPIC: Deep perceptual image clustering for identifying bias in vision datasets,Instituto Federal do Paraná,-23.2754525,-51.1638944,,Londrina,Paraná,Brazil
David Menotti,A first look at dataset bias in license plate recognition,deepPIC: Deep perceptual image clustering for identifying bias in vision datasets,Universidade Federal do Paraná,-23.59844395,-51.673359178875074,,,Paraná,Brazil
Cedric Perauer,Method and device for recognizing a parking space for a vehicle using machine learning methods,Enhanced vehicle operation,TU Munich,48.2655696,11.669345610437997,Landkreis München,,Bavaria,Germany
Joel Janai,Method and device for recognizing a parking space for a vehicle using machine learning methods,Enhanced vehicle operation,Robert Bosch GmbH,48.785353799999996,9.062092480336004,Landkreis Ludwigsburg,,Baden-Württemberg,Germany
Luc Van Gool,"Sun Off,Lights On: Photorealistic Monocular Nighttime Simulation for Robust Semantic Perception",SIMBAR: Single Image-Based Scene Relighting For Effective Data Augmentation For Automated Driving Vision Tasks,Toyota,,,,,,
Leon Bottou,The effects of regularization and data augmentation are class dependent,Deflating dataset bias using synthetic data augmentation,Meta,,,,,,
Fei-Yue Wang,Parallel learning: Overview and perspective for computational learning across Syn2Real and Sim2Real,SIMBAR: Single Image-Based Scene Relighting For Effective Data Augmentation For Automated Driving Vision Tasks,Chinese Academy of Sciences Beijing,,,,,,
Min Huang,Parallel learning: Overview and perspective for computational learning across Syn2Real and Sim2Real,SIMBAR: Single Image-Based Scene Relighting For Effective Data Augmentation For Automated Driving Vision Tasks,Chinese Academy of Sciences Beijing,,,,,,
Simon Jonsson,Generation of Synthetic Data for Sustainable Fashion Using a Diffusion Model,Deflating dataset bias using synthetic data augmentation,MIT,,,,,,
Peter Washington,Challenges and opportunities for machine learning classification of behavior and mental state from images,Deflating dataset bias using synthetic data augmentation,University of Washington,,,,,,
Tinne Tuytelaars,Unveiling the Ambiguity in Neural Inverse Rendering: A Parameter Compensation Analysis,SIMBAR: Single Image-Based Scene Relighting For Effective Data Augmentation For Automated Driving Vision Tasks,KU Leuven Belgium,,,,,,
Jan Kautz,Training object detection systems with generated images,Neural network image processing,NVIDIA Santa Clara,,,,,,
Dit-Yan Yeung,Detdiffusion: Synergizing generative and perceptive models for enhanced data generation and perception,Deflating dataset bias using synthetic data augmentation,Hong Kong,,,,,,
"Christoph M{\""u}ller",Using Auto-ML on Synthetic Point Cloud Generation,Deflating dataset bias using synthetic data augmentation,Potsdam Institute for Climate Impact Research Telegrafenberg ,,,,,,
Paul Newman,Visual dna: Representing and comparing images using distributions of neuron activations,deepPIC: Deep perceptual image clustering for identifying bias in vision datasets,University of Oxford,,,,,,
Mohammed Bennamoun,Semantically-aware Neural Radiance Fields for Visual Scene Understanding: A Comprehensive Review,LANe: Lighting-Aware Neural Fields for Compositional Scene Synthesis,University of Western Australia,,,,,,
Anthony Brunel,Semantically-aware Neural Radiance Fields for Visual Scene Understanding: A Comprehensive Review,LANe: Lighting-Aware Neural Fields for Compositional Scene Synthesis,University of Western Australia,,,,,,
Julian Togelius,A dataless faceswap detection approach using synthetic images,Deflating dataset bias using synthetic data augmentation,modl.ai,,,,,,
Aashish JAIN,Automatic Image Conversion,Neural network image processing,Institute of Medical Education and Research,,,,,,
Jian Pu,Leveraging Smooth Deformation Augmentation for LiDAR Point Cloud Semantic Segmentation,SIMBAR: Single Image-Based Scene Relighting For Effective Data Augmentation For Automated Driving Vision Tasks,Nanjing Tech University,,,,,,
Antonio M Lopez Pena,Co-training for on-board deep object detection,Deflating dataset bias using synthetic data augmentation,Autònoma de Barcelona (UAB),,,,,,
Yozo Fujino,Synthetic environments for vision-based structural condition assessment of Japanese high-speed railway viaducts,Deflating dataset bias using synthetic data augmentation,Yokohama National University,,,,,,
Ashish Kapoor,CityLifeSim: A High-Fidelity Pedestrian and Vehicle Simulation with Complex Behaviors,Deflating dataset bias using synthetic data augmentation,Scaled Foundations Kirkland,,,,,,
Olivier Salvado,Synthetic Data for Deep Learning in Computer Vision \& Medical Imaging: A Means to Reduce Data Bias,Deflating dataset bias using synthetic data augmentation,The Commonwealth Scientific and Industrial Research Organisation,,,,,,
Yandong Wang,Semi-Supervised Domain Adaptation With Dual-Adversarial Learning for Lane Detection,Deflating dataset bias using synthetic data augmentation,Georgia Institute of Technology,,,,,,
Jinwoo Shin,Discovering and Mitigating Visual Biases through Keyword Explanation,deepPIC: Deep perceptual image clustering for identifying bias in vision datasets,Korea Advanced Institute of Science & Technology ,,,,,,
George Drettakis,A Diffusion Approach to Radiance Field Relighting using Multi-Illumination Synthesis,SIMBAR: Single Image-Based Scene Relighting For Effective Data Augmentation For Automated Driving Vision Tasks,Inria Center at Université Côte d'Azur,,,,,,
Suresh Neethirajan,Integrating Artificial Intelligence in Dairy Farm Management-Biometric Facial Recognition for Cows,Deflating dataset bias using synthetic data augmentation,Canada,,,,,,
Shalini De Mello,Training object detection systems with generated images,Neural network image processing,NVIDIA Santa Clara,,,,,,
Venice Erin Baylon Liong,Machine learning-based framework for drivable surface annotation,Enhanced vehicle operation,Motional Massachusetts,,,,,,
Zhuang Jie Chong,Machine learning-based framework for drivable surface annotation,Enhanced vehicle operation,Motional Massachusetts,,,,,,
Tim Mattson,Simulation intelligence: Towards a new generation of scientific methods,Deflating dataset bias using synthetic data augmentation,Human Learning Group,,,,,,
AK Koushik,Deep learning--powered generation of artificial endoscopic images of GI tract ulcers,Deflating dataset bias using synthetic data augmentation,Indian Institute of Management (IIM) Amritsar,,,,,,
Michael Witbrock,Data and model bias in artificial intelligence for healthcare applications in New Zealand,Deflating dataset bias using synthetic data augmentation,The University of Auckland,,,,,,
Giorgio Fumera,Synthetic Data for Video Surveillance Applications of Computer Vision: A Review,Deflating dataset bias using synthetic data augmentation,University of Cagliari,,,,,,
Karen Drukker,Toward fairness in artificial intelligence for medical image analysis: identification and mitigation of potential biases in the roadmap from data collection to model deployment,Deflating dataset bias using synthetic data augmentation,Research Associate Professor University of Chicago,,,,,,
Johann Brehmer,Simulation intelligence: Towards a new generation of scientific methods,Deflating dataset bias using synthetic data augmentation,CuspAI,,,,,,
Toni Moore,Synthetic data augmentation to enhance manual and automated defect detection in microelectronics,Deflating dataset bias using synthetic data augmentation,Liverpool John Moores University,,,,,,
Hector Zenil,Simulation intelligence: Towards a new generation of scientific methods,Deflating dataset bias using synthetic data augmentation,The Alan Turing Institute,,,,,,
Suresh Shetty,Fedsyn: Synthetic data generation using federated learning,Deflating dataset bias using synthetic data augmentation,Forensic Medicine,,,,,,
Umar Iqbal,Training object detection systems with generated images,Neural network image processing,NVIDIA Santa Clara,,,,,,
Eduardo Luz,A first look at dataset bias in license plate recognition,deepPIC: Deep perceptual image clustering for identifying bias in vision datasets,Federal University of Ouro Preto,,,,,,
Mats Ingemar Pettersson,Effects of Foreground Augmentations in Synthetic Training Data on the Use of UAVs for Weed Detection,Deflating dataset bias using synthetic data augmentation,Blekinge Tekniska Högskola (BTH),,,,,,
Justin Gottschlich,Simulation intelligence: Towards a new generation of scientific methods,Deflating dataset bias using synthetic data augmentation,Merly Inc.,,,,,,
Jongmoo Choi,"Active data collection,sampling,and generation for use in training machine learning models for automotive or other applications",Neural network image processing,Canoo,,,,,,
Hossein Fereidooni,Smarter Contracts: Detecting Vulnerabilities in Smart Contracts with Deep Transfer Learning.,Deflating dataset bias using synthetic data augmentation,Germany,,,,,,
Lanqing Hong,Detdiffusion: Synergizing generative and perceptive models for enhanced data generation and perception,Deflating dataset bias using synthetic data augmentation,Huawei Noah's Ark Lab,,,,,,
Nithin Raghavan,Sim2real for self-supervised monocular depth and segmentation,Deflating dataset bias using synthetic data augmentation,Graduate Student,,,,,,
Randall Balestriero,The effects of regularization and data augmentation are class dependent,Deflating dataset bias using synthetic data augmentation,AI Researcher,,,,,,
Faizan Khan,Genethos: A synthetic data generation system with bias detection and mitigation,Deflating dataset bias using synthetic data augmentation,Unknown affiliation,,,,,,
Eric Frankel,Neural network for object detection and tracking,Deflating dataset bias using synthetic data augmentation,Unknown affiliation,,,,,,
Rayson Laroca,A first look at dataset bias in license plate recognition,deepPIC: Deep perceptual image clustering for identifying bias in vision datasets,Pontifical Catholic University of Paraná (PUCPR),,,,,,
Julien Phillip,A Diffusion Approach to Radiance Field Relighting using Multi-Illumination Synthesis,SIMBAR: Single Image-Based Scene Relighting For Effective Data Augmentation For Automated Driving Vision Tasks,Netflix Eyeline Studios,,,,,,
Bharat Lohani,Role of Simulated Lidar Data for Training 3D Deep Learning Models: An Exhaustive Analysis,Deflating dataset bias using synthetic data augmentation,,,,,,,
Mattias Dahl,Effects of Foreground Augmentations in Synthetic Training Data on the Use of UAVs for Weed Detection,Deflating dataset bias using synthetic data augmentation,Professor,,,,,,
Arijit Ray,Lasagna: Layered Score Distillation for Disentangled Object Relighting,SIMBAR: Single Image-Based Scene Relighting For Effective Data Augmentation For Automated Driving Vision Tasks,India,,,,,,
Mustafa A Elattar,A novel data augmentation approach for ego-lane detection enhancement,Deflating dataset bias using synthetic data augmentation,Center for Informatics Science,,,,,,
Daniele De Martini,Visual dna: Representing and comparing images using distributions of neuron activations,deepPIC: Deep perceptual image clustering for identifying bias in vision datasets,Oxford Robotics Institute,,,,,,
Lorenzo Putzu,Synthetic Data for Video Surveillance Applications of Computer Vision: A Review,Deflating dataset bias using synthetic data augmentation,University of Cagliari,,,,,,
Sai Vemprala,CityLifeSim: A High-Fidelity Pedestrian and Vehicle Simulation with Complex Behaviors,Deflating dataset bias using synthetic data augmentation,Scaled Foundations Kirkland,,,,,,
AMassachusetts Institute of TechnologyRaj,LANe: Lighting-aware neural fields for compositional scene synthesis,SIMBAR: Single Image-Based Scene Relighting For Effective Data Augmentation For Automated Driving Vision Tasks,Google Mountain View,,,,,,
Pinlong Cai,KoMA: Knowledge-driven Multi-agent Framework for Autonomous Driving with Large Language Models,Deflating dataset bias using synthetic data augmentation,Shanghai Artificial Intelligence Laboratory,,,,,,
Michael Sollami,Parallel learning: Overview and perspective for computational learning across Syn2Real and Sim2Real,SIMBAR: Single Image-Based Scene Relighting For Effective Data Augmentation For Automated Driving Vision Tasks,N/A,,,,,,
Jinlong Li,Deep transfer learning for intelligent vehicle perception: A survey,SIMBAR: Single Image-Based Scene Relighting For Effective Data Augmentation For Automated Driving Vision Tasks,CS Ph.D. Computer Vision.  Deep Learning.,,,,,,
Cheng Yao Wang,CityLifeSim: A High-Fidelity Pedestrian and Vehicle Simulation with Complex Behaviors,Deflating dataset bias using synthetic data augmentation,JP Morgan Chase,,,,,,
Shangding Gu,Multi-agent reinforcement learning for autonomous driving: A survey,SIMBAR: Single Image-Based Scene Relighting For Effective Data Augmentation For Automated Driving Vision Tasks,Technical University of Munich,,,,,,
Gaurav Maheshwari,Efficacy of Synthetic Data as a Benchmark,Deflating dataset bias using synthetic data augmentation,INRIA Lille- Nord Europe,,,,,,
Daniele Tessera,A methodology for controlling bias and fairness in synthetic data generation,Deflating dataset bias using synthetic data augmentation,Univesita' Cattolica del Sacro Cuore,,,,,,
Hans-Martin Heyn,An investigation of challenges encountered when specifying training data and runtime monitors for safety critical ML applications,Deflating dataset bias using synthetic data augmentation,Chalmers University of Technology,,,,,,
M Saeed Darweesh,A novel data augmentation approach for ego-lane detection enhancement,Deflating dataset bias using synthetic data augmentation,Nile University,,,,,,
Daniele Toti,A methodology for controlling bias and fairness in synthetic data generation,Deflating dataset bias using synthetic data augmentation,Catholic University of the Sacred Heart,,,,,,
Kevin El Haddad,Efficacy of Synthetic Data as a Benchmark,Deflating dataset bias using synthetic data augmentation,Unknown affiliation,,,,,,
Yu Yin,Synthetic Data Generator: Understanding Human Face \& Body via Image Synthesis,Deflating dataset bias using synthetic data augmentation,Case Western Reserve University,,,,,,
Iren-Adelina Moldovan,Prospective neural network model for seismic precursory signal detection in geomagnetic field records,Deflating dataset bias using synthetic data augmentation,National Institute for Earth Physics,,,,,,
Anthony Paproki,Synthetic Data for Deep Learning in Computer Vision \& Medical Imaging: A Means to Reduce Data Bias,Deflating dataset bias using synthetic data augmentation,Research Fellow,,,,,,
Armin Parchami,DatasetEquity: Are All Samples Created Equal? In The Quest For Equity Within Datasets,SIMBAR: Single Image-Based Scene Relighting For Effective Data Augmentation For Automated Driving Vision Tasks,Snorkel AI,,,,,,
Florian Walter,Multi-agent reinforcement learning for autonomous driving: A survey,SIMBAR: Single Image-Based Scene Relighting For Effective Data Augmentation For Automated Driving Vision Tasks,Machine Intelligence Lab,,,,,,
Seungho Jeon,StarGAN Model to Translate Interior Style Trained with Virtual Images,Deflating dataset bias using synthetic data augmentation,순천대학교 농생명과학과 교수,,,,,,
Licheng Wen,KoMA: Knowledge-driven Multi-agent Framework for Autonomous Driving with Large Language Models,Deflating dataset bias using synthetic data augmentation,Shanghai AI Laboratory,,,,,,
Daocheng Fu,KoMA: Knowledge-driven Multi-agent Framework for Autonomous Driving with Large Language Models,Deflating dataset bias using synthetic data augmentation,Shanghai  Artificial Intelligence Laboratory,,,,,,
Stanton R Price,"Expanding Ground Vehicle Autonomy into Unstructured,Off-Road Environments: Dataset Challenges",Deflating dataset bias using synthetic data augmentation,U.S. Army ERDC,,,,,,
In{\^e}s Carvalho,Data Augmentation Based on Virtual Wrist Devices for Fall Detection,Deflating dataset bias using synthetic data augmentation,Disease_Zurich University,,,,,,
Laura Petrescu,Prospective neural network model for seismic precursory signal detection in geomagnetic field records,Deflating dataset bias using synthetic data augmentation,National Institute for Earth Physics,,,,,,
Ruiyuan Gao,Detdiffusion: Synergizing generative and perceptive models for enhanced data generation and perception,Deflating dataset bias using synthetic data augmentation,CUHK University,,,,,,
Suhrid A Wadekar,A Push-Pull Train for Safety of Autonomous Vehicle Software,Deflating dataset bias using synthetic data augmentation,Unknown affiliation,,,,,,
Gabriel Villalonga,Co-training for on-board deep object detection,Deflating dataset bias using synthetic data augmentation,PhD Researcher,,,,,,
Mingxuan Dou,Semi-Supervised Domain Adaptation With Dual-Adversarial Learning for Lane Detection,Deflating dataset bias using synthetic data augmentation,Unknown affiliation,,,,,,
Edlira Martiri,"Synthetic Data Generation: Methods,Applications,and Multidisciplinary Use Cases",Deflating dataset bias using synthetic data augmentation,University of Tirana,,,,,,
William Henry Clark IV,The Importance of Data in RF Machine Learning,Deflating dataset bias using synthetic data augmentation,The Hume Center,,,,,,
Christoph Sendner,Smarter Contracts: Detecting Vulnerabilities in Smart Contracts with Deep Transfer Learning.,Deflating dataset bias using synthetic data augmentation,University of Würzburg,,,,,,
Sergi Adipraja Widjaja,Machine learning-based framework for drivable surface annotation,Enhanced vehicle operation,CMU,,,,,,
Sivabalan Manivasagam,Neural lighting simulation for urban scenes,SIMBAR: Single Image-Based Scene Relighting For Effective Data Augmentation For Automated Driving Vision Tasks,Product Technical Launch Specialist,,,,,,
Joshua Bensemann,Data and model bias in artificial intelligence for healthcare applications in New Zealand,Deflating dataset bias using synthetic data augmentation,Unknown affiliation,,,,,,
Apoorv Singh,Machine learning-based framework for drivable surface annotation,Enhanced vehicle operation,Carnegie Mellon University Pittsburgh,,,,,,
Yongbee Park,Transfer Learning via Latent Dependency Factor for Estimating PM 2.5,Deflating dataset bias using synthetic data augmentation,Ingkle,,,,,,
Mátyás Macudzinski,Semantically-aware Neural Radiance Fields for Visual Scene Understanding: A Comprehensive Review,LANe: Lighting-Aware Neural Fields for Compositional Scene Synthesis,University Sorbonne Paris Nord & INRIA,,,,,,
Amine Bourki,Semantically-aware Neural Radiance Fields for Visual Scene Understanding: A Comprehensive Review,LANe: Lighting-Aware Neural Fields for Compositional Scene Synthesis,University Sorbonne Paris Nord & INRIA,,,,,,
Adrian Phoulady,Synthetic data augmentation to enhance manual and automated defect detection in microelectronics,Deflating dataset bias using synthetic data augmentation,UConn Tech Park,,,,,,
Marcelo Santos,A first look at dataset bias in license plate recognition,deepPIC: Deep perceptual image clustering for identifying bias in vision datasets,Federal University of Paraná.,,,,,,
Rita Delussu,Synthetic Data for Video Surveillance Applications of Computer Vision: A Review,Deflating dataset bias using synthetic data augmentation,University of Cagliari,,,,,,
Alex Falcon,Semantics for vision-and-language understanding,Deflating dataset bias using synthetic data augmentation,University of Udine,,,,,,
Mohammad Nikbakht,Synthetic seismocardiogram generation using a transformer-based neural network,Deflating dataset bias using synthetic data augmentation,Georgia Institute of Technology,,,,,,
Lei Dai,Semi-Supervised Domain Adaptation With Dual-Adversarial Learning for Lane Detection,Deflating dataset bias using synthetic data augmentation,Jiangnan University,,,,,,
Keith Man,A review of synthetic image data and its use in computer vision,Deflating dataset bias using synthetic data augmentation,University of South Autralia,,,,,,
Muzhou Yu,Revisiting Data Augmentation in Model Compression: An Empirical and Comprehensive Study,Deflating dataset bias using synthetic data augmentation,Unknown affiliation,,,,,,
Shubham Gujar,Genethos: A synthetic data generation system with bias detection and mitigation,Deflating dataset bias using synthetic data augmentation,University of Southern California,,,,,,
Nathan Tseng,LANe: Lighting-aware neural fields for compositional scene synthesis,SIMBAR: Single Image-Based Scene Relighting For Effective Data Augmentation For Automated Driving Vision Tasks,Applied Intuition,,,,,,
Yohan Poirier-Ginter,A Diffusion Approach to Radiance Field Relighting using Multi-Illumination Synthesis,SIMBAR: Single Image-Based Scene Relighting For Effective Data Augmentation For Automated Driving Vision Tasks,Université Côte d'Azur,,,,,,
Parvej Khan,Role of Simulated Lidar Data for Training 3D Deep Learning Models: An Exhaustive Analysis,Deflating dataset bias using synthetic data augmentation,Indian Institute of Technology Kanpur,,,,,,
Sudha Priyadarshini,Fedsyn: Synthetic data generation using federated learning,Deflating dataset bias using synthetic data augmentation,Unknown affiliation,,,,,,
Meghana L Gaopande,deepPIC: Deep perceptual image clustering for identifying bias in vision datasets,Deflating dataset bias using synthetic data augmentation,Ford Motor Company,,,,,,
Nicola Vanoli,A methodology for controlling bias and fairness in synthetic data generation,Deflating dataset bias using synthetic data augmentation,Unknown affiliation,,,,,,
Gary Sun,Neural lighting simulation for urban scenes,SIMBAR: Single Image-Based Scene Relighting For Effective Data Augmentation For Automated Driving Vision Tasks,University of Waterloo,,,,,,
Thang-Anh-Quan Nguyen,Semantically-aware Neural Radiance Fields for Visual Scene Understanding: A Comprehensive Review,LANe: Lighting-Aware Neural Fields for Compositional Scene Synthesis,Huawei Technologies France,,,,,,
Junhyeck Choi,StarGAN Model to Translate Interior Style Trained with Virtual Images,Deflating dataset bias using synthetic data augmentation,Seoul National University,,,,,,
Patrick Bezzina,Improving portfolio construction using deep generative machine learning models applying generative models on financial market data,Deflating dataset bias using synthetic data augmentation,Independent Researcher,,,,,,
Sonke Rohde,Parallel learning: Overview and perspective for computational learning across Syn2Real and Sim2Real,SIMBAR: Single Image-Based Scene Relighting For Effective Data Augmentation For Automated Driving Vision Tasks,N/A,,,,,,
Alan Martin Ross,Parallel learning: Overview and perspective for computational learning across Syn2Real and Sim2Real,SIMBAR: Single Image-Based Scene Relighting For Effective Data Augmentation For Automated Driving Vision Tasks,N/A,,,,,,
