rank,citations,citing author name,affiliation,latitude,longitude,country,citing paper title,cited paper title,county,city,state
1,375236,Yann LeCun,Meta,40.729205300000004,-73.99501481290962,United States,The effects of regularization and data augmentation are class dependent,Deflating dataset bias using synthetic data augmentation,New York County,New York,New York
2,236142,Luc Van Gool,Toyota,40.09781915000001,-76.10191371964535,United States,"Sun Off,Lights On: Photorealistic Monocular Nighttime Simulation for Robust Semantic Perception",SIMBAR: Single Image-Based Scene Relighting For Effective Data Augmentation For Automated Driving Vision Tasks,Lancaster County,,Pennsylvania
3,167140,Leon Bottou,Meta,3.5000086,-73.0000086,Colombia,The effects of regularization and data augmentation are class dependent,Deflating dataset bias using synthetic data augmentation,,,Meta
4,163923,Yang Liu,Michigan State Univ.,42.70237935,-84.48038686520441,United States,Transfer Learning via Latent Dependency Factor for Estimating PM 2.5,Deflating dataset bias using synthetic data augmentation,Ingham County,East Lansing,Michigan
5,163923,Yang Liu,Michigan State Univ.,42.70237935,-84.48038686520441,United States,Spatial Transfer Learning for Estimating PM 2.5 in Data-Poor Regions,Deflating dataset bias using synthetic data augmentation,Ingham County,East Lansing,Michigan
6,151390,Shengli Wang,City University of Hong Kong,22.3400204,114.16971664362887,China,Change Detection Based on Existing Vector Polygons and Up-to-Date Images Using an Attention-Based Multi-Scale ConvTransformer Network,DatasetEquity: Are All Samples Created Equal? In The Quest For Equity Within Datasets,,Kowloon,Hong Kong
7,151390,Hua Zhang,City University of Hong Kong,22.3400204,114.16971664362887,China,Change Detection Based on Existing Vector Polygons and Up-to-Date Images Using an Attention-Based Multi-Scale ConvTransformer Network,DatasetEquity: Are All Samples Created Equal? In The Quest For Equity Within Datasets,,Kowloon,Hong Kong
8,133228,Yu Chen,National Cheng Kung University,22.99909895,120.21622951861194,Taiwan,Generating Handwritten Mathematical Expressions From Symbol Graphs: An End-to-End Pipeline,Deflating dataset bias using synthetic data augmentation,,Tainan,
9,129611,Chen Wei,Bristol-Myers Squibb Co.,40.36391895,-74.73344895840222,United States,Towards generalizable tumor synthesis,Deflating dataset bias using synthetic data augmentation,Mercer County,,New Jersey
10,120274,Alan Yuille,Johns Hopkins University,39.33020225,-76.62185357858337,United States,Towards generalizable tumor synthesis,Deflating dataset bias using synthetic data augmentation,,Baltimore,Maryland
11,105634,Fei-Yue Wang,Chinese Academy of Sciences Beijing,39.90933665,116.32971461228999,China,Parallel learning: Overview and perspective for computational learning across Syn2Real and Sim2Real,SIMBAR: Single Image-Based Scene Relighting For Effective Data Augmentation For Automated Driving Vision Tasks,,Beijing,Beijing
12,105634,Min Huang,Chinese Academy of Sciences Beijing,39.90933665,116.32971461228999,China,Parallel learning: Overview and perspective for computational learning across Syn2Real and Sim2Real,SIMBAR: Single Image-Based Scene Relighting For Effective Data Augmentation For Automated Driving Vision Tasks,,Beijing,Beijing
13,89110,Simon Jonsson,MIT,42.3582529,-71.0966272383055,United States,Generation of Synthetic Data for Sustainable Fashion Using a Diffusion Model,Deflating dataset bias using synthetic data augmentation,Middlesex County,Cambridge,Massachusetts
14,83177,Raquel Urtasun,University of Toronto.,43.663461999999996,-79.39775966248058,Canada,Neural lighting simulation for urban scenes,SIMBAR: Single Image-Based Scene Relighting For Effective Data Augmentation For Automated Driving Vision Tasks,,Old Toronto,Ontario
15,81113,Peter Washington,University of Washington,47.65566375,-122.30270741043226,United States,Challenges and opportunities for machine learning classification of behavior and mental state from images,Deflating dataset bias using synthetic data augmentation,King County,Seattle,Washington
16,77614,James Hays,Georgia Institute of Technology,33.776094799999996,-84.3988076699857,United States,LANe: Lighting-aware neural fields for compositional scene synthesis,SIMBAR: Single Image-Based Scene Relighting For Effective Data Augmentation For Automated Driving Vision Tasks,Fulton County,Atlanta,Georgia
17,77385,Tinne Tuytelaars,KU Leuven Belgium,50.80571285,3.2915374489139757,Belgium,Unveiling the Ambiguity in Neural Inverse Rendering: A Parameter Compensation Analysis,SIMBAR: Single Image-Based Scene Relighting For Effective Data Augmentation For Automated Driving Vision Tasks,Kortrijk,Kortrijk,West Flanders
18,62795,Kate Saenko,Boston University,42.350421499999996,-71.10322831831216,United States,Lasagna: Layered Score Distillation for Disentangled Object Relighting,SIMBAR: Single Image-Based Scene Relighting For Effective Data Augmentation For Automated Driving Vision Tasks,Suffolk County,Boston,Massachusetts
19,57482,Jan Kautz,NVIDIA Santa Clara,37.37077465,-121.96271489115585,United States,Training object detection systems with generated images,Neural network image processing,Santa Clara County,Santa Clara,California
20,54200,Billie F Spencer,Urbana-Champaign,40.1117174,-88.207301,United States,Synthetic environments for vision-based structural condition assessment of Japanese high-speed railway viaducts,Deflating dataset bias using synthetic data augmentation,Champaign County,Urbana,Illinois
21,50866,Yang Zhao,uum,2.7341815,32.4279712,Uganda,Mitigating Bias of Deep Neural Networks for Trustworthy Traffic Perception in Autonomous Systems,Deflating dataset bias using synthetic data augmentation,,,Omoro
22,47601,HV Jagadish,University of Michigan,42.2942142,-83.71003893509601,United States,Representation bias in data: A survey on identification and resolution techniques,Deflating dataset bias using synthetic data augmentation,Washtenaw County,Ann Arbor,Michigan
23,47601,HV Jagadish,University of Michigan,42.2942142,-83.71003893509601,United States,A survey on techniques for identifying and resolving representation bias in data,Deflating dataset bias using synthetic data augmentation,Washtenaw County,Ann Arbor,Michigan
24,47073,Xu Zhao,North China Electric Power University,38.8760446,115.4973873,China,Change Detection Based on Existing Vector Polygons and Up-to-Date Images Using an Attention-Based Multi-Scale ConvTransformer Network,DatasetEquity: Are All Samples Created Equal? In The Quest For Equity Within Datasets,,Baoding City,Hebei
25,43574,Stephanie Forrest,Univ. of New Mexico,35.08663275,-106.62020940505188,United States,Automated Program Repair: Emerging trends pose and expose problems for benchmarks,Deflating dataset bias using synthetic data augmentation,Bernalillo County,Albuquerque,New Mexico
26,40968,Dit-Yan Yeung,Hong Kong,22.350627,114.1849161,China,Detdiffusion: Synergizing generative and perceptive models for enhanced data generation and perception,Deflating dataset bias using synthetic data augmentation,,Sha Tin District,Hong Kong
27,39594,Hao Yang,Fuzhou University,26.0614068,119.19334162717391,China,KoMA: Knowledge-driven Multi-agent Framework for Autonomous Driving with Large Language Models,Deflating dataset bias using synthetic data augmentation,,Minhou County,Fujian
28,37690,Ahmad-Reza Sadeghi,Technische Universität Darmstadt,49.86115175,8.681943998674633,Germany,Smarter Contracts: Detecting Vulnerabilities in Smart Contracts with Deep Transfer Learning.,Deflating dataset bias using synthetic data augmentation,,Darmstadt,Hesse
29,36709,"Christoph M{\""u}ller",Potsdam Institute for Climate Impact Research Telegrafenberg ,,,,Using Auto-ML on Synthetic Point Cloud Generation,Deflating dataset bias using synthetic data augmentation,,,
30,34921,Dmitry Ivanov,Berlin School of Economics,52.48516875,13.338271133838324,Germany,Efficacy of Synthetic Data as a Benchmark,Deflating dataset bias using synthetic data augmentation,,Berlin,
31,34921,Dmitry Ivanov,Law,38.6065461,-82.5702511,United States,Efficacy of Synthetic Data as a Benchmark,Deflating dataset bias using synthetic data augmentation,Lawrence County,,Ohio
32,34831,Anima Anandkumar,NVIDIA Santa Clara,45.5344957,-122.886274,United States,Simulation intelligence: Towards a new generation of scientific methods,Deflating dataset bias using synthetic data augmentation,Washington County,Hillsboro,Oregon
33,34831,Anima Anandkumar,California Institute of Technology,34.13701375,-118.12528833668254,United States,Simulation intelligence: Towards a new generation of scientific methods,Deflating dataset bias using synthetic data augmentation,,Pasadena,California
34,34061,Paul Newman,University of Oxford,51.75870755,-1.2556684826092037,United Kingdom,Visual dna: Representing and comparing images using distributions of neuron activations,deepPIC: Deep perceptual image clustering for identifying bias in vision datasets,Oxfordshire,Oxford,England
35,34029,Jayashree Kalpathy-Cramer,University of Colorado,40.00759835,-105.26910078017822,United States,Toward fairness in artificial intelligence for medical image analysis: identification and mitigation of potential biases in the roadmap from data collection to model deployment,Deflating dataset bias using synthetic data augmentation,Boulder County,Boulder,Colorado
36,32948,Farinaz Koushanfar,UC San Diego,32.77249785,-117.1880311872546,United States,Smarter Contracts: Detecting Vulnerabilities in Smart Contracts with Deep Transfer Learning.,Deflating dataset bias using synthetic data augmentation,,San Diego,California
37,32377,Yiran Chen,Duke University,36.00015569999999,-78.94422972195878,United States,Mitigating Bias of Deep Neural Networks for Trustworthy Traffic Perception in Autonomous Systems,Deflating dataset bias using synthetic data augmentation,Durham County,Durham,North Carolina
38,31511,Mohammed Bennamoun,University of Western Australia,-31.95040445,115.79790157357621,Australia,Semantically-aware Neural Radiance Fields for Visual Scene Understanding: A Comprehensive Review,LANe: Lighting-Aware Neural Fields for Compositional Scene Synthesis,City of Nedlands,,Western Australia
39,31511,Anthony Brunel,University of Western Australia,-31.95040445,115.79790157357621,Australia,Semantically-aware Neural Radiance Fields for Visual Scene Understanding: A Comprehensive Review,LANe: Lighting-Aware Neural Fields for Compositional Scene Synthesis,City of Nedlands,,Western Australia
40,30286,Xin Xu,National University of Singapore,1.2962018,103.77689765953073,Singapore,Patch-Mixing Contrastive Regularization for Few-Label Semi-Supervised Learning,Deflating dataset bias using synthetic data augmentation,,Singapore,
41,30090,Nasir Memon,Tandon School of Engineering,40.6946918,-73.982965,United States,A dataless faceswap detection approach using synthetic images,Deflating dataset bias using synthetic data augmentation,,New York,New York
42,27821,Alois Knoll,Technische Universität München,48.2655696,11.669345610437997,Germany,Multi-agent reinforcement learning for autonomous driving: A survey,SIMBAR: Single Image-Based Scene Relighting For Effective Data Augmentation For Automated Driving Vision Tasks,Landkreis München,,Bavaria
43,24803,others,UK,54.7023545,-3.2765753,United Kingdom,Simulation intelligence: Towards a new generation of scientific methods,Deflating dataset bias using synthetic data augmentation,Cumberland,,England
44,24803,others,UK,54.7023545,-3.2765753,United Kingdom,Toward fairness in artificial intelligence for medical image analysis: identification and mitigation of potential biases in the roadmap from data collection to model deployment,Deflating dataset bias using synthetic data augmentation,Cumberland,,England
45,24803,others,UK,54.7023545,-3.2765753,United Kingdom,Detdiffusion: Synergizing generative and perceptive models for enhanced data generation and perception,Deflating dataset bias using synthetic data augmentation,Cumberland,,England
46,24803,others,UK,54.7023545,-3.2765753,United Kingdom,Semantics for vision-and-language understanding,Deflating dataset bias using synthetic data augmentation,Cumberland,,England
47,24328,Phillip Vu,VU University,52.3340539,4.865188201518784,Netherlands,"Active data collection,sampling,and generation for use in training machine learning models for automotive or other applications",Neural network image processing,,Amsterdam,North Holland
48,23527,Julian Togelius,modl.ai,,,,A dataless faceswap detection approach using synthetic images,Deflating dataset bias using synthetic data augmentation,,,
49,22382,Aashish JAIN,Institute of Medical Education and Research,11.9510632,79.80052599401861,India,Automatic Image Conversion,Neural network image processing,Ozhukarai Taluk,,Puducherry
50,22363,Jian Pu,Nanjing Tech University,,,,Leveraging Smooth Deformation Augmentation for LiDAR Point Cloud Semantic Segmentation,SIMBAR: Single Image-Based Scene Relighting For Effective Data Augmentation For Automated Driving Vision Tasks,,,
51,22121,Antonio M Lopez Pena,Autònoma de Barcelona (UAB),41.50155265,2.106260723986069,Spain,Co-training for on-board deep object detection,Deflating dataset bias using synthetic data augmentation,Vallès Occidental,,Catalonia
52,21359,Marinka Zitnik,Harvard University,42.365743249999994,-71.12221394207614,United States,Few shot learning for phenotype-driven diagnosis of patients with rare genetic diseases,Deflating dataset bias using synthetic data augmentation,Suffolk County,Boston,Massachusetts
53,19654,Xiangyang Xue,Fudan University,31.30116485,121.49808756382322,China,Leveraging Smooth Deformation Augmentation for LiDAR Point Cloud Semantic Segmentation,SIMBAR: Single Image-Based Scene Relighting For Effective Data Augmentation For Automated Driving Vision Tasks,,Yangpu District,Shanghai
54,19506,Westley Weimer,University of Michigan,42.2942142,-83.71003893509601,United States,Automated Program Repair: Emerging trends pose and expose problems for benchmarks,Deflating dataset bias using synthetic data augmentation,Washtenaw County,Ann Arbor,Michigan
55,19075,Yozo Fujino,Yokohama National University,,,,Synthetic environments for vision-based structural condition assessment of Japanese high-speed railway viaducts,Deflating dataset bias using synthetic data augmentation,,,
56,18810,Sanjay Choudry,Chaudhary Charan Singh Haryana Agricultural University Hisar,29.14538425,75.70431860267045,India,Simulation intelligence: Towards a new generation of scientific methods,Deflating dataset bias using synthetic data augmentation,Hisar,Hisar,Haryana
57,18702,Jenq-Neng Hwang,University of Washington,47.65566375,-122.30270741043226,United States,Mitigating Bias of Deep Neural Networks for Trustworthy Traffic Perception in Autonomous Systems,Deflating dataset bias using synthetic data augmentation,King County,Seattle,Washington
58,17847,Ranjay Krishna,University of Washington,47.65566375,-122.30270741043226,United States,Lasagna: Layered Score Distillation for Disentangled Object Relighting,SIMBAR: Single Image-Based Scene Relighting For Effective Data Augmentation For Automated Driving Vision Tasks,King County,Seattle,Washington
59,17646,Eyal Ofek,UK,54.7023545,-3.2765753,United Kingdom,CityLifeSim: A High-Fidelity Pedestrian and Vehicle Simulation with Complex Behaviors,Deflating dataset bias using synthetic data augmentation,Cumberland,,England
60,16797,Ashish Kapoor,Scaled Foundations Kirkland,,,,CityLifeSim: A High-Fidelity Pedestrian and Vehicle Simulation with Complex Behaviors,Deflating dataset bias using synthetic data augmentation,,,
61,16673,Olivier Salvado,The Commonwealth Scientific and Industrial Research Organisation,,,,Synthetic Data for Deep Learning in Computer Vision \& Medical Imaging: A Means to Reduce Data Bias,Deflating dataset bias using synthetic data augmentation,,,
62,15757,Daniel McDuff,University of Washington,47.65566375,-122.30270741043226,United States,CityLifeSim: A High-Fidelity Pedestrian and Vehicle Simulation with Complex Behaviors,Deflating dataset bias using synthetic data augmentation,King County,Seattle,Washington
63,15757,Daniel McDuff,Google,33.977092,-118.4092133,United States,CityLifeSim: A High-Fidelity Pedestrian and Vehicle Simulation with Complex Behaviors,Deflating dataset bias using synthetic data augmentation,Los Angeles County,Los Angeles,California
64,15678,Berkman Sahiner,Drug Administration,43.0766528,-89.3818615,United States,Toward fairness in artificial intelligence for medical image analysis: identification and mitigation of potential biases in the roadmap from data collection to model deployment,Deflating dataset bias using synthetic data augmentation,Dane County,Madison,Wisconsin
65,15678,Berkman Sahiner,US Food,34.0440296,-118.4213724,United States,Toward fairness in artificial intelligence for medical image analysis: identification and mitigation of potential biases in the roadmap from data collection to model deployment,Deflating dataset bias using synthetic data augmentation,Los Angeles County,Los Angeles,California
66,15678,Berkman Sahiner,ARPA-H,43.3589862,-8.403763,Spain,Toward fairness in artificial intelligence for medical image analysis: identification and mitigation of potential biases in the roadmap from data collection to model deployment,Deflating dataset bias using synthetic data augmentation,A Coruña,A Coruña,Galicia
67,14761,Zhenguo Li,PKU,39.99171495,116.30393496863539,China,Detdiffusion: Synergizing generative and perceptive models for enhanced data generation and perception,Deflating dataset bias using synthetic data augmentation,,Haidian District,Beijing
68,14700,Yandong Wang,Georgia Institute of Technology,33.776094799999996,-84.3988076699857,United States,Semi-Supervised Domain Adaptation With Dual-Adversarial Learning for Lane Detection,Deflating dataset bias using synthetic data augmentation,Fulton County,Atlanta,Georgia
69,14580,Vaibhav Kumar,Georgia Institute of Technology,33.776094799999996,-84.3988076699857,United States,Role of Simulated Lidar Data for Training 3D Deep Learning Models: An Exhaustive Analysis,Deflating dataset bias using synthetic data augmentation,Fulton County,Atlanta,Georgia
70,14134,Zhigang Xu,Southwest University (西南大学),29.823237149999997,106.41958835875167,China,Deep transfer learning for intelligent vehicle perception: A survey,SIMBAR: Single Image-Based Scene Relighting For Effective Data Augmentation For Automated Driving Vision Tasks,,Beibei,Chongqing
71,13898,Sanmi Koyejo,Stanford University,37.431313849999995,-122.16936535498309,United States,Toward fairness in artificial intelligence for medical image analysis: identification and mitigation of potential biases in the roadmap from data collection to model deployment,Deflating dataset bias using synthetic data augmentation,Santa Clara County,,California
72,13669,Shihong Zhang,Beijing,40.190632,116.412144,China,Semi-Supervised Domain Adaptation With Dual-Adversarial Learning for Lane Detection,Deflating dataset bias using synthetic data augmentation,,Changping District,Beijing
73,12924,Zongwei Zhou,Johns Hopkins University,39.33020225,-76.62185357858337,United States,Towards generalizable tumor synthesis,Deflating dataset bias using synthetic data augmentation,,Baltimore,Maryland
74,12902,Jinwoo Shin,Korea Advanced Institute of Science & Technology ,36.3697191,127.36253700115094,South Korea,Discovering and Mitigating Visual Biases through Keyword Explanation,deepPIC: Deep perceptual image clustering for identifying bias in vision datasets,,Daejeon,
75,12696,Clinton Fookes,Queensland University of Technology,-27.45122955,153.01621943949505,Australia,Synthetic Data for Deep Learning in Computer Vision \& Medical Imaging: A Means to Reduce Data Bias,Deflating dataset bias using synthetic data augmentation,,,Queensland
76,12358,George Drettakis,Inria Center at Université Côte d'Azur,,,,A Diffusion Approach to Radiance Field Relighting using Multi-Illumination Synthesis,SIMBAR: Single Image-Based Scene Relighting For Effective Data Augmentation For Automated Driving Vision Tasks,,,
77,12181,Dennis P Wall,Stanford University,37.431313849999995,-122.16936535498309,United States,Challenges and opportunities for machine learning classification of behavior and mental state from images,Deflating dataset bias using synthetic data augmentation,Santa Clara County,,California
78,11241,Rakesh Ranjan,BIRLA INSTITUTE OF TECHNOLOGY MESRA RANCHI,23.417569450000002,85.43940936666918,India,Genethos: A synthetic data generation system with bias detection and mitigation,Deflating dataset bias using synthetic data augmentation,Kanke,,Jharkhand
79,10508,Suresh Neethirajan,Canada,61.0666922,-107.991707,Canada,Integrating Artificial Intelligence in Dairy Farm Management-Biometric Facial Recognition for Cows,Deflating dataset bias using synthetic data augmentation,South Slave Region,,Northwest Territories
80,10285,Yisheng Lv,Chinese Academy of Sciences Beijing,39.90933665,116.32971461228999,China,Parallel learning: Overview and perspective for computational learning across Syn2Real and Sim2Real,SIMBAR: Single Image-Based Scene Relighting For Effective Data Augmentation For Automated Driving Vision Tasks,,Beijing,Beijing
81,9886,Omer T Inan,Georgia Institute of Technology,33.776094799999996,-84.3988076699857,United States,Synthetic seismocardiogram generation using a transformer-based neural network,Deflating dataset bias using synthetic data augmentation,Fulton County,Atlanta,Georgia
82,9696,Qiang Xu,The Chinese University of Hong Kong,22.4201838,114.20791453524086,China,Detdiffusion: Synergizing generative and perceptive models for enhanced data generation and perception,Deflating dataset bias using synthetic data augmentation,,Sha Tin District,Hong Kong
83,9371,Nancy Thomas,Thomas W.,39.713986,-82.610517,United States,Tree-Based Structural Representation and Difference Computation for PDF Documents,Deflating dataset bias using synthetic data augmentation,Fairfield County,Lancaster,Ohio
84,9237,Kyle Myers,Center for Devices,31.52796285,34.45372263909137,Palestinian Territories,Toward fairness in artificial intelligence for medical image analysis: identification and mitigation of potential biases in the roadmap from data collection to model deployment,Deflating dataset bias using synthetic data augmentation,,Gaza,
85,9237,Kyle Myers,Radiological Health,35.14077,33.3390584,Cyprus,Toward fairness in artificial intelligence for medical image analysis: identification and mitigation of potential biases in the roadmap from data collection to model deployment,Deflating dataset bias using synthetic data augmentation,Strovolos Municipality,,Cyprus
86,9207,Yihu Zhu,Chinese Academy of Sciences Beijing,39.90933665,116.32971461228999,China,Change Detection Based on Existing Vector Polygons and Up-to-Date Images Using an Attention-Based Multi-Scale ConvTransformer Network,DatasetEquity: Are All Samples Created Equal? In The Quest For Equity Within Datasets,,Beijing,Beijing
87,8997,Jianming Zhang,Adobe Research,47.5549905,7.5899398,Switzerland,Lasagna: Layered Score Distillation for Disentangled Object Relighting,SIMBAR: Single Image-Based Scene Relighting For Effective Data Augmentation For Automated Driving Vision Tasks,,Basel,Basel-City
88,8968,David Krakauer,Santa Fe Institute.,35.700326849999996,-105.90881561569873,United States,Simulation intelligence: Towards a new generation of scientific methods,Deflating dataset bias using synthetic data augmentation,Santa Fe County,Santa Fe,New Mexico
89,8956,Shalini De Mello,NVIDIA Santa Clara,37.37077465,-121.96271489115585,United States,Training object detection systems with generated images,Neural network image processing,Santa Clara County,Santa Clara,California
90,8746,Zhiwei Xiong,University of Science,51.51426105,-0.11673351981492822,United Kingdom,Towards generalizable tumor synthesis,Deflating dataset bias using synthetic data augmentation,,London,England
91,8746,Zhiwei Xiong,Technology of China,31.2787148,120.72376292616886,China,Towards generalizable tumor synthesis,Deflating dataset bias using synthetic data augmentation,,Suzhou Industrial Park,Jiangsu
92,8649,Nannan Wang,Xidian University,34.1251589,108.82896528504287,China,Generating Handwritten Mathematical Expressions From Symbol Graphs: An End-to-End Pipeline,Deflating dataset bias using synthetic data augmentation,,Chang'an District,Shaanxi
93,8645,Siddhartha Gupta,Kapilvastu,27.61923765,82.98222657989004,Nepal,Role of Simulated Lidar Data for Training 3D Deep Learning Models: An Exhaustive Analysis,Deflating dataset bias using synthetic data augmentation,Kapilvastu,,
94,8392,Venice Erin Baylon Liong,Motional Massachusetts,,,,Machine learning-based framework for drivable surface annotation,Enhanced vehicle operation,,,
95,8392,Zhuang Jie Chong,Motional Massachusetts,,,,Machine learning-based framework for drivable surface annotation,Enhanced vehicle operation,,,
96,8341,Chirag Shah,University of Washington,47.65566375,-122.30270741043226,United States,Detecting spurious correlations via robust visual concepts in real and AI-generated image classification,Deflating dataset bias using synthetic data augmentation,King County,Seattle,Washington
97,8341,Chirag Shah,University of Washington,47.65566375,-122.30270741043226,United States,Addressing weak decision boundaries in image classification by leveraging web search and generative models,Deflating dataset bias using synthetic data augmentation,King County,Seattle,Washington
98,8295,Tim Mattson,Human Learning Group,,,,Simulation intelligence: Towards a new generation of scientific methods,Deflating dataset bias using synthetic data augmentation,,,
99,8195,AK Koushik,Indian Institute of Management (IIM) Amritsar,,,,Deep learning--powered generation of artificial endoscopic images of GI tract ulcers,Deflating dataset bias using synthetic data augmentation,,,
100,8009,Nanshan Zheng,Fudan University,31.30116485,121.49808756382322,China,Change Detection Based on Existing Vector Polygons and Up-to-Date Images Using an Attention-Based Multi-Scale ConvTransformer Network,DatasetEquity: Are All Samples Created Equal? In The Quest For Equity Within Datasets,,Yangpu District,Shanghai
101,7854,Javaan Chahl,University of South Australia,-37.8062142,140.766463,Australia,A review of synthetic image data and its use in computer vision,Deflating dataset bias using synthetic data augmentation,,Mount Gambier,South Australia
102,7601,Sifei Liu,NVIDIA Santa Clara,45.5344957,-122.886274,United States,Training object detection systems with generated images,Neural network image processing,Washington County,Hillsboro,Oregon
103,7511,Juan Cao,Chinese Academy of Science,41.7691902,123.439023,China,Bias oriented unbiased data augmentation for cross-bias representation learning,SIMBAR: Single Image-Based Scene Relighting For Effective Data Augmentation For Automated Driving Vision Tasks,,Shenhe District,Liaoning
104,7511,Juan Cao,Chinese Academy of Science,41.7691902,123.439023,China,Bias oriented unbiased data augmentation for cross-bias representation learning,Deflating dataset bias using synthetic data augmentation,,Shenhe District,Liaoning
105,7073,Michael Witbrock,The University of Auckland,-35.721706350000005,174.31807435936219,New Zealand,Data and model bias in artificial intelligence for healthcare applications in New Zealand,Deflating dataset bias using synthetic data augmentation,Whangārei District,Whangārei,Northland
106,6991,J-F Lalonde,Université Laval,46.78116215,-71.27680024340233,Canada,A Diffusion Approach to Radiance Field Relighting using Multi-Illumination Synthesis,SIMBAR: Single Image-Based Scene Relighting For Effective Data Augmentation For Automated Driving Vision Tasks,Urban agglomeration of Québec,Quebec,Quebec
107,6991,Giorgio Fumera,University of Cagliari,,,,Synthetic Data for Video Surveillance Applications of Computer Vision: A Review,Deflating dataset bias using synthetic data augmentation,,,
108,6950,Xirong Li,Renmin University of China,39.9695397,116.30712905005895,China,Bias oriented unbiased data augmentation for cross-bias representation learning,SIMBAR: Single Image-Based Scene Relighting For Effective Data Augmentation For Automated Driving Vision Tasks,,Haidian District,Beijing
109,6950,Xirong Li,Renmin University of China,39.9695397,116.30712905005895,China,Bias oriented unbiased data augmentation for cross-bias representation learning,Deflating dataset bias using synthetic data augmentation,,Haidian District,Beijing
110,6519,David Menotti,Universidade Federal do Paraná,-23.59844395,-51.673359178875074,Brazil,A first look at dataset bias in license plate recognition,deepPIC: Deep perceptual image clustering for identifying bias in vision datasets,,,Paraná
111,6397,Alexandra Dmitrienko,Würzburg University,49.780603150000005,9.971655766351642,Germany,Smarter Contracts: Detecting Vulnerabilities in Smart Contracts with Deep Transfer Learning.,Deflating dataset bias using synthetic data augmentation,,Würzburg,Bavaria
112,6210,Karen Drukker,Research Associate Professor University of Chicago,,,,Toward fairness in artificial intelligence for medical image analysis: identification and mitigation of potential biases in the roadmap from data collection to model deployment,Deflating dataset bias using synthetic data augmentation,,,
113,5868,Xiaogang Jin,Zhejiang University,30.521595,120.7195312,China,A General Implicit Framework for Fast NeRF Composition and Rendering,LANe: Lighting-Aware Neural Fields for Compositional Scene Synthesis,,Haining,Zhejiang
114,5636,Undiagnosed Diseases Network,Harvard Medical School,42.336831849999996,-71.10380921118058,United States,Few shot learning for phenotype-driven diagnosis of patients with rare genetic diseases,Deflating dataset bias using synthetic data augmentation,Suffolk County,Boston,Massachusetts
115,5060,Johann Brehmer,CuspAI,,,,Simulation intelligence: Towards a new generation of scientific methods,Deflating dataset bias using synthetic data augmentation,,,
116,5035,William Melek,University of Waterloo,43.4701994,-80.54524293779451,Canada,Sim-to-real domain adaptation for lane detection and classification in autonomous driving,Deflating dataset bias using synthetic data augmentation,Region of Waterloo,Wilmot,Ontario
117,4928,Daniel Borrajo,Universidad Carlos III de Madrid,40.3150937,-3.7248793246049545,Spain,Tree-Based Structural Representation and Difference Computation for PDF Documents,Deflating dataset bias using synthetic data augmentation,,Getafe,Community of Madrid
118,4917,Christos Sakaridis,ETH Zurich,47.413218,8.5374914,Switzerland,"Sun Off,Lights On: Photorealistic Monocular Nighttime Simulation for Robust Semantic Perception",SIMBAR: Single Image-Based Scene Relighting For Effective Data Augmentation For Automated Driving Vision Tasks,District Zurich,Zurich,Zurich
119,4677,Kaisheng Ma,Tsinghua University,40.002290450000004,116.3209629696906,China,Revisiting Data Augmentation in Model Compression: An Empirical and Comprehensive Study,Deflating dataset bias using synthetic data augmentation,,Haidian District,Beijing
120,4578,Lior Shamir,Kansas State University,39.20883,-96.58845116318602,United States,Evaluation of the benchmark datasets for testing the efficacy of deep convolutional neural networks,Deflating dataset bias using synthetic data augmentation,Riley County,Manhattan,Kansas
121,4441,Mar Gonzalez-Franco,Google,33.977092,-118.4092133,United States,CityLifeSim: A High-Fidelity Pedestrian and Vehicle Simulation with Complex Behaviors,Deflating dataset bias using synthetic data augmentation,Los Angeles County,Los Angeles,California
122,4378,David Reith,University of Otago,-45.8649793,170.51461487350844,New Zealand,Data and model bias in artificial intelligence for healthcare applications in New Zealand,Deflating dataset bias using synthetic data augmentation,Dunedin City,Dunedin,Otago
123,4359,Yujun Zeng,Hangzhou Normal University,30.2564553,120.31414249679304,China,Patch-Mixing Contrastive Regularization for Few-Label Semi-Supervised Learning,Deflating dataset bias using synthetic data augmentation,,Xiaoshan District,Zhejiang
124,4328,Heather Whitney,University of Bristol,51.4905582,-2.6304824978595356,United Kingdom,Toward fairness in artificial intelligence for medical image analysis: identification and mitigation of potential biases in the roadmap from data collection to model deployment,Deflating dataset bias using synthetic data augmentation,North Somerset,,England
125,4252,Wei-Chiu Ma,Cornell University,42.4529076,-76.48008423030923,United States,Neural lighting simulation for urban scenes,SIMBAR: Single Image-Based Scene Relighting For Effective Data Augmentation For Automated Driving Vision Tasks,Tompkins County,City of Ithaca,New York
126,4218,Weijie Chen,University of Chicago,41.79139685,-87.60084387193544,United States,Toward fairness in artificial intelligence for medical image analysis: identification and mitigation of potential biases in the roadmap from data collection to model deployment,Deflating dataset bias using synthetic data augmentation,Cook County,Chicago,Illinois
127,4218,Weijie Chen,Food,52.4289873,13.5385751,Germany,Toward fairness in artificial intelligence for medical image analysis: identification and mitigation of potential biases in the roadmap from data collection to model deployment,Deflating dataset bias using synthetic data augmentation,,Berlin,
128,4218,Weijie Chen,Drug Administration,43.0766528,-89.3818615,United States,Toward fairness in artificial intelligence for medical image analysis: identification and mitigation of potential biases in the roadmap from data collection to model deployment,Deflating dataset bias using synthetic data augmentation,Dane County,Madison,Wisconsin
129,4184,Toni Moore,Liverpool John Moores University,53.40521085,-2.9725463299324124,United Kingdom,Synthetic data augmentation to enhance manual and automated defect detection in microelectronics,Deflating dataset bias using synthetic data augmentation,,Liverpool,England
130,4171,Gillian Dobbie,University of Auckland,-36.8660955,174.77373309361866,New Zealand,Data and model bias in artificial intelligence for healthcare applications in New Zealand,Deflating dataset bias using synthetic data augmentation,,Auckland,Auckland
131,4017,Hector Zenil,The Alan Turing Institute,,,,Simulation intelligence: Towards a new generation of scientific methods,Deflating dataset bias using synthetic data augmentation,,,
132,4001,Suresh Shetty,Forensic Medicine,36.25674065,44.88032834292453,Iraq,Fedsyn: Synthetic data generation using federated learning,Deflating dataset bias using synthetic data augmentation,,,Sulaymaniyah Governorate
133,3853,Xinyu Gao,Tsinghua University,40.002290450000004,116.3209629696906,China,A General Implicit Framework for Fast NeRF Composition and Rendering,LANe: Lighting-Aware Neural Fields for Compositional Scene Synthesis,,Haidian District,Beijing
134,3804,Eric Knauss,Chalmers | University of Gothenburg,57.6897462,11.97652589525446,Sweden,An investigation of challenges encountered when specifying training data and runtime monitors for safety critical ML applications,Deflating dataset bias using synthetic data augmentation,Västra Götaland County,Gothenburg,
135,3804,Eric Knauss,Chalmers | University of Gothenburg,57.6897462,11.97652589525446,Sweden,An empirical investigation of challenges of specifying training data and runtime monitors for critical software with machine learning and their relation to architectural decisions,Deflating dataset bias using synthetic data augmentation,Västra Götaland County,Gothenburg,
136,3788,Sergi Abadal,Universitat Politècnica de Catalunya,41.22144745,1.7301449113565364,Spain,Bias reduction via cooperative bargaining in synthetic graph dataset generation,Deflating dataset bias using synthetic data augmentation,Garraf,,Catalonia
137,3755,Zhiyong Cui,Beihang University,39.9809427,116.34097867654876,China,KoMA: Knowledge-driven Multi-agent Framework for Autonomous Driving with Large Language Models,Deflating dataset bias using synthetic data augmentation,,Haidian District,Beijing
138,3726,Judy Gichoya,Emory University,33.80045465,-84.31723780466274,United States,Toward fairness in artificial intelligence for medical image analysis: identification and mitigation of potential biases in the roadmap from data collection to model deployment,Deflating dataset bias using synthetic data augmentation,DeKalb County,Georgia
139,3612,Guang Chen,Tongji University,31.27369175,121.38566174235456,China,Multi-agent reinforcement learning for autonomous driving: A survey,SIMBAR: Single Image-Based Scene Relighting For Effective Data Augmentation For Automated Driving Vision Tasks,,Putuo District,Shanghai
140,3472,Umar Iqbal,NVIDIA Santa Clara,37.37077465,-121.96271489115585,United States,Training object detection systems with generated images,Neural network image processing,Santa Clara County,Santa Clara,California
141,3410,Changqing Zou,Zhejiang University,30.521595,120.7195312,China,A General Implicit Framework for Fast NeRF Composition and Rendering,LANe: Lighting-Aware Neural Fields for Compositional Scene Synthesis,,Haining,Zhejiang
142,3362,Alexander Lavin,NASA,40.4269303,49.8413926,Azerbaijan,Simulation intelligence: Towards a new generation of scientific methods,Deflating dataset bias using synthetic data augmentation,,Baku City,
143,3216,Ahmed H Madian,Nile University,30.00916145,30.98593655626926,Egypt,A novel data augmentation approach for ego-lane detection enhancement,Deflating dataset bias using synthetic data augmentation,,6th of October,Giza
144,3202,Yuxiang Sun,City University of Hong Kong,22.3400204,114.16971664362887,China,A General Implicit Framework for Fast NeRF Composition and Rendering,LANe: Lighting-Aware Neural Fields for Compositional Scene Synthesis,,Kowloon,Hong Kong
145,3154,Sarah Adel Bargal,Boston University,42.350421499999996,-71.10322831831216,United States,Lasagna: Layered Score Distillation for Disentangled Object Relighting,SIMBAR: Single Image-Based Scene Relighting For Effective Data Augmentation For Automated Driving Vision Tasks,Suffolk County,Boston,Massachusetts
146,3065,Emily Alsentzer,Harvard Medical School,42.336831849999996,-71.10380921118058,United States,Few shot learning for phenotype-driven diagnosis of patients with rare genetic diseases,Deflating dataset bias using synthetic data augmentation,Suffolk County,Boston,Massachusetts
147,2983,Nick Haber,Stanford University,37.431313849999995,-122.16936535498309,United States,Challenges and opportunities for machine learning classification of behavior and mental state from images,Deflating dataset bias using synthetic data augmentation,Santa Clara County,,California
148,2967,Eduardo Luz,Federal University of Ouro Preto,,,,A first look at dataset bias in license plate recognition,deepPIC: Deep perceptual image clustering for identifying bias in vision datasets,,,
149,2961,Jinesh Jain,Key Logic,35.7316986,139.7143998,Japan,deepPIC: Deep perceptual image clustering for identifying bias in vision datasets,Deflating dataset bias using synthetic data augmentation,,Toshima,
150,2829,Mats Ingemar Pettersson,Blekinge Tekniska Högskola (BTH),,,,Effects of Foreground Augmentations in Synthetic Training Data on the Use of UAVs for Weed Detection,Deflating dataset bias using synthetic data augmentation,,,
151,2648,Justin Gottschlich,Merly Inc.,,,,Simulation intelligence: Towards a new generation of scientific methods,Deflating dataset bias using synthetic data augmentation,,,
152,2632,Punarjay Chakravarty,Planet,46.310315,5.6545477,France,Sim2real for self-supervised monocular depth and segmentation,Deflating dataset bias using synthetic data augmentation,Ain,,Auvergne-Rhône-Alpes
153,2599,Hongkai Yu,Cleveland State University,41.50258335,-81.67508708526213,United States,Deep transfer learning for intelligent vehicle perception: A survey,SIMBAR: Single Image-Based Scene Relighting For Effective Data Augmentation For Automated Driving Vision Tasks,Cuyahoga County,Cleveland,Ohio
154,2579,"Andreas Z{\""u}fle",Emory University,33.80045465,-84.31723780466274,United States,Transfer Learning via Latent Dependency Factor for Estimating PM 2.5,Deflating dataset bias using synthetic data augmentation,DeKalb County,Georgia
155,2579,"Andreas Z{\""u}fle",Emory University,33.80045465,-84.31723780466274,United States,Spatial Transfer Learning for Estimating PM 2.5 in Data-Poor Regions,Deflating dataset bias using synthetic data augmentation,DeKalb County,Georgia
156,2508,Jongmoo Choi,Canoo,51.2399111,6.768622,Germany,"Active data collection,sampling,and generation for use in training machine learning models for automotive or other applications",Neural network image processing,,Dusseldorf,North Rhine-Westphalia
157,2503,Kyungmin Lee,Hanyang University,37.5557274,127.0436837,South Korea,Discovering and Mitigating Visual Biases through Keyword Explanation,deepPIC: Deep perceptual image clustering for identifying bias in vision datasets,,Seoul,
158,2403,Rishikesan Kamaleswaran,Duke University,36.00015569999999,-78.94422972195878,United States,Synthetic seismocardiogram generation using a transformer-based neural network,Deflating dataset bias using synthetic data augmentation,Durham County,Durham,North Carolina
159,2391,Ze Yang,University of Toronto,43.663461999999996,-79.39775966248058,Canada,Neural lighting simulation for urban scenes,SIMBAR: Single Image-Based Scene Relighting For Effective Data Augmentation For Automated Driving Vision Tasks,,Old Toronto,Ontario
160,2348,Peter Yigitcan Washington,Mānoa,21.3093848,-157.8118169,United States,Machine Learning and Crowdsourcing for Digital Behavioral Phenotyping,Deflating dataset bias using synthetic data augmentation,Honolulu County,East Honolulu,Hawaii
161,2259,Yun Chen,Waabi,45.0838098,-93.0069304,United States,Neural lighting simulation for urban scenes,SIMBAR: Single Image-Based Scene Relighting For Effective Data Augmentation For Automated Driving Vision Tasks,Ramsey County,,Minnesota
162,2255,Danding Wang,Chinese Academy of Sciences Beijing,39.90933665,116.32971461228999,China,Bias oriented unbiased data augmentation for cross-bias representation learning,SIMBAR: Single Image-Based Scene Relighting For Effective Data Augmentation For Automated Driving Vision Tasks,,Beijing,Beijing
163,2255,Danding Wang,Chinese Academy of Sciences Beijing,39.90933665,116.32971461228999,China,Bias oriented unbiased data augmentation for cross-bias representation learning,Deflating dataset bias using synthetic data augmentation,,Beijing,Beijing
164,2253,Vedhus Hoskere,University of Houston,29.7207902,-95.34406271491369,United States,Synthetic environments for vision-based structural condition assessment of Japanese high-speed railway viaducts,Deflating dataset bias using synthetic data augmentation,Harris County,Houston,Texas
165,2253,Vedhus Hoskere,Urbana-Champaign,40.1117174,-88.207301,United States,Synthetic environments for vision-based structural condition assessment of Japanese high-speed railway viaducts,Deflating dataset bias using synthetic data augmentation,Champaign County,Urbana,Illinois
166,2242,Jessica Lundin,Public Health -- Seattle & King County,47.6145908,-122.34217759004977,United States,Automatic Image Conversion,Neural network image processing,King County,Seattle,Washington
167,2225,Qi Peng,University of Georgia,33.9404278,-83.37304904988295,United States,"Active data collection,sampling,and generation for use in training machine learning models for automotive or other applications",Neural network image processing,Athens-Clarke County,Athens-Clarke County Unified Government,Georgia
168,2212,Yasutaka Narazaki,Zhejiang University,30.521595,120.7195312,China,Synthetic environments for vision-based structural condition assessment of Japanese high-speed railway viaducts,Deflating dataset bias using synthetic data augmentation,,Haining,Zhejiang
169,2212,Yasutaka Narazaki,Zhejiang University,30.521595,120.7195312,China,Autonomous vision-based inspection of RC railway bridges for rapid post-earthquake response and recovery,Deflating dataset bias using synthetic data augmentation,,Haining,Zhejiang
170,2208,Hossein Fereidooni,Germany,51.1638175,10.4478313,Germany,Smarter Contracts: Detecting Vulnerabilities in Smart Contracts with Deep Transfer Learning.,Deflating dataset bias using synthetic data augmentation,Unstrut-Hainich-Kreis,Vogtei,Thuringia
171,2204,Lanqing Hong,Huawei Noah's Ark Lab,,,,Detdiffusion: Synergizing generative and perceptive models for enhanced data generation and perception,Deflating dataset bias using synthetic data augmentation,,,
172,2134,Nithin Raghavan,Graduate Student,36.9994763,-122.06478260040747,United States,Sim2real for self-supervised monocular depth and segmentation,Deflating dataset bias using synthetic data augmentation,Santa Cruz County,Santa Cruz,California
173,2082,Haiyang Yu,Genentech,38.3901767,-121.9482113482652,United States,KoMA: Knowledge-driven Multi-agent Framework for Autonomous Driving with Large Language Models,Deflating dataset bias using synthetic data augmentation,Solano County,Vacaville,California
174,2048,Linfeng Zhang,Shanghai Jiao Tong University,31.200891149999997,121.4283949471511,China,Revisiting Data Augmentation in Model Compression: An Empirical and Comprehensive Study,Deflating dataset bias using synthetic data augmentation,,Xuhui District,Shanghai
175,2039,Huili Chen,Amazon,-3.1883219,-59.5174371,Brazil,Smarter Contracts: Detecting Vulnerabilities in Smart Contracts with Deep Transfer Learning.,Deflating dataset bias using synthetic data augmentation,,,Amazonas
176,1988,David James Woodward,Postgraduate Institute of Medical Education,30.7643681,76.7762778,India,Automatic Image Conversion,Neural network image processing,,Chandigarh,
177,1988,David James Woodward,Research (PGIMER),30.7643681,76.7762778,India,Automatic Image Conversion,Neural network image processing,,Chandigarh,
178,1946,Derek Rayside,University of Waterloo,43.4701994,-80.54524293779451,Canada,Sim-to-real domain adaptation for lane detection and classification in autonomous driving,Deflating dataset bias using synthetic data augmentation,Region of Waterloo,Wilmot,Ontario
179,1932,Meixin Zhu,The Hong Kong University of Science,22.3358031,114.2659087549023,China,Mitigating Bias of Deep Neural Networks for Trustworthy Traffic Perception in Autonomous Systems,Deflating dataset bias using synthetic data augmentation,,Sai Kung District,Hong Kong
180,1932,Meixin Zhu,Technology (Guangzhou),22.89161275,113.47901891759449,China,Mitigating Bias of Deep Neural Networks for Trustworthy Traffic Perception in Autonomous Systems,Deflating dataset bias using synthetic data augmentation,,Nansha District,Guangdong Province
181,1907,Randall Balestriero,AI Researcher,,,,The effects of regularization and data augmentation are class dependent,Deflating dataset bias using synthetic data augmentation,,,
182,1905,Koji Yoshida,Kindai University,34.6517298,135.59131536120069,Japan,Synthetic environments for vision-based structural condition assessment of Japanese high-speed railway viaducts,Deflating dataset bias using synthetic data augmentation,,Higashiōsaka,
183,1856,Sangwoo Mo,University of Michigan,42.2942142,-83.71003893509601,United States,Discovering and Mitigating Visual Biases through Keyword Explanation,deepPIC: Deep perceptual image clustering for identifying bias in vision datasets,Washtenaw County,Ann Arbor,Michigan
184,1852,Fei Gao,Xidian University,34.1251589,108.82896528504287,China,Generating Handwritten Mathematical Expressions From Symbol Graphs: An End-to-End Pipeline,Deflating dataset bias using synthetic data augmentation,,Chang'an District,Shaanxi
185,1829,Fan Tang,UCAS,40.409010800000004,116.67063286305327,China,Bias oriented unbiased data augmentation for cross-bias representation learning,SIMBAR: Single Image-Based Scene Relighting For Effective Data Augmentation For Automated Driving Vision Tasks,,Huairou District,Beijing
186,1829,Fan Tang,UCAS,40.409010800000004,116.67063286305327,China,Bias oriented unbiased data augmentation for cross-bias representation learning,Deflating dataset bias using synthetic data augmentation,,Huairou District,Beijing
187,1819,Aayush Prakash,Facebook,-1.2772989,36.76095918258451,Kenya,Training object detection systems with generated images,Neural network image processing,,Nairobi,Nairobi County
188,1796,Sina Shahbazmohamadi,University of Connecticut,41.82175755,-72.24277535505323,United States,Synthetic data augmentation to enhance manual and automated defect detection in microelectronics,Deflating dataset bias using synthetic data augmentation,Capitol Planning Region,,
189,1787,Florian Röhrbein,TUC,22.2892449,113.9413739,China,Multi-agent reinforcement learning for autonomous driving: A survey,SIMBAR: Single Image-Based Scene Relighting For Effective Data Augmentation For Automated Driving Vision Tasks,,Islands District,Hong Kong
190,1717,Jaeho Lee,Google,33.977092,-118.4092133,United States,Discovering and Mitigating Visual Biases through Keyword Explanation,deepPIC: Deep perceptual image clustering for identifying bias in vision datasets,Los Angeles County,Los Angeles,California
191,1717,Jaeho Lee,POSTECH,25.2604041,55.2936515,United Arab Emirates,Discovering and Mitigating Visual Biases through Keyword Explanation,deepPIC: Deep perceptual image clustering for identifying bias in vision datasets,,Dubai,Dubai
192,1669,Hong Lu,Fudan University,31.30116485,121.49808756382322,China,Leveraging Smooth Deformation Augmentation for LiDAR Point Cloud Semantic Segmentation,SIMBAR: Single Image-Based Scene Relighting For Effective Data Augmentation For Automated Driving Vision Tasks,,Yangpu District,Shanghai
193,1662,Yali Du,King's College London,51.503403199999994,-0.08946614662781002,United Kingdom,Multi-agent reinforcement learning for autonomous driving: A survey,SIMBAR: Single Image-Based Scene Relighting For Effective Data Augmentation For Automated Driving Vision Tasks,,London,England
194,1654,Marco L Della Vedova,Chalmers University of Technology,57.6897462,11.97652589525446,Sweden,A methodology for controlling bias and fairness in synthetic data generation,Deflating dataset bias using synthetic data augmentation,Västra Götaland County,Gothenburg,
195,1647,Zheng Qu,North Carolina State University,35.7708033,-78.6747332,United States,Offline Tracking System for Autonomous Vehicle Control Systems,Neural network image processing,Wake County,Raleigh,North Carolina
196,1624,Aaron Kline,Stanford University,37.431313849999995,-122.16936535498309,United States,Challenges and opportunities for machine learning classification of behavior and mental state from images,Deflating dataset bias using synthetic data augmentation,Santa Clara County,,California
197,1617,Faizan Khan,Unknown affiliation,,,,Genethos: A synthetic data generation system with bias detection and mitigation,Deflating dataset bias using synthetic data augmentation,,,
198,1547,Joel Janai,Robert Bosch GmbH,48.785353799999996,9.062092480336004,Germany,Method and device for recognizing a parking space for a vehicle using machine learning methods,Enhanced vehicle operation,Landkreis Ludwigsburg,,Baden-Württemberg
199,1544,Eric Frankel,Unknown affiliation,,,,Neural network for object detection and tracking,Deflating dataset bias using synthetic data augmentation,,,
200,1541,Tianyun Zhang,Cleveland State University,41.50258335,-81.67508708526213,United States,Deep transfer learning for intelligent vehicle perception: A survey,SIMBAR: Single Image-Based Scene Relighting For Effective Data Augmentation For Automated Driving Vision Tasks,Cuyahoga County,Cleveland,Ohio
201,1539,Varsha Asrani,University of Auckland,-36.8660955,174.77373309361866,New Zealand,Data and model bias in artificial intelligence for healthcare applications in New Zealand,Deflating dataset bias using synthetic data augmentation,,Auckland,Auckland
202,1539,Varsha Asrani,Auckland City Hospital,-36.85946825,174.76993745260185,New Zealand,Data and model bias in artificial intelligence for healthcare applications in New Zealand,Deflating dataset bias using synthetic data augmentation,,Auckland,Auckland
203,1533,Lei Cao,Mount Sinai,28.5388088,33.9751845,Egypt,"Active data collection,sampling,and generation for use in training machine learning models for automotive or other applications",Neural network image processing,,Saint Catherine,South Sinai
204,1488,Rayson Laroca,Pontifical Catholic University of Paraná (PUCPR),,,,A first look at dataset bias in license plate recognition,deepPIC: Deep perceptual image clustering for identifying bias in vision datasets,,,
205,1482,Plinio Moreno,Univ Lisboa,38.7525379,-9.156845594636383,Portugal,Data Augmentation Based on Virtual Wrist Devices for Fall Detection,Deflating dataset bias using synthetic data augmentation,Lisbon,Lisbon,
206,1442,Abolfazl Asudeh,University of Illinois Chicago,41.872236,-87.68197091508743,United States,Representation bias in data: A survey on identification and resolution techniques,Deflating dataset bias using synthetic data augmentation,Cook County,Chicago,Illinois
207,1442,Abolfazl Asudeh,University of Illinois Chicago,41.872236,-87.68197091508743,United States,A survey on techniques for identifying and resolving representation bias in data,Deflating dataset bias using synthetic data augmentation,Cook County,Chicago,Illinois
208,1404,Jing Lu,Hong Kong Polytechnic University,22.302644,114.1776025,China,Offline Tracking System for Autonomous Vehicle Control Systems,Neural network image processing,,Kowloon,Hong Kong
209,1367,Julien Phillip,Netflix Eyeline Studios,,,,A Diffusion Approach to Radiance Field Relighting using Multi-Illumination Synthesis,SIMBAR: Single Image-Based Scene Relighting For Effective Data Augmentation For Automated Driving Vision Tasks,,,
210,1346,Hamid Mcheick,Chicoutimi,48.3370248,-71.12352613559267,Canada,"A Systematic Literature Review on AI Safety: Identifying Trends,Challenges and Future Directions",deepPIC: Deep perceptual image clustering for identifying bias in vision datasets,,Saguenay,Quebec
211,1344,Bharat Lohani,,,,,Role of Simulated Lidar Data for Training 3D Deep Learning Models: An Exhaustive Analysis,Deflating dataset bias using synthetic data augmentation,,,
212,1303,Avani Wildani,Cloudflare,37.7813933,-122.3918002,United States,Transfer Learning via Latent Dependency Factor for Estimating PM 2.5,Deflating dataset bias using synthetic data augmentation,,San Francisco,California
213,1303,Avani Wildani,Cloudflare,37.7813933,-122.3918002,United States,Spatial Transfer Learning for Estimating PM 2.5 in Data-Poor Regions,Deflating dataset bias using synthetic data augmentation,,San Francisco,California
214,1262,Eric Jenn,IRT Saint-Exupery - Toulouse - France,43.5627213,1.4890239,France,A testing approach for dependable Machine Learning systems,Deflating dataset bias using synthetic data augmentation,Haute-Garonne,Toulouse,Occitania
215,1236,Jae Seung Lee,Graduate School of Environmental Studies,38.25526035,140.8334515062668,Japan,StarGAN Model to Translate Interior Style Trained with Virtual Images,Deflating dataset bias using synthetic data augmentation,,Sendai,
216,1214,Mattias Dahl,Professor,59.8902797,11.857567,Norway,Effects of Foreground Augmentations in Synthetic Training Data on the Use of UAVs for Weed Detection,Deflating dataset bias using synthetic data augmentation,Innlandet,,
217,1178,Arijit Ray,India,22.3511148,78.6677428,India,Lasagna: Layered Score Distillation for Disentangled Object Relighting,SIMBAR: Single Image-Based Scene Relighting For Effective Data Augmentation For Automated Driving Vision Tasks,Tamia Tahsil,,Madhya Pradesh
218,1176,Matthew Gadd,University of Oxford,51.75870755,-1.2556684826092037,United Kingdom,Visual dna: Representing and comparing images using distributions of neuron activations,deepPIC: Deep perceptual image clustering for identifying bias in vision datasets,Oxfordshire,Oxford,England
219,1151,Minye Wu,KU Leuven Belgium,50.80571285,3.2915374489139757,Belgium,Unveiling the Ambiguity in Neural Inverse Rendering: A Parameter Compensation Analysis,SIMBAR: Single Image-Based Scene Relighting For Effective Data Augmentation For Automated Driving Vision Tasks,Kortrijk,Kortrijk,West Flanders
220,1146,Mustafa A Elattar,Center for Informatics Science,,,,A novel data augmentation approach for ego-lane detection enhancement,Deflating dataset bias using synthetic data augmentation,,,
221,1141,Qinghai Miao,University of Chinese Academy of Sciences Beijing,39.907697049999996,116.24405770367915,China,Parallel learning: Overview and perspective for computational learning across Syn2Real and Sim2Real,SIMBAR: Single Image-Based Scene Relighting For Effective Data Augmentation For Automated Driving Vision Tasks,,Shijingshan District,Beijing
222,1130,Daniele De Martini,Oxford Robotics Institute,,,,Visual dna: Representing and comparing images using distributions of neuron activations,deepPIC: Deep perceptual image clustering for identifying bias in vision datasets,,,
223,1105,Lorenzo Putzu,University of Cagliari,,,,Synthetic Data for Video Surveillance Applications of Computer Vision: A Review,Deflating dataset bias using synthetic data augmentation,,,
224,1089,Siva Karthik Mustikovela,University of Heidelberg,49.419968499999996,8.683898433423984,Germany,Training object detection systems with generated images,Neural network image processing,,Heidelberg,Baden-Württemberg
225,1073,Sai Vemprala,Scaled Foundations Kirkland,,,,CityLifeSim: A High-Fidelity Pedestrian and Vehicle Simulation with Complex Behaviors,Deflating dataset bias using synthetic data augmentation,,,
226,1065,Jianzhao Bi,University of Washington,47.65566375,-122.30270741043226,United States,Transfer Learning via Latent Dependency Factor for Estimating PM 2.5,Deflating dataset bias using synthetic data augmentation,King County,Seattle,Washington
227,1065,Jianzhao Bi,University of Washington,47.65566375,-122.30270741043226,United States,Spatial Transfer Learning for Estimating PM 2.5 in Data-Poor Regions,Deflating dataset bias using synthetic data augmentation,King County,Seattle,Washington
228,997,Pinlong Cai,Shanghai Artificial Intelligence Laboratory,,,,KoMA: Knowledge-driven Multi-agent Framework for Autonomous Driving with Large Language Models,Deflating dataset bias using synthetic data augmentation,,,
229,994,Martin Ruskowski,RPTU Kaiserslautern,49.4430629,7.963016046260735,Germany,Addressing Heterogeneity in Federated Learning: Challenges and Solutions for a Shared Production Environment,Deflating dataset bias using synthetic data augmentation,Landkreis Kaiserslautern,,Rhineland-Palatinate
230,940,Aoyong Li,Beihang University,39.9809427,116.34097867654876,China,KoMA: Knowledge-driven Multi-agent Framework for Autonomous Driving with Large Language Models,Deflating dataset bias using synthetic data augmentation,,Haidian District,Beijing
231,924,Suyash Gupta,University of Oregon,44.04441965,-123.07176029673084,United States,Transfer Learning via Latent Dependency Factor for Estimating PM 2.5,Deflating dataset bias using synthetic data augmentation,Lane County,Eugene,Oregon
232,924,Suyash Gupta,University of Oregon,44.04441965,-123.07176029673084,United States,Spatial Transfer Learning for Estimating PM 2.5 in Data-Poor Regions,Deflating dataset bias using synthetic data augmentation,Lane County,Eugene,Oregon
233,922,Jingkang Wang,University of Toronto,43.663461999999996,-79.39775966248058,Canada,Neural lighting simulation for urban scenes,SIMBAR: Single Image-Based Scene Relighting For Effective Data Augmentation For Automated Driving Vision Tasks,,Old Toronto,Ontario
234,890,Xihong Yang,National University of Defense Technology,28.229020900000002,112.99483204403164,China,Patch-Mixing Contrastive Regularization for Few-Label Semi-Supervised Learning,Deflating dataset bias using synthetic data augmentation,,Kaifu,Hunan
235,889,Jinlong Li,CS Ph.D. Computer Vision.  Deep Learning.,,,,Deep transfer learning for intelligent vehicle perception: A survey,SIMBAR: Single Image-Based Scene Relighting For Effective Data Augmentation For Automated Driving Vision Tasks,,,
236,814,Fehmi Jaafar,Quebec University,48.45166565,-68.51130885405888,Canada,"A Systematic Literature Review on AI Safety: Identifying Trends,Challenges and Future Directions",deepPIC: Deep perceptual image clustering for identifying bias in vision datasets,Rimouski-Neigette,Rimouski,Quebec
237,806,Hao Frank Yang,CaSE,45.6686555,11.3914912,Italy,Mitigating Bias of Deep Neural Networks for Trustworthy Traffic Perception in Autonomous Systems,Deflating dataset bias using synthetic data augmentation,Vicenza,,Veneto
238,795,Yilong Ren,Beihang University,39.9809427,116.34097867654876,China,KoMA: Knowledge-driven Multi-agent Framework for Autonomous Driving with Large Language Models,Deflating dataset bias using synthetic data augmentation,,Haidian District,Beijing
239,789,Cheng Yao Wang,JP Morgan Chase,50.74345995,-1.8317349199762756,United Kingdom,CityLifeSim: A High-Fidelity Pedestrian and Vehicle Simulation with Complex Behaviors,Deflating dataset bias using synthetic data augmentation,"Bournemouth, Christchurch and Poole",,England
240,766,Shangding Gu,Technical University of Munich,48.2655696,11.669345610437997,Germany,Multi-agent reinforcement learning for autonomous driving: A survey,SIMBAR: Single Image-Based Scene Relighting For Effective Data Augmentation For Automated Driving Vision Tasks,Landkreis München,,Bavaria
241,755,Gaurav Maheshwari,INRIA Lille- Nord Europe,,,,Efficacy of Synthetic Data as a Benchmark,Deflating dataset bias using synthetic data augmentation,,,
242,749,Daniele Tessera,Univesita' Cattolica del Sacro Cuore,,,,A methodology for controlling bias and fairness in synthetic data generation,Deflating dataset bias using synthetic data augmentation,,,
243,748,Hans-Martin Heyn,Chalmers University of Technology,57.6897462,11.97652589525446,Sweden,An investigation of challenges encountered when specifying training data and runtime monitors for safety critical ML applications,Deflating dataset bias using synthetic data augmentation,Västra Götaland County,Gothenburg,
244,743,Panpan Cai,Shanghai Jiao Tong University,31.200891149999997,121.4283949471511,China,Multi-agent reinforcement learning for autonomous driving: A survey,SIMBAR: Single Image-Based Scene Relighting For Effective Data Augmentation For Automated Driving Vision Tasks,,Xuhui District,Shanghai
245,732,Enrico Barbierato,Università del Sacro Cuore,45.537861449999994,10.224281265977462,Italy,A methodology for controlling bias and fairness in synthetic data generation,Deflating dataset bias using synthetic data augmentation,Brescia,Brescia,Lombardy
246,732,M Saeed Darweesh,Nile University,30.00916145,30.98593655626926,Egypt,A novel data augmentation approach for ego-lane detection enhancement,Deflating dataset bias using synthetic data augmentation,,6th of October,Giza
247,721,Kelley Paskov,Stanford University,37.431313849999995,-122.16936535498309,United States,Challenges and opportunities for machine learning classification of behavior and mental state from images,Deflating dataset bias using synthetic data augmentation,Santa Clara County,,California
248,712,Brianna Chrisman,Stanford University,37.431313849999995,-122.16936535498309,United States,Challenges and opportunities for machine learning classification of behavior and mental state from images,Deflating dataset bias using synthetic data augmentation,Santa Clara County,,California
249,702,Jiarui Cai,Amazon Web Services,45.85200895,-119.6301350998076,United States,Mitigating Bias of Deep Neural Networks for Trustworthy Traffic Perception in Autonomous Systems,Deflating dataset bias using synthetic data augmentation,Morrow County,,Oregon
250,696,Daniele Toti,Catholic University of the Sacred Heart,,,,A methodology for controlling bias and fairness in synthetic data generation,Deflating dataset bias using synthetic data augmentation,,,
251,683,Yunhe Feng,University of North Texas,33.2098926,-97.15147624977251,United States,Addressing weak decision boundaries in image classification by leveraging web search and generative models,Deflating dataset bias using synthetic data augmentation,Denton County,Denton,Texas
252,645,Kevin El Haddad,Unknown affiliation,,,,Efficacy of Synthetic Data as a Benchmark,Deflating dataset bias using synthetic data augmentation,,,
253,622,Devika Verma,CUNY,45.5546608,5.4065255,France,Genethos: A synthetic data generation system with bias detection and mitigation,Deflating dataset bias using synthetic data augmentation,Isère,,Auvergne-Rhône-Alpes
254,618,Michelle M Li,Harvard Medical School,42.336831849999996,-71.10380921118058,United States,Few shot learning for phenotype-driven diagnosis of patients with rare genetic diseases,Deflating dataset bias using synthetic data augmentation,Suffolk County,Boston,Massachusetts
255,602,Yu Yin,Case Western Reserve University,41.50138695,-81.60070216600491,United States,Synthetic Data Generator: Understanding Human Face \& Body via Image Synthesis,Deflating dataset bias using synthetic data augmentation,Cuyahoga County,Cleveland,Ohio
256,601,Iren-Adelina Moldovan,National Institute for Earth Physics,,,,Prospective neural network model for seismic precursory signal detection in geomagnetic field records,Deflating dataset bias using synthetic data augmentation,,,
257,600,Anthony Paproki,Research Fellow,,,,Synthetic Data for Deep Learning in Computer Vision \& Medical Imaging: A Means to Reduce Data Bias,Deflating dataset bias using synthetic data augmentation,,,
258,598,Armin Parchami,Snorkel AI,,,,DatasetEquity: Are All Samples Created Equal? In The Quest For Equity Within Datasets,SIMBAR: Single Image-Based Scene Relighting For Effective Data Augmentation For Automated Driving Vision Tasks,,,
259,563,Kamil Rocki,Neuralink,37.762467,-122.4148018,United States,Simulation intelligence: Towards a new generation of scientific methods,Deflating dataset bias using synthetic data augmentation,,San Francisco,California
260,551,Vidya N Murali,Palo Alto,37.4443293,-122.1598465,United States,deepPIC: Deep perceptual image clustering for identifying bias in vision datasets,Deflating dataset bias using synthetic data augmentation,Santa Clara County,Palo Alto,California
261,530,Yingjie Cai,The Chinese University of Hong Kong,22.4201838,114.20791453524086,China,Detdiffusion: Synergizing generative and perceptive models for enhanced data generation and perception,Deflating dataset bias using synthetic data augmentation,,Sha Tin District,Hong Kong
262,517,Benjamin Ramtoula,University of Oxford,51.75870755,-1.2556684826092037,United Kingdom,Visual dna: Representing and comparing images using distributions of neuron activations,deepPIC: Deep perceptual image clustering for identifying bias in vision datasets,Oxfordshire,Oxford,England
263,513,Florian Walter,Machine Intelligence Lab,,,,Multi-agent reinforcement learning for autonomous driving: A survey,SIMBAR: Single Image-Based Scene Relighting For Effective Data Augmentation For Automated Driving Vision Tasks,,,
264,507,Mohammad Al-Sharman,University of Waterloo,43.4701994,-80.54524293779451,Canada,Sim-to-real domain adaptation for lane detection and classification in autonomous driving,Deflating dataset bias using synthetic data augmentation,Region of Waterloo,Wilmot,Ontario
265,507,Kai Chen,Hong Kong University of Science,22.3358031,114.2659087549023,China,Detdiffusion: Synergizing generative and perceptive models for enhanced data generation and perception,Deflating dataset bias using synthetic data augmentation,,Sai Kung District,Hong Kong
266,507,Kai Chen,Technology,-0.2912908,36.0353719,Kenya,Detdiffusion: Synergizing generative and perceptive models for enhanced data generation and perception,Deflating dataset bias using synthetic data augmentation,Nakuru West,Kapkures ward,Nakuru
267,500,Seungho Jeon,순천대학교 농생명과학과 교수,,,,StarGAN Model to Translate Interior Style Trained with Virtual Images,Deflating dataset bias using synthetic data augmentation,,,
268,499,Te Taka Keegan,Waikato University,-37.7858739,175.31676647297562,New Zealand,Data and model bias in artificial intelligence for healthcare applications in New Zealand,Deflating dataset bias using synthetic data augmentation,,Hamilton,Waikato
269,498,Licheng Wen,Shanghai AI Laboratory,,,,KoMA: Knowledge-driven Multi-agent Framework for Autonomous Driving with Large Language Models,Deflating dataset bias using synthetic data augmentation,,,
270,496,Xiaoxi Chen,University of Illinois Urbana-Champaign,40.076154450000004,-88.22331340640494,United States,Towards generalizable tumor synthesis,Deflating dataset bias using synthetic data augmentation,Champaign County,Urbana,Illinois
271,480,Lihui Jiang,Ltd.,57.2857521,-2.5696635,United Kingdom,Detdiffusion: Synergizing generative and perceptive models for enhanced data generation and perception,Deflating dataset bias using synthetic data augmentation,Aberdeenshire,,Scotland
272,480,Baptiste Lefevre,Ecole normale supérieure,48.841707150000005,2.3447923126871286,France,A testing approach for dependable Machine Learning systems,Deflating dataset bias using synthetic data augmentation,,Paris,Ile-de-France
273,469,Shoumeng Qiu,Fudan,23.5381,109.513,China,Leveraging Smooth Deformation Augmentation for LiDAR Point Cloud Semantic Segmentation,SIMBAR: Single Image-Based Scene Relighting For Effective Data Augmentation For Automated Driving Vision Tasks,,Wuxuan County,Guangxi
274,467,Ayush Noori,Harvard University,42.365743249999994,-71.12221394207614,United States,Few shot learning for phenotype-driven diagnosis of patients with rare genetic diseases,Deflating dataset bias using synthetic data augmentation,Suffolk County,Boston,Massachusetts
275,426,Daocheng Fu,Shanghai  Artificial Intelligence Laboratory,,,,KoMA: Knowledge-driven Multi-agent Framework for Autonomous Driving with Large Language Models,Deflating dataset bias using synthetic data augmentation,,,
276,403,Prakash Padiri Bhanu,Mohali,30.7041168,76.7176885,India,A computer-implemented method for reducing false positives in a computer vision task and application thereof to motor vehicle exterior monitoring,Neural network image processing,,,Punjab
277,401,Maoying Qiao,UTS,2.34124435,111.84479892154536,Malaysia,Generating Handwritten Mathematical Expressions From Symbol Graphs: An End-to-End Pipeline,Deflating dataset bias using synthetic data augmentation,Sibu,Sibu,Sarawak
278,381,Ximing Qiao,Duke University,36.00015569999999,-78.94422972195878,United States,Toward Trustworthy Machine Learning with Blackbox and Whitebox Methods,Deflating dataset bias using synthetic data augmentation,Durham County,Durham,North Carolina
279,352,Stanton R Price,U.S. Army ERDC,,,,"Expanding Ground Vehicle Autonomy into Unstructured,Off-Road Environments: Dataset Challenges",Deflating dataset bias using synthetic data augmentation,,,
280,334,Ou Wu,Chinese Academy of Sciences Beijing,39.90933665,116.32971461228999,China,Data Optimization in Deep Learning: A Survey,DatasetEquity: Are All Samples Created Equal? In The Quest For Equity Within Datasets,,Beijing,Beijing
281,333,Sungtae An,Amazon,-3.1883219,-59.5174371,Brazil,Synthetic seismocardiogram generation using a transformer-based neural network,Deflating dataset bias using synthetic data augmentation,,,Amazonas
282,332,Kilsoo Kim,Georgia Institute of Technology,32.3293809,-83.1137366,United States,"Active data collection,sampling,and generation for use in training machine learning models for automotive or other applications",Neural network image processing,Dodge County,Georgia
283,317,In{\^e}s Carvalho,Disease_Zurich University,,,,Data Augmentation Based on Virtual Wrist Devices for Fall Detection,Deflating dataset bias using synthetic data augmentation,,,
284,309,Laura Petrescu,National Institute for Earth Physics,,,,Prospective neural network model for seismic precursory signal detection in geomagnetic field records,Deflating dataset bias using synthetic data augmentation,,,
285,297,Md Faisal Kabir,UIU,42.83958545,-91.79330429016619,United States,An Edge Internet of Things Framework for Machine Learning-Based Skin Cancer Detection Models,Deflating dataset bias using synthetic data augmentation,Fayette County,,Iowa
286,290,Ruiyuan Gao,CUHK University,22.4201838,114.20791453524086,China,Detdiffusion: Synergizing generative and perceptive models for enhanced data generation and perception,Deflating dataset bias using synthetic data augmentation,,Sha Tin District,Hong Kong
287,267,Nikita Jaipuria,Ford Motor Company,-38.10269175,144.3579853884846,Australia,LANe: Lighting-aware neural fields for compositional scene synthesis,SIMBAR: Single Image-Based Scene Relighting For Effective Data Augmentation For Automated Driving Vision Tasks,,Geelong,Victoria
288,267,Nikita Jaipuria,Ford Motor Company,-38.10269175,144.3579853884846,Australia,Simbar: Single image-based scene relighting for effective data augmentation for automated driving vision tasks,Deflating dataset bias using synthetic data augmentation,,Geelong,Victoria
289,267,Nikita Jaipuria,Ford Motor Company,-38.10269175,144.3579853884846,Australia,deepPIC: Deep perceptual image clustering for identifying bias in vision datasets,Deflating dataset bias using synthetic data augmentation,,Geelong,Victoria
290,267,Nikita Jaipuria,Ford Motor Company,-38.10269175,144.3579853884846,Australia,Neural network for object detection and tracking,Deflating dataset bias using synthetic data augmentation,,Geelong,Victoria
291,264,Suhrid A Wadekar,Unknown affiliation,,,,A Push-Pull Train for Safety of Autonomous Vehicle Software,Deflating dataset bias using synthetic data augmentation,,,
292,263,Shilpa N Kobren,Harvard Medical School,42.336831849999996,-71.10380921118058,United States,Few shot learning for phenotype-driven diagnosis of patients with rare genetic diseases,Deflating dataset bias using synthetic data augmentation,Suffolk County,Boston,Massachusetts
293,262,Nerea Aranjuelo,Vicomtech,43.2922539,-1.9856342,Spain,Methodology for generating synthetic labeled datasets for visual container inspection,Deflating dataset bias using synthetic data augmentation,,San Sebastián,Autonomous Community of the Basque Country
294,256,Asim H Gazi,Harvard University,42.365743249999994,-71.12221394207614,United States,Synthetic seismocardiogram generation using a transformer-based neural network,Deflating dataset bias using synthetic data augmentation,Suffolk County,Boston,Massachusetts
295,252,Jin Ma,Clemson University,34.66869155,-82.83743475607795,United States,Deep transfer learning for intelligent vehicle perception: A survey,SIMBAR: Single Image-Based Scene Relighting For Effective Data Augmentation For Automated Driving Vision Tasks,Pickens County,,South Carolina
296,240,Jing Hou,Tongji University,31.27369175,121.38566174235456,China,Multi-agent reinforcement learning for autonomous driving: A survey,SIMBAR: Single Image-Based Scene Relighting For Effective Data Augmentation For Automated Driving Vision Tasks,,Putuo District,Shanghai
297,235,Jonathan Zia,Stanford University,37.431313849999995,-122.16936535498309,United States,Synthetic seismocardiogram generation using a transformer-based neural network,Deflating dataset bias using synthetic data augmentation,Santa Clara County,,California
298,231,Sharon Leitch,University of Otago,-45.8649793,170.51461487350844,New Zealand,Data and model bias in artificial intelligence for healthcare applications in New Zealand,Deflating dataset bias using synthetic data augmentation,Dunedin City,Dunedin,Otago
299,231,Gabriel Villalonga,PhD Researcher,,,,Co-training for on-board deep object detection,Deflating dataset bias using synthetic data augmentation,,,
300,230,Ziyi Yang,Shanghai Jiao Tong University,31.200891149999997,121.4283949471511,China,A General Implicit Framework for Fast NeRF Composition and Rendering,LANe: Lighting-Aware Neural Fields for Compositional Scene Synthesis,,Xuhui District,Shanghai
301,226,Nima Shahbazi,York University,43.7741232,-79.4996291,Canada,Representation bias in data: A survey on identification and resolution techniques,Deflating dataset bias using synthetic data augmentation,,Toronto,Ontario
302,226,Nima Shahbazi,York University,43.7741232,-79.4996291,Canada,A survey on techniques for identifying and resolving representation bias in data,Deflating dataset bias using synthetic data augmentation,,Toronto,Ontario
303,213,Anubhav Jain,Vestas,45.525394649999996,-122.68577833944983,United States,A dataless faceswap detection approach using synthetic images,Deflating dataset bias using synthetic data augmentation,Multnomah County,Portland,Oregon
304,208,Mingxuan Dou,Unknown affiliation,,,,Semi-Supervised Domain Adaptation With Dual-Adversarial Learning for Lane Detection,Deflating dataset bias using synthetic data augmentation,,,
305,207,Camille Chapdelaine,SAFRAN SA,45.6934014,1.1759178071861203,France,A testing approach for dependable Machine Learning systems,Deflating dataset bias using synthetic data augmentation,Haute-Vienne,,Nouvelle-Aquitaine
306,204,Dina Bashkirova,Boston University,42.350421499999996,-71.10322831831216,United States,Lasagna: Layered Score Distillation for Disentangled Object Relighting,SIMBAR: Single Image-Based Scene Relighting For Effective Data Augmentation For Automated Driving Vision Tasks,Suffolk County,Boston,Massachusetts
307,200,Lei Li,Chinese Academy of Sciences Beijing,39.90933665,116.32971461228999,China,Bias oriented unbiased data augmentation for cross-bias representation learning,SIMBAR: Single Image-Based Scene Relighting For Effective Data Augmentation For Automated Driving Vision Tasks,,Beijing,Beijing
308,200,Lei Li,Chinese Academy of Sciences Beijing,39.90933665,116.32971461228999,China,Bias oriented unbiased data augmentation for cross-bias representation learning,Deflating dataset bias using synthetic data augmentation,,Beijing,Beijing
309,186,Jie Chen,Fudan University,31.30116485,121.49808756382322,China,Leveraging Smooth Deformation Augmentation for LiDAR Point Cloud Semantic Segmentation,SIMBAR: Single Image-Based Scene Relighting For Effective Data Augmentation For Automated Driving Vision Tasks,,Yangpu District,Shanghai
310,183,Pouya Tavousi,University of Connecticut,41.82175755,-72.24277535505323,United States,Synthetic data augmentation to enhance manual and automated defect detection in microelectronics,Deflating dataset bias using synthetic data augmentation,Capitol Planning Region,,
311,171,Shubham Shrivastava,Kodiak Robotics,37.408227,-122.0739761,United States,DatasetEquity: Are All Samples Created Equal? In The Quest For Equity Within Datasets,SIMBAR: Single Image-Based Scene Relighting For Effective Data Augmentation For Automated Driving Vision Tasks,Santa Clara County,Mountain View,California
312,171,Shubham Shrivastava,Kodiak Robotics,37.408227,-122.0739761,United States,DatasetEquity: Are All Samples Created Equal? In The Quest For Equity Within Datasets,Deflating dataset bias using synthetic data augmentation,Santa Clara County,Mountain View,California
313,171,Shubham Shrivastava,Kodiak Robotics,37.408227,-122.0739761,United States,Sim2real for self-supervised monocular depth and segmentation,Deflating dataset bias using synthetic data augmentation,Santa Clara County,Mountain View,California
314,171,Shubham Shrivastava,Kodiak Robotics,37.408227,-122.0739761,United States,DatasetEquity: Are All Samples Created Equal? In The Quest For Equity Within Datasets,deepPIC: Deep perceptual image clustering for identifying bias in vision datasets,Santa Clara County,Mountain View,California
315,170,Vithya Yogarajan,University of Auckland,-36.8660955,174.77373309361866,New Zealand,Data and model bias in artificial intelligence for healthcare applications in New Zealand,Deflating dataset bias using synthetic data augmentation,,Auckland,Auckland
316,162,Darine Ameyed,École de technologie supérieure Montréal,45.49451545,-73.5628554929944,Canada,"A Systematic Literature Review on AI Safety: Identifying Trends,Challenges and Future Directions",deepPIC: Deep perceptual image clustering for identifying bias in vision datasets,Urban agglomeration of Montreal,Montreal,Quebec
317,160,Ava Pun,Carnegie Mellon University Pittsburgh,40.444189699999995,-79.94271918393466,United States,Neural lighting simulation for urban scenes,SIMBAR: Single Image-Based Scene Relighting For Effective Data Augmentation For Automated Driving Vision Tasks,Allegheny County,Pittsburgh,Pennsylvania
318,159,Valter Estevam,Instituto Federal do Paraná,-23.2754525,-51.1638944,Brazil,A first look at dataset bias in license plate recognition,deepPIC: Deep perceptual image clustering for identifying bias in vision datasets,,Londrina,Paraná
319,155,Edlira Martiri,University of Tirana,41.316619599999996,19.821735398290045,Albania,"Synthetic Data Generation: Methods,Applications,and Multidisciplinary Use Cases",Deflating dataset bias using synthetic data augmentation,Tirana County,Tirana,Central Albania
320,155,William Henry Clark IV,The Hume Center,,,,The Importance of Data in RF Machine Learning,Deflating dataset bias using synthetic data augmentation,,,
321,154,Oron Nir,Reichman University,32.17625285,34.83709109840297,Israel,CityLifeSim: A High-Fidelity Pedestrian and Vehicle Simulation with Complex Behaviors,Deflating dataset bias using synthetic data augmentation,,,Tel-Aviv District
322,149,Yin Lin,University of Michigan,42.2942142,-83.71003893509601,United States,Representation bias in data: A survey on identification and resolution techniques,Deflating dataset bias using synthetic data augmentation,Washtenaw County,Ann Arbor,Michigan
323,149,Yin Lin,University of Michigan,42.2942142,-83.71003893509601,United States,A survey on techniques for identifying and resolving representation bias in data,Deflating dataset bias using synthetic data augmentation,Washtenaw County,Ann Arbor,Michigan
324,148,Jiayi Guan,Tongji University,31.27369175,121.38566174235456,China,Multi-agent reinforcement learning for autonomous driving: A survey,SIMBAR: Single Image-Based Scene Relighting For Effective Data Augmentation For Automated Driving Vision Tasks,,Putuo District,Shanghai
325,141,Christoph Sendner,University of Würzburg,,,,Smarter Contracts: Detecting Vulnerabilities in Smart Contracts with Deep Transfer Learning.,Deflating dataset bias using synthetic data augmentation,,,
326,140,Kenneth Blomqvist,ETH Zürich,47.413218,8.5374914,Switzerland,A Farewell to Supervision: Towards Self-supervised Autonomous Systems,SIMBAR: Single Image-Based Scene Relighting For Effective Data Augmentation For Automated Driving Vision Tasks,District Zurich,Zurich,Zurich
327,139,Sergi Adipraja Widjaja,CMU,40.444189699999995,-79.94271918393466,United States,Machine learning-based framework for drivable surface annotation,Enhanced vehicle operation,Allegheny County,Pittsburgh,Pennsylvania
328,131,Sivabalan Manivasagam,Product Technical Launch Specialist,,,,Neural lighting simulation for urban scenes,SIMBAR: Single Image-Based Scene Relighting For Effective Data Augmentation For Automated Driving Vision Tasks,,,
329,130,Joshua Bensemann,Unknown affiliation,,,,Data and model bias in artificial intelligence for healthcare applications in New Zealand,Deflating dataset bias using synthetic data augmentation,,,
330,112,Apoorv Singh,Carnegie Mellon University Pittsburgh,40.444189699999995,-79.94271918393466,United States,Machine learning-based framework for drivable surface annotation,Enhanced vehicle operation,Allegheny County,Pittsburgh,Pennsylvania
331,110,Yongbee Park,Ingkle,,,,Transfer Learning via Latent Dependency Factor for Estimating PM 2.5,Deflating dataset bias using synthetic data augmentation,,,
332,108,Xinyu Liu,Cleveland State University,41.50258335,-81.67508708526213,United States,Deep transfer learning for intelligent vehicle perception: A survey,SIMBAR: Single Image-Based Scene Relighting For Effective Data Augmentation For Automated Driving Vision Tasks,Cuyahoga County,Cleveland,Ohio
333,108,Mátyás Macudzinski,University Sorbonne Paris Nord & INRIA,,,,Semantically-aware Neural Radiance Fields for Visual Scene Understanding: A Comprehensive Review,LANe: Lighting-Aware Neural Fields for Compositional Scene Synthesis,,,
334,108,Amine Bourki,University Sorbonne Paris Nord & INRIA,,,,Semantically-aware Neural Radiance Fields for Visual Scene Understanding: A Comprehensive Review,LANe: Lighting-Aware Neural Fields for Compositional Scene Synthesis,,,
335,104,Adrian Phoulady,UConn Tech Park,,,,Synthetic data augmentation to enhance manual and automated defect detection in microelectronics,Deflating dataset bias using synthetic data augmentation,,,
336,101,Nick Deveau,Stanford University,37.431313849999995,-122.16936535498309,United States,Challenges and opportunities for machine learning classification of behavior and mental state from images,Deflating dataset bias using synthetic data augmentation,Santa Clara County,,California
337,101,Retaj Yousri,Nile University,30.00916145,30.98593655626926,Egypt,A novel data augmentation approach for ego-lane detection enhancement,Deflating dataset bias using synthetic data augmentation,,6th of October,Giza
338,91,Huiming Sun,Cleveland State University,41.50258335,-81.67508708526213,United States,Deep transfer learning for intelligent vehicle perception: A survey,SIMBAR: Single Image-Based Scene Relighting For Effective Data Augmentation For Automated Driving Vision Tasks,Cuyahoga County,Cleveland,Ohio
339,90,Chuqing Hu,University of Waterloo,43.4701994,-80.54524293779451,Canada,Sim-to-real domain adaptation for lane detection and classification in autonomous driving,Deflating dataset bias using synthetic data augmentation,Region of Waterloo,Wilmot,Ontario
340,90,Marcelo Santos,,,,,A first look at datustering for identifying bias in vision datasets,Federal University of Paraná.,,,
341,90,Rita Delussu,University of Cagliari,,,,Synthetic Data for Video Surveillance Applications of Computer Vision: A Review,Deflating dataset bias using synthetic data augmentation,,,
342,85,Nicholas May,La Trobe University,-37.7170343,145.0441466,Australia,Synthetic data augmentation to enhance manual and automated defect detection in microelectronics,Deflating dataset bias using synthetic data augmentation,,Melbourne,Victoria
343,84,Minkyu Kim,KRAFTON,44.7164371,-93.3067117,United States,Discovering and Mitigating Visual Biases through Keyword Explanation,deepPIC: Deep perceptual image clustering for identifying bias in vision datasets,Dakota County,,Minnesota
344,84,Alex Falcon,University of Udine,,,,Semantics for vision-and-language understanding,Deflating dataset bias using synthetic data augmentation,,,
345,80,Mohammad Nikbakht,Georgia Institute of Technology,33.776094799999996,-84.3988076699857,United States,Synthetic seismocardiogram generation using a transformer-based neural network,Deflating dataset bias using synthetic data augmentation,Fulton County,Atlanta,Georgia
346,74,Aaron P Dant,ASRC Federal,38.9459818,-77.3278042,United States,Self-directed training of person reidentification with synthetic data,Deflating dataset bias using synthetic data augmentation,Fairfax County,Reston,Virginia
347,70,Monik Raj Behera,Indian Institute of Technology Jodhpur,26.472940100000002,73.11433746970826,India,Fedsyn: Synthetic data generation using federated learning,Deflating dataset bias using synthetic data augmentation,Jodhpur Tehsil,,Rajasthan
348,70,Tatjana Legler,RPTU Kaiserslautern-Landau,49.188524799999996,8.11591652121482,Germany,Addressing Heterogeneity in Federated Learning: Challenges and Solutions for a Shared Production Environment,Deflating dataset bias using synthetic data augmentation,,,Rhineland-Palatinate
349,70,Lei Dai,Jiangnan University,31.48512185,120.26733518229403,China,Semi-Supervised Domain Adaptation With Dual-Adversarial Learning for Lane Detection,Deflating dataset bias using synthetic data augmentation,,Binhu District,Jiangsu
350,68,Sinclair Hudson,University of Waterloo,43.4701994,-80.54524293779451,Canada,Sim-to-real domain adaptation for lane detection and classification in autonomous driving,Deflating dataset bias using synthetic data augmentation,Region of Waterloo,Wilmot,Ontario
351,67,Sudhir Upadhyay,J.P. Morgan,51.5117166,-0.105857,United Kingdom,Fedsyn: Synthetic data generation using federated learning,Deflating dataset bias using synthetic data augmentation,,City of London,England
352,63,Qi Chen,University of Chinese Academy of Sciences Beijing,39.907697049999996,116.24405770367915,China,Towards generalizable tumor synthesis,Deflating dataset bias using synthetic data augmentation,,Shijingshan District,Beijing
353,62,Hongbin Choi,University of Connecticut,41.82175755,-72.24277535505323,United States,Synthetic data augmentation to enhance manual and automated defect detection in microelectronics,Deflating dataset bias using synthetic data augmentation,Capitol Planning Region,,
354,61,Keith Man,University of South Autralia,,,,A review of synthetic image data and its use in computer vision,Deflating dataset bias using synthetic data augmentation,,,
355,59,Chenghang Lai,Fudan University,31.30116485,121.49808756382322,China,Leveraging Smooth Deformation Augmentation for LiDAR Point Cloud Semantic Segmentation,SIMBAR: Single Image-Based Scene Relighting For Effective Data Augmentation For Automated Driving Vision Tasks,,Yangpu District,Shanghai
356,59,Rupayan Mallick,Georgetown University.,38.90893925,-77.07457962060826,United States,Lasagna: Layered Score Distillation for Disentangled Object Relighting,SIMBAR: Single Image-Based Scene Relighting For Effective Data Augmentation For Automated Driving Vision Tasks,,Washington,District of Columbia
357,58,Tianjie Chen,New Mexico State University,32.2729032,-106.74349267153694,United States,An Edge Internet of Things Framework for Machine Learning-Based Skin Cancer Detection Models,Deflating dataset bias using synthetic data augmentation,Doña Ana County,Las Cruces,New Mexico
358,56,Georgios Kouros,KU Leuven Belgium,50.80571285,3.2915374489139757,Belgium,Unveiling the Ambiguity in Neural Inverse Rendering: A Parameter Compensation Analysis,SIMBAR: Single Image-Based Scene Relighting For Effective Data Augmentation For Automated Driving Vision Tasks,Kortrijk,Kortrijk,West Flanders
359,55,Martin Ethier,University of Waterloo,43.4701994,-80.54524293779451,Canada,Sim-to-real domain adaptation for lane detection and classification in autonomous driving,Deflating dataset bias using synthetic data augmentation,Region of Waterloo,Wilmot,Ontario
360,55,Muzhou Yu,Unknown affiliation,,,,Revisiting Data Augmentation in Model Compression: An Empirical and Comprehensive Study,Deflating dataset bias using synthetic data augmentation,,,
361,53,Ruiqi Zhang,University of California,37.875499649999995,-122.23906851395179,United States,Multi-agent reinforcement learning for autonomous driving: A survey,SIMBAR: Single Image-Based Scene Relighting For Effective Data Augmentation For Automated Driving Vision Tasks,Alameda County,Berkeley,California
362,49,David J Lin,Georgia Institute of Technology,33.776094799999996,-84.3988076699857,United States,Synthetic seismocardiogram generation using a transformer-based neural network,Deflating dataset bias using synthetic data augmentation,Fulton County,Atlanta,Georgia
363,42,李轩,China University of Petroleum,35.9453575,120.1670032,China,"面向智能驾驶的平行视觉感知: 基本概念,框架与应用",Deflating dataset bias using synthetic data augmentation,,Huangdao District,Shandong
364,41,Yibo Wang,Tsinghua University,40.002290450000004,116.3209629696906,China,Detdiffusion: Synergizing generative and perceptive models for enhanced data generation and perception,Deflating dataset bias using synthetic data augmentation,,Haidian District,Beijing
365,41,Vinit Hegiste,TU Kaiserslautern,49.4246142,7.754214153273509,Germany,Addressing Heterogeneity in Federated Learning: Challenges and Solutions for a Shared Production Environment,Deflating dataset bias using synthetic data augmentation,,Kaiserslautern,Rhineland-Palatinate
366,40,Yara Suleiman,University of Connecticut,41.82175755,-72.24277535505323,United States,Synthetic data augmentation to enhance manual and automated defect detection in microelectronics,Deflating dataset bias using synthetic data augmentation,Capitol Planning Region,,
367,39,Sanchari Dhar,Kansas State University,39.20883,-96.58845116318602,United States,Evaluation of the benchmark datasets for testing the efficacy of deep convolutional neural networks,Deflating dataset bias using synthetic data augmentation,Riley County,Manhattan,Kansas
368,39,Sanchari Dhar,Kansas State University,39.20883,-96.58845116318602,United States,Testing bias in analysis of convolutional neural networks,Deflating dataset bias using synthetic data augmentation,Riley County,Manhattan,Kansas
369,39,Kareem Moussa,Computer Engineering,40.80803455,29.356343258075448,Turkey,A novel data augmentation approach for ego-lane detection enhancement,Deflating dataset bias using synthetic data augmentation,,,
370,39,Shubham Gujar,University of Southern California,34.02186895,-118.285857923125,United States,Genethos: A synthetic data generation system with bias detection and mitigation,Deflating dataset bias using synthetic data augmentation,Los Angeles County,Los Angeles,California
371,38,Wei Liu,Sun Yat-Sen University,23.09960335,113.29235087324346,China,Change Detection Based on Existing Vector Polygons and Up-to-Date Images Using an Attention-Based Multi-Scale ConvTransformer Network,DatasetEquity: Are All Samples Created Equal? In The Quest For Equity Within Datasets,,Haizhu District,Guangdong Province
372,38,Yongkun Liu,Sun Yat-Sen University,23.09960335,113.29235087324346,China,Change Detection Based on Existing Vector Polygons and Up-to-Date Images Using an Attention-Based Multi-Scale ConvTransformer Network,DatasetEquity: Are All Samples Created Equal? In The Quest For Equity Within Datasets,,Haizhu District,Guangdong Province
373,35,Yunlu Zhao,Shinshu University,36.7117308,138.4937932,Japan,A General Implicit Framework for Fast NeRF Composition and Rendering,LANe: Lighting-Aware Neural Fields for Compositional Scene Synthesis,Shimotakai County,,
374,33,Arun Dixit,Mysuru,12.3051828,76.6553609,India,"Preparing for the future: How organizations can prepare boards,leaders,and risk managers for artificial intelligence",Deflating dataset bias using synthetic data augmentation,Mysuru taluk,Mysuru,Karnataka
375,31,Nathan Tseng,Applied Intuition,,,,LANe: Lighting-aware neural fields for compositional scene synthesis,SIMBAR: Single Image-Based Scene Relighting For Effective Data Augmentation For Automated Driving Vision Tasks,,,
376,30,Yohan Poirier-Ginter,Université Côte d'Azur,43.716066999999995,7.264897360869565,France,A Diffusion Approach to Radiance Field Relighting using Multi-Illumination Synthesis,SIMBAR: Single Image-Based Scene Relighting For Effective Data Augmentation For Automated Driving Vision Tasks,Maritime Alps,Nice,Provence-Alpes-Côte d'Azur
377,28,Joseph Renzullo,Arizona State University,33.4213174,-111.93316305413154,United States,Automated Program Repair: Emerging trends pose and expose problems for benchmarks,Deflating dataset bias using synthetic data augmentation,Maricopa County,Tempe,Arizona
378,23,Heitor Cardoso,Technology,-0.2912908,36.0353719,Kenya,Data Augmentation Based on Virtual Wrist Devices for Fall Detection,Deflating dataset bias using synthetic data augmentation,Nakuru West,Kapkures ward,Nakuru
379,23,Heitor Cardoso,Norwegian University of Science,63.44802385,10.453639414751784,Norway,Data Augmentation Based on Virtual Wrist Devices for Fall Detection,Deflating dataset bias using synthetic data augmentation,Trøndelag,Trondheim,
380,23,Parvej Khan,Indian Institute of Technology Kanpur,26.513188,80.23648433095772,India,Role of Simulated Lidar Data for Training 3D Deep Learning Models: An Exhaustive Analysis,Deflating dataset bias using synthetic data augmentation,,Kanpur,Uttar Pradesh
381,22,Sudha Priyadarshini,Unknown affiliation,,,,Fedsyn: Synthetic data generation using federated learning,Deflating dataset bias using synthetic data augmentation,,,
382,19,Preetam Prabhu Srikar Dammu,University of Washington,47.65566375,-122.30270741043226,United States,Detecting spurious correlations via robust visual concepts in real and AI-generated image classification,Deflating dataset bias using synthetic data augmentation,King County,Seattle,Washington
383,19,Preetam Prabhu Srikar Dammu,University of Washington,47.65566375,-122.30270741043226,United States,Addressing weak decision boundaries in image classification by leveraging web search and generative models,Deflating dataset bias using synthetic data augmentation,King County,Seattle,Washington
384,18,Shutong Zhang,Stanford University,37.431313849999995,-122.16936535498309,United States,"Sun Off,Lights On: Photorealistic Monocular Nighttime Simulation for Robust Semantic Perception",SIMBAR: Single Image-Based Scene Relighting For Effective Data Augmentation For Automated Driving Vision Tasks,Santa Clara County,,California
385,18,Kaiqiang Zhou,华为,22.6531258,114.0620241,China,Detdiffusion: Synergizing generative and perceptive models for enhanced data generation and perception,Deflating dataset bias using synthetic data augmentation,,Longgang District,Guangdong Province
386,18,Younghyun Kim,KAIST,36.3697191,127.36253700115094,South Korea,Discovering and Mitigating Visual Biases through Keyword Explanation,deepPIC: Deep perceptual image clustering for identifying bias in vision datasets,,Daejeon,
387,18,Meghana L Gaopande,Ford Motor Company,-38.10269175,144.3579853884846,Australia,deepPIC: Deep perceptual image clustering for identifying bias in vision datasets,Deflating dataset bias using synthetic data augmentation,,Geelong,Victoria
388,17,Shrey Gupta,Emory University,33.80045465,-84.31723780466274,United States,Transfer Learning via Latent Dependency Factor for Estimating PM 2.5,Deflating dataset bias using synthetic data augmentation,DeKalb County,Georgia
389,17,Shrey Gupta,Emory University,33.80045465,-84.31723780466274,United States,Spatial Transfer Learning for Estimating PM 2.5 in Data-Poor Regions,Deflating dataset bias using synthetic data augmentation,DeKalb County,Georgia
390,16,Xuan Cai,Beihang University,39.9809427,116.34097867654876,China,KoMA: Knowledge-driven Multi-agent Framework for Autonomous Driving with Large Language Models,Deflating dataset bias using synthetic data augmentation,,Haidian District,Beijing
391,16,Nicola Vanoli,Unknown affiliation,,,,A methodology for controlling bias and fairness in synthetic data generation,Deflating dataset bias using synthetic data augmentation,,,
392,15,Akshay Krishnan,Georgia Institute of Technology,33.776094799999996,-84.3988076699857,United States,LANe: Lighting-aware neural fields for compositional scene synthesis,SIMBAR: Single Image-Based Scene Relighting For Effective Data Augmentation For Automated Driving Vision Tasks,Fulton County,Atlanta,Georgia
393,13,Alban Gauthier,INRIA Sophia-Antipolis,43.6162999,7.0680469,France,A Diffusion Approach to Radiance Field Relighting using Multi-Illumination Synthesis,SIMBAR: Single Image-Based Scene Relighting For Effective Data Augmentation For Automated Driving Vision Tasks,Maritime Alps,,Provence-Alpes-Côte d'Azur
394,13,Deepak Bajhaiya,IIT Madras,12.9914769,80.2336786,India,Deep learning--powered generation of artificial endoscopic images of GI tract ulcers,Deflating dataset bias using synthetic data augmentation,,,Tamil Nadu
395,11,Sushruth Nagesh,Ford Motor Company,-38.10269175,144.3579853884846,Australia,DatasetEquity: Are All Samples Created Equal? In The Quest For Equity Within Datasets,SIMBAR: Single Image-Based Scene Relighting For Effective Data Augmentation For Automated Driving Vision Tasks,,Geelong,Victoria
396,11,Sushruth Nagesh,Ford Motor Company,-38.10269175,144.3579853884846,Australia,Unveiling the Ambiguity in Neural Inverse Rendering: A Parameter Compensation Analysis,SIMBAR: Single Image-Based Scene Relighting For Effective Data Augmentation For Automated Driving Vision Tasks,,Geelong,Victoria
397,11,Sushruth Nagesh,Ford Motor Company,-38.10269175,144.3579853884846,Australia,DatasetEquity: Are All Samples Created Equal? In The Quest For Equity Within Datasets,Deflating dataset bias using synthetic data augmentation,,Geelong,Victoria
398,11,Sushruth Nagesh,Ford Motor Company,-38.10269175,144.3579853884846,Australia,DatasetEquity: Are All Samples Created Equal? In The Quest For Equity Within Datasets,deepPIC: Deep perceptual image clustering for identifying bias in vision datasets,,Geelong,Victoria
399,11,Pemma Reiter,Arizona State University,33.4213174,-111.93316305413154,United States,Automated Program Repair: Emerging trends pose and expose problems for benchmarks,Deflating dataset bias using synthetic data augmentation,Maricopa County,Tempe,Arizona
400,11,Axel Wassington,Universitat Politècnica de Catalunya,41.22144745,1.7301449113565364,Spain,Bias reduction via cooperative bargaining in synthetic graph dataset generation,Deflating dataset bias using synthetic data augmentation,Garraf,,Catalonia
401,9,Mayukh Sattiraju,Clemson University,34.66869155,-82.83743475607795,United States,"Active data collection,sampling,and generation for use in training machine learning models for automotive or other applications",Neural network image processing,Pickens County,,South Carolina
402,8,Eduarda Vaz,Johns Hopkins University,39.33020225,-76.62185357858337,United States,Data Augmentation Based on Virtual Wrist Devices for Fall Detection,Deflating dataset bias using synthetic data augmentation,,Baltimore,Maryland
403,7,Guillem Delgado,Researcher,41.6567749,41.6398829,United States,Methodology for generating synthetic labeled datasets for visual container inspection,Deflating dataset bias using synthetic data augmentation,,Batumi,Autonomous Republic of Adjara
404,4,Karthik Reddy Kanjula,Researcher,41.6567749,41.6398829,United States,An Edge Internet of Things Framework for Machine Learning-Based Skin Cancer Detection Models,Deflating dataset bias using synthetic data augmentation,,Batumi,Autonomous Republic of Adjara
405,4,"Simon Hall{\""o}sta",Blekinge Institute of Technology,56.182010149999996,15.591007904064151,Sweden,Effects of Foreground Augmentations in Synthetic Training Data on the Use of UAVs for Weed Detection,Deflating dataset bias using synthetic data augmentation,Blekinge County,Karlskrona,
406,4,Gary Sun,University of Waterloo,43.4701994,-80.54524293779451,Canada,Neural lighting simulation for urban scenes,SIMBAR: Single Image-Based Scene Relighting For Effective Data Augmentation For Automated Driving Vision Tasks,Region of Waterloo,Wilmot,Ontario
407,3,Thang-Anh-Quan Nguyen,Huawei Technologies France,48.8317802,2.2583134,France,Semantically-aware Neural Radiance Fields for Visual Scene Understanding: A Comprehensive Review,LANe: Lighting-Aware Neural Fields for Compositional Scene Synthesis,Hauts-de-Seine,Boulogne-Billancourt,Ile-de-France
408,2,Junhyeck Choi,Seoul National University,37.46691,126.94771,South Korea,StarGAN Model to Translate Interior Style Trained with Virtual Images,Deflating dataset bias using synthetic data augmentation,,Seoul,
409,1,Wissam Salhab,Chicoutimi,48.3370248,-71.12352613559267,Canada,"A Systematic Literature Review on AI Safety: Identifying Trends,Challenges and Future Directions",deepPIC: Deep perceptual image clustering for identifying bias in vision datasets,,Saguenay,Quebec
410,1,Patrick Bezzina,Independent Researcher,,,,Improving portfolio construction using deep generative machine learning models applying generative models on financial market data,Deflating dataset bias using synthetic data augmentation,,,
411,NA,Ahmed Anwar,DFKI,52.5243079,13.3444441,Germany,Addressing Heterogeneity in Federated Learning: Challenges and Solutions for a Shared Production Environment,Deflating dataset bias using synthetic data augmentation,,Berlin,
412,NA,Cedric Perauer,TU Munich,48.2655696,11.669345610437997,Germany,Method and device for recognizing a parking space for a vehicle using machine learning methods,Enhanced vehicle operation,Landkreis München,,Bavaria
413,NA,AMassachusetts Institute of TechnologyRaj,Google Mountain View,37.419000999999994,-122.08237596053958,United States,LANe: Lighting-aware neural fields for compositional scene synthesis,SIMBAR: Single Image-Based Scene Relighting For Effective Data Augmentation For Automated Driving Vision Tasks,Santa Clara County,Mountain View,California
414,NA,Michael Sollami,N/A,,,,Parallel learning: Overview and perspective for computational learning across Syn2Real and Sim2Real,SIMBAR: Single Image-Based Scene Relighting For Effective Data Augmentation For Automated Driving Vision Tasks,,,
415,NA,Sonke Rohde,N/A,,,,Parallel learning: Overview and perspective for computational learning across Syn2Real and Sim2Real,SIMBAR: Single Image-Based Scene Relighting For Effective Data Augmentation For Automated Driving Vision Tasks,,,
416,NA,Alan Martin Ross,N/A,,,,Parallel learning: Overview and perspective for computational learning across Syn2Real and Sim2Real,SIMBAR: Single Image-Based Scene Relighting For Effective Data Augmentation For Automated Driving Vision Tasks,,,
